{
  "type": "FeatureCollection",
  "features": [
    {
      "type": "Feature",
      "geometry": {
        "type": "Polygon",
        "coordinates": [
          [
            [
              -117.539183,
              34.026874
            ],
            [
              -117.539321,
              34.024712
            ],
            [
              -117.532042,
              34.024484
            ],
            [
              -117.531905,
              34.026647
            ],
            [
              -117.539183,
              34.026874
            ]
          ]
        ]
      },
      "properties": {
        "account": "constellation-brands",
        "name": "Constellation Beer DC - Jurupa Valley CA",
        "type": "Distribution Center (beer/wine/spirits)",
        "archetype": "#3",
        "archetypeName": "No Gate / No GS",
        "confidence": "low",
        "zone": "perimeter",
        "truckGate": false,
        "guardShack": false,
        "remoteGs": false,
        "fastLaneOpportunity": false,
        "backupSensitive": false,
        "dropYard": false,
        "multipleFacilities": false,
        "scale": false,
        "shipRcvSeparate": false,
        "urbanRural": "Urban",
        "dockDoors": "NONE",
        "dropArea": "NONE",
        "yardMetrics": {
          "dockDoorCount": 0,
          "trailersVisible": 0,
          "trailerParkingCapacity": 0,
          "truckGateCount": 1,
          "buildingCount": 1,
          "siteAreaAcres": 71,
          "railServed": false
        }
      }
    },
    {
      "type": "Feature",
      "geometry": {
        "type": "Polygon",
        "coordinates": [
          [
            [
              -117.539321,
              34.025053
            ],
            [
              -117.539321,
              34.024712
            ],
            [
              -117.538771,
              34.024712
            ],
            [
              -117.538771,
              34.025053
            ],
            [
              -117.539321,
              34.025053
            ]
          ]
        ]
      },
      "properties": {
        "account": "constellation-brands",
        "name": "Constellation Beer DC - Jurupa Valley CA",
        "type": "Distribution Center (beer/wine/spirits)",
        "archetype": "#3",
        "archetypeName": "No Gate / No GS",
        "confidence": "low",
        "zone": "truckGate"
      }
    },
    {
      "type": "Feature",
      "geometry": {
        "type": "Polygon",
        "coordinates": [
          [
            [
              -117.534926,
              34.02585
            ],
            [
              -117.534926,
              34.025167
            ],
            [
              -117.532454,
              34.025053
            ],
            [
              -117.532454,
              34.025736
            ],
            [
              -117.534926,
              34.02585
            ]
          ]
        ]
      },
      "properties": {
        "account": "constellation-brands",
        "name": "Constellation Beer DC - Jurupa Valley CA",
        "type": "Distribution Center (beer/wine/spirits)",
        "archetype": "#3",
        "archetypeName": "No Gate / No GS",
        "confidence": "low",
        "zone": "dockApron",
        "index": 1
      }
    },
    {
      "type": "Feature",
      "geometry": {
        "type": "Polygon",
        "coordinates": [
          [
            [
              -117.539046,
              34.026761
            ],
            [
              -117.539046,
              34.024939
            ],
            [
              -117.535063,
              34.024826
            ],
            [
              -117.535063,
              34.026647
            ],
            [
              -117.539046,
              34.026761
            ]
          ]
        ]
      },
      "properties": {
        "account": "constellation-brands",
        "name": "Constellation Beer DC - Jurupa Valley CA",
        "type": "Distribution Center (beer/wine/spirits)",
        "archetype": "#3",
        "archetypeName": "No Gate / No GS",
        "confidence": "low",
        "zone": "staging"
      }
    },
    {
      "type": "Feature",
      "geometry": {
        "type": "Polygon",
        "coordinates": [
          [
            [
              -96.725057,
              32.621704
            ],
            [
              -96.726451,
              32.623525
            ],
            [
              -96.732892,
              32.619977
            ],
            [
              -96.731498,
              32.618157
            ],
            [
              -96.725057,
              32.621704
            ]
          ]
        ]
      },
      "properties": {
        "account": "constellation-brands",
        "name": "Constellation Beer DC - Wilmer TX (Dallas I-45)",
        "type": "Distribution Center (beer cross-dock, rail-served)",
        "archetype": "#3",
        "archetypeName": "No Gate / No GS",
        "confidence": "medium",
        "zone": "perimeter",
        "truckGate": false,
        "guardShack": false,
        "remoteGs": false,
        "fastLaneOpportunity": true,
        "backupSensitive": false,
        "dropYard": true,
        "multipleFacilities": false,
        "scale": false,
        "shipRcvSeparate": true,
        "urbanRural": "Rural",
        "dockDoors": "50+",
        "dropArea": "25-50",
        "yardMetrics": {
          "dockDoorCount": 64,
          "trailersVisible": 55,
          "trailerParkingCapacity": 80,
          "truckGateCount": 1,
          "buildingCount": 1,
          "siteAreaAcres": 41,
          "railServed": true
        }
      }
    },
    {
      "type": "Feature",
      "geometry": {
        "type": "Polygon",
        "coordinates": [
          [
            [
              -96.731339,
              32.619194
            ],
            [
              -96.731513,
              32.619422
            ],
            [
              -96.731781,
              32.619274
            ],
            [
              -96.731607,
              32.619046
            ],
            [
              -96.731339,
              32.619194
            ]
          ]
        ]
      },
      "properties": {
        "account": "constellation-brands",
        "name": "Constellation Beer DC - Wilmer TX (Dallas I-45)",
        "type": "Distribution Center (beer cross-dock, rail-served)",
        "archetype": "#3",
        "archetypeName": "No Gate / No GS",
        "confidence": "medium",
        "zone": "truckGate"
      }
    },
    {
      "type": "Feature",
      "geometry": {
        "type": "Polygon",
        "coordinates": [
          [
            [
              -96.72584,
              32.622395
            ],
            [
              -96.725991,
              32.622592
            ],
            [
              -96.732074,
              32.619241
            ],
            [
              -96.731923,
              32.619044
            ],
            [
              -96.72584,
              32.622395
            ]
          ]
        ]
      },
      "properties": {
        "account": "constellation-brands",
        "name": "Constellation Beer DC - Wilmer TX (Dallas I-45)",
        "type": "Distribution Center (beer cross-dock, rail-served)",
        "archetype": "#3",
        "archetypeName": "No Gate / No GS",
        "confidence": "medium",
        "zone": "dockApron",
        "index": 1
      }
    },
    {
      "type": "Feature",
      "geometry": {
        "type": "Polygon",
        "coordinates": [
          [
            [
              -96.72566,
              32.621992
            ],
            [
              -96.725979,
              32.62241
            ],
            [
              -96.731883,
              32.619158
            ],
            [
              -96.731563,
              32.618741
            ],
            [
              -96.72566,
              32.621992
            ]
          ]
        ]
      },
      "properties": {
        "account": "constellation-brands",
        "name": "Constellation Beer DC - Wilmer TX (Dallas I-45)",
        "type": "Distribution Center (beer cross-dock, rail-served)",
        "archetype": "#3",
        "archetypeName": "No Gate / No GS",
        "confidence": "medium",
        "zone": "staging"
      }
    },
    {
      "type": "Feature",
      "geometry": {
        "type": "Polygon",
        "coordinates": [
          [
            [
              -81.633341,
              30.425212
            ],
            [
              -81.63341,
              30.422251
            ],
            [
              -81.63135,
              30.422192
            ],
            [
              -81.631281,
              30.425153
            ],
            [
              -81.633341,
              30.425212
            ]
          ]
        ]
      },
      "properties": {
        "account": "constellation-brands",
        "name": "Constellation Beer DC - Jacksonville FL",
        "type": "Distribution Center (beer, rail-served)",
        "archetype": "#10",
        "archetypeName": "Ship/Rcv Separate (Gate+GS)",
        "confidence": "high",
        "zone": "perimeter",
        "truckGate": true,
        "guardShack": true,
        "remoteGs": false,
        "fastLaneOpportunity": true,
        "backupSensitive": false,
        "dropYard": true,
        "multipleFacilities": false,
        "scale": false,
        "shipRcvSeparate": true,
        "urbanRural": "Urban",
        "dockDoors": "50+",
        "dropArea": "10-25",
        "yardMetrics": {
          "dockDoorCount": 54,
          "trailersVisible": 12,
          "trailerParkingCapacity": 60,
          "truckGateCount": 1,
          "buildingCount": 1,
          "siteAreaAcres": 25,
          "railServed": true
        }
      }
    },
    {
      "type": "Feature",
      "geometry": {
        "type": "Polygon",
        "coordinates": [
          [
            [
              -81.633273,
              30.425212
            ],
            [
              -81.633273,
              30.425034
            ],
            [
              -81.632792,
              30.425034
            ],
            [
              -81.632792,
              30.425212
            ],
            [
              -81.633273,
              30.425212
            ]
          ]
        ]
      },
      "properties": {
        "account": "constellation-brands",
        "name": "Constellation Beer DC - Jacksonville FL",
        "type": "Distribution Center (beer, rail-served)",
        "archetype": "#10",
        "archetypeName": "Ship/Rcv Separate (Gate+GS)",
        "confidence": "high",
        "zone": "truckGate"
      }
    },
    {
      "type": "Feature",
      "geometry": {
        "type": "Polygon",
        "coordinates": [
          [
            [
              -81.633341,
              30.425034
            ],
            [
              -81.633341,
              30.42237
            ],
            [
              -81.632929,
              30.42237
            ],
            [
              -81.632929,
              30.425034
            ],
            [
              -81.633341,
              30.425034
            ]
          ]
        ]
      },
      "properties": {
        "account": "constellation-brands",
        "name": "Constellation Beer DC - Jacksonville FL",
        "type": "Distribution Center (beer, rail-served)",
        "archetype": "#10",
        "archetypeName": "Ship/Rcv Separate (Gate+GS)",
        "confidence": "high",
        "zone": "dockApron",
        "index": 1
      }
    },
    {
      "type": "Feature",
      "geometry": {
        "type": "Polygon",
        "coordinates": [
          [
            [
              -81.631693,
              30.425034
            ],
            [
              -81.631762,
              30.42237
            ],
            [
              -81.631419,
              30.42237
            ],
            [
              -81.63135,
              30.425034
            ],
            [
              -81.631693,
              30.425034
            ]
          ]
        ]
      },
      "properties": {
        "account": "constellation-brands",
        "name": "Constellation Beer DC - Jacksonville FL",
        "type": "Distribution Center (beer, rail-served)",
        "archetype": "#10",
        "archetypeName": "Ship/Rcv Separate (Gate+GS)",
        "confidence": "high",
        "zone": "dockApron",
        "index": 2
      }
    },
    {
      "type": "Feature",
      "geometry": {
        "type": "Polygon",
        "coordinates": [
          [
            [
              -121.437447,
              36.503945
            ],
            [
              -121.437447,
              36.499971
            ],
            [
              -121.433052,
              36.499971
            ],
            [
              -121.433052,
              36.503945
            ],
            [
              -121.437447,
              36.503945
            ]
          ]
        ]
      },
      "properties": {
        "account": "constellation-brands",
        "name": "Constellation Gonzales Winery - Gonzales CA",
        "type": "Winery / Production Facility",
        "archetype": "#3",
        "archetypeName": "No Gate / No GS",
        "confidence": "medium",
        "zone": "perimeter",
        "truckGate": false,
        "guardShack": false,
        "remoteGs": false,
        "fastLaneOpportunity": true,
        "backupSensitive": false,
        "dropYard": false,
        "multipleFacilities": true,
        "scale": false,
        "shipRcvSeparate": true,
        "urbanRural": "Rural",
        "dockDoors": "0-10",
        "dropArea": "0-10",
        "yardMetrics": {
          "dockDoorCount": 10,
          "trailersVisible": 8,
          "trailerParkingCapacity": 20,
          "truckGateCount": 1,
          "buildingCount": 4,
          "siteAreaAcres": 41,
          "railServed": false
        }
      }
    },
    {
      "type": "Feature",
      "geometry": {
        "type": "Polygon",
        "coordinates": [
          [
            [
              -121.434013,
              36.501848
            ],
            [
              -121.434013,
              36.501406
            ],
            [
              -121.433189,
              36.501406
            ],
            [
              -121.433189,
              36.501848
            ],
            [
              -121.434013,
              36.501848
            ]
          ]
        ]
      },
      "properties": {
        "account": "constellation-brands",
        "name": "Constellation Gonzales Winery - Gonzales CA",
        "type": "Winery / Production Facility",
        "archetype": "#3",
        "archetypeName": "No Gate / No GS",
        "confidence": "medium",
        "zone": "truckGate"
      }
    },
    {
      "type": "Feature",
      "geometry": {
        "type": "Polygon",
        "coordinates": [
          [
            [
              -121.435112,
              36.5024
            ],
            [
              -121.435112,
              36.501848
            ],
            [
              -121.433327,
              36.501848
            ],
            [
              -121.433327,
              36.5024
            ],
            [
              -121.435112,
              36.5024
            ]
          ]
        ]
      },
      "properties": {
        "account": "constellation-brands",
        "name": "Constellation Gonzales Winery - Gonzales CA",
        "type": "Winery / Production Facility",
        "archetype": "#3",
        "archetypeName": "No Gate / No GS",
        "confidence": "medium",
        "zone": "dockApron",
        "index": 1
      }
    },
    {
      "type": "Feature",
      "geometry": {
        "type": "Polygon",
        "coordinates": [
          [
            [
              -121.437035,
              36.503504
            ],
            [
              -121.437035,
              36.502179
            ],
            [
              -121.435249,
              36.502179
            ],
            [
              -121.435249,
              36.503504
            ],
            [
              -121.437035,
              36.503504
            ]
          ]
        ]
      },
      "properties": {
        "account": "constellation-brands",
        "name": "Constellation Gonzales Winery - Gonzales CA",
        "type": "Winery / Production Facility",
        "archetype": "#3",
        "archetypeName": "No Gate / No GS",
        "confidence": "medium",
        "zone": "staging"
      }
    },
    {
      "type": "Feature",
      "geometry": {
        "type": "Polygon",
        "coordinates": [
          [
            [
              -122.402948,
              38.437206
            ],
            [
              -122.402948,
              38.435055
            ],
            [
              -122.400201,
              38.435055
            ],
            [
              -122.400201,
              38.437206
            ],
            [
              -122.402948,
              38.437206
            ]
          ]
        ]
      },
      "properties": {
        "account": "constellation-brands",
        "name": "Robert Mondavi Winery - Oakville CA",
        "type": "Winery / Production Facility",
        "archetype": "#3",
        "archetypeName": "No Gate / No GS",
        "confidence": "medium",
        "zone": "perimeter",
        "truckGate": false,
        "guardShack": false,
        "remoteGs": false,
        "fastLaneOpportunity": false,
        "backupSensitive": false,
        "dropYard": false,
        "multipleFacilities": true,
        "scale": false,
        "shipRcvSeparate": false,
        "urbanRural": "Rural",
        "dockDoors": "0-10",
        "dropArea": "NONE",
        "yardMetrics": {
          "dockDoorCount": 5,
          "trailersVisible": 2,
          "trailerParkingCapacity": 4,
          "truckGateCount": 1,
          "buildingCount": 5,
          "siteAreaAcres": 14,
          "railServed": false
        }
      }
    },
    {
      "type": "Feature",
      "geometry": {
        "type": "Polygon",
        "coordinates": [
          [
            [
              -122.433361,
              38.475771
            ],
            [
              -122.433223,
              38.473997
            ],
            [
              -122.431163,
              38.474105
            ],
            [
              -122.431301,
              38.475771
            ],
            [
              -122.433361,
              38.475771
            ]
          ]
        ]
      },
      "properties": {
        "account": "constellation-brands",
        "name": "The Prisoner Wine Company - St. Helena CA",
        "type": "Winery / Production Facility",
        "archetype": "#3",
        "archetypeName": "No Gate / No GS",
        "confidence": "high",
        "zone": "perimeter",
        "truckGate": false,
        "guardShack": false,
        "remoteGs": false,
        "fastLaneOpportunity": false,
        "backupSensitive": false,
        "dropYard": false,
        "multipleFacilities": false,
        "scale": false,
        "shipRcvSeparate": false,
        "urbanRural": "Rural",
        "dockDoors": "0-10",
        "dropArea": "NONE",
        "yardMetrics": {
          "dockDoorCount": 3,
          "trailersVisible": 0,
          "trailerParkingCapacity": 4,
          "truckGateCount": 1,
          "buildingCount": 2,
          "siteAreaAcres": 33,
          "railServed": false
        }
      }
    },
    {
      "type": "Feature",
      "geometry": {
        "type": "Polygon",
        "coordinates": [
          [
            [
              -122.403823,
              38.361311
            ],
            [
              -122.40396,
              38.359265
            ],
            [
              -122.401351,
              38.359158
            ],
            [
              -122.401213,
              38.361204
            ],
            [
              -122.403823,
              38.361311
            ]
          ]
        ]
      },
      "properties": {
        "account": "constellation-brands",
        "name": "Mount Veeder Winery / Franciscan Estate - Napa CA",
        "type": "Winery / Production Facility",
        "archetype": "#3",
        "archetypeName": "No Gate / No GS",
        "confidence": "medium",
        "zone": "perimeter",
        "truckGate": false,
        "guardShack": false,
        "remoteGs": false,
        "fastLaneOpportunity": false,
        "backupSensitive": false,
        "dropYard": false,
        "multipleFacilities": false,
        "scale": false,
        "shipRcvSeparate": false,
        "urbanRural": "Rural",
        "dockDoors": "NONE",
        "dropArea": "NONE",
        "yardMetrics": {
          "dockDoorCount": 0,
          "trailersVisible": 0,
          "trailerParkingCapacity": 0,
          "truckGateCount": 0,
          "buildingCount": 1,
          "siteAreaAcres": 60,
          "railServed": false
        }
      }
    },
    {
      "type": "Feature",
      "geometry": {
        "type": "Polygon",
        "coordinates": [
          [
            [
              -120.74015,
              35.578985
            ],
            [
              -120.740287,
              35.578427
            ],
            [
              -120.739463,
              35.578315
            ],
            [
              -120.739326,
              35.578873
            ],
            [
              -120.74015,
              35.578985
            ]
          ]
        ]
      },
      "properties": {
        "account": "constellation-brands",
        "name": "Booker Vineyard / My Favorite Neighbor - Paso Robles CA",
        "type": "Winery / Production Facility",
        "archetype": "#3",
        "archetypeName": "No Gate / No GS",
        "confidence": "high",
        "zone": "perimeter",
        "truckGate": false,
        "guardShack": false,
        "remoteGs": false,
        "fastLaneOpportunity": false,
        "backupSensitive": false,
        "dropYard": false,
        "multipleFacilities": false,
        "scale": false,
        "shipRcvSeparate": false,
        "urbanRural": "Rural",
        "dockDoors": "0-10",
        "dropArea": "NONE",
        "yardMetrics": {
          "dockDoorCount": 2,
          "trailersVisible": 0,
          "trailerParkingCapacity": 3,
          "truckGateCount": 1,
          "buildingCount": 3,
          "siteAreaAcres": 14,
          "railServed": false
        }
      }
    },
    {
      "type": "Feature",
      "geometry": {
        "type": "Polygon",
        "coordinates": [
          [
            [
              -120.466194,
              34.664439
            ],
            [
              -120.466194,
              34.663564
            ],
            [
              -120.465164,
              34.663564
            ],
            [
              -120.465164,
              34.664439
            ],
            [
              -120.466194,
              34.664439
            ]
          ]
        ]
      },
      "properties": {
        "account": "constellation-brands",
        "name": "Sea Smoke Cellars - Lompoc CA",
        "type": "Winery / Production Facility",
        "archetype": "#3",
        "archetypeName": "No Gate / No GS",
        "confidence": "high",
        "zone": "perimeter",
        "truckGate": false,
        "guardShack": false,
        "remoteGs": false,
        "fastLaneOpportunity": false,
        "backupSensitive": false,
        "dropYard": false,
        "multipleFacilities": false,
        "scale": false,
        "shipRcvSeparate": false,
        "urbanRural": "Rural",
        "dockDoors": "0-10",
        "dropArea": "NONE",
        "yardMetrics": {
          "dockDoorCount": 3,
          "trailersVisible": 0,
          "trailerParkingCapacity": 2,
          "truckGateCount": 1,
          "buildingCount": 1,
          "siteAreaAcres": 4.5,
          "railServed": false
        }
      }
    },
    {
      "type": "Feature",
      "geometry": {
        "type": "Polygon",
        "coordinates": [
          [
            [
              -120.466194,
              34.664326
            ],
            [
              -120.466194,
              34.664213
            ],
            [
              -120.466057,
              34.664213
            ],
            [
              -120.466057,
              34.664326
            ],
            [
              -120.466194,
              34.664326
            ]
          ]
        ]
      },
      "properties": {
        "account": "constellation-brands",
        "name": "Sea Smoke Cellars - Lompoc CA",
        "type": "Winery / Production Facility",
        "archetype": "#3",
        "archetypeName": "No Gate / No GS",
        "confidence": "high",
        "zone": "truckGate"
      }
    },
    {
      "type": "Feature",
      "geometry": {
        "type": "Polygon",
        "coordinates": [
          [
            [
              -120.465679,
              34.664326
            ],
            [
              -120.465679,
              34.663705
            ],
            [
              -120.465302,
              34.663705
            ],
            [
              -120.465302,
              34.664326
            ],
            [
              -120.465679,
              34.664326
            ]
          ]
        ]
      },
      "properties": {
        "account": "constellation-brands",
        "name": "Sea Smoke Cellars - Lompoc CA",
        "type": "Winery / Production Facility",
        "archetype": "#3",
        "archetypeName": "No Gate / No GS",
        "confidence": "high",
        "zone": "dropYard",
        "index": 1
      }
    },
    {
      "type": "Feature",
      "geometry": {
        "type": "Polygon",
        "coordinates": [
          [
            [
              -120.466057,
              34.664326
            ],
            [
              -120.466057,
              34.663677
            ],
            [
              -120.465748,
              34.663677
            ],
            [
              -120.465748,
              34.664326
            ],
            [
              -120.466057,
              34.664326
            ]
          ]
        ]
      },
      "properties": {
        "account": "constellation-brands",
        "name": "Sea Smoke Cellars - Lompoc CA",
        "type": "Winery / Production Facility",
        "archetype": "#3",
        "archetypeName": "No Gate / No GS",
        "confidence": "high",
        "zone": "dockApron",
        "index": 1
      }
    },
    {
      "type": "Feature",
      "geometry": {
        "type": "Polygon",
        "coordinates": [
          [
            [
              -123.094274,
              45.073685
            ],
            [
              -123.094274,
              45.072812
            ],
            [
              -123.093038,
              45.072812
            ],
            [
              -123.093038,
              45.073685
            ],
            [
              -123.094274,
              45.073685
            ]
          ]
        ]
      },
      "properties": {
        "account": "constellation-brands",
        "name": "Lingua Franca Winery - Salem OR",
        "type": "Winery / Production Facility",
        "archetype": "#3",
        "archetypeName": "No Gate / No GS",
        "confidence": "high",
        "zone": "perimeter",
        "truckGate": false,
        "guardShack": false,
        "remoteGs": false,
        "fastLaneOpportunity": false,
        "backupSensitive": false,
        "dropYard": false,
        "multipleFacilities": false,
        "scale": false,
        "shipRcvSeparate": false,
        "urbanRural": "Rural",
        "dockDoors": "0-10",
        "dropArea": "NONE",
        "yardMetrics": {
          "dockDoorCount": 3,
          "trailersVisible": 0,
          "trailerParkingCapacity": 3,
          "truckGateCount": 1,
          "buildingCount": 2,
          "siteAreaAcres": 9,
          "railServed": false
        }
      }
    },
    {
      "type": "Feature",
      "geometry": {
        "type": "Polygon",
        "coordinates": [
          [
            [
              -111.445243,
              40.80868
            ],
            [
              -111.445449,
              40.807692
            ],
            [
              -111.44435,
              40.807536
            ],
            [
              -111.444144,
              40.808524
            ],
            [
              -111.445243,
              40.80868
            ]
          ]
        ]
      },
      "properties": {
        "account": "constellation-brands",
        "name": "High West Distillery - Wanship UT",
        "type": "Distillery / Production Facility",
        "archetype": "#1",
        "archetypeName": "Gate + GS (not BU sens.)",
        "confidence": "medium",
        "zone": "perimeter",
        "truckGate": true,
        "guardShack": true,
        "remoteGs": false,
        "fastLaneOpportunity": false,
        "backupSensitive": false,
        "dropYard": false,
        "multipleFacilities": false,
        "scale": false,
        "shipRcvSeparate": false,
        "urbanRural": "Rural",
        "dockDoors": "0-10",
        "dropArea": "NONE",
        "yardMetrics": {
          "dockDoorCount": 4,
          "trailersVisible": 0,
          "trailerParkingCapacity": 3,
          "truckGateCount": 1,
          "buildingCount": 3,
          "siteAreaAcres": 11,
          "railServed": false
        }
      }
    }
  ]
}
