{
  "type": "FeatureCollection",
  "features": [
    {
      "type": "Feature",
      "geometry": {
        "type": "Polygon",
        "coordinates": [
          [
            [
              -89.914,
              30.0312
            ],
            [
              -89.9082,
              30.0312
            ],
            [
              -89.9082,
              30.036
            ],
            [
              -89.914,
              30.036
            ],
            [
              -89.914,
              30.0312
            ]
          ]
        ]
      },
      "properties": {
        "account": "jm-smucker",
        "name": "Coffee Roasting - New Orleans LA",
        "type": "Manufacturing - Coffee roasting/packaging (bulk)",
        "archetype": "#9",
        "archetypeName": "Gate + No GS (remote check-in)",
        "confidence": "high",
        "zone": "perimeter",
        "truckGate": true,
        "guardShack": false,
        "remoteGs": true,
        "fastLaneOpportunity": true,
        "backupSensitive": false,
        "dropYard": true,
        "multipleFacilities": true,
        "scale": false,
        "shipRcvSeparate": true,
        "urbanRural": "Urban",
        "dockDoors": "25-50",
        "dropArea": "10-25",
        "yardMetrics": {
          "dockDoorCount": 30,
          "trailersVisible": 11,
          "trailerParkingCapacity": 30,
          "truckGateCount": 1,
          "buildingCount": 3,
          "siteAreaAcres": 73.8,
          "railServed": true
        }
      }
    },
    {
      "type": "Feature",
      "geometry": {
        "type": "Polygon",
        "coordinates": [
          [
            [
              -89.91375,
              30.03145
            ],
            [
              -89.91325,
              30.03145
            ],
            [
              -89.91325,
              30.03175
            ],
            [
              -89.91375,
              30.03175
            ],
            [
              -89.91375,
              30.03145
            ]
          ]
        ]
      },
      "properties": {
        "account": "jm-smucker",
        "name": "Coffee Roasting - New Orleans LA",
        "type": "Manufacturing - Coffee roasting/packaging (bulk)",
        "archetype": "#9",
        "archetypeName": "Gate + No GS (remote check-in)",
        "confidence": "high",
        "zone": "truckGate"
      }
    },
    {
      "type": "Feature",
      "geometry": {
        "type": "Polygon",
        "coordinates": [
          [
            [
              -89.91185,
              30.03255
            ],
            [
              -89.9112,
              30.03255
            ],
            [
              -89.9112,
              30.033
            ],
            [
              -89.91185,
              30.033
            ],
            [
              -89.91185,
              30.03255
            ]
          ]
        ]
      },
      "properties": {
        "account": "jm-smucker",
        "name": "Coffee Roasting - New Orleans LA",
        "type": "Manufacturing - Coffee roasting/packaging (bulk)",
        "archetype": "#9",
        "archetypeName": "Gate + No GS (remote check-in)",
        "confidence": "high",
        "zone": "dropYard",
        "index": 1
      }
    },
    {
      "type": "Feature",
      "geometry": {
        "type": "Polygon",
        "coordinates": [
          [
            [
              -89.9124,
              30.0326
            ],
            [
              -89.911,
              30.0326
            ],
            [
              -89.911,
              30.0331
            ],
            [
              -89.9124,
              30.0331
            ],
            [
              -89.9124,
              30.0326
            ]
          ]
        ]
      },
      "properties": {
        "account": "jm-smucker",
        "name": "Coffee Roasting - New Orleans LA",
        "type": "Manufacturing - Coffee roasting/packaging (bulk)",
        "archetype": "#9",
        "archetypeName": "Gate + No GS (remote check-in)",
        "confidence": "high",
        "zone": "dockApron",
        "index": 1
      }
    },
    {
      "type": "Feature",
      "geometry": {
        "type": "Polygon",
        "coordinates": [
          [
            [
              -89.9113,
              30.03285
            ],
            [
              -89.9102,
              30.03285
            ],
            [
              -89.9102,
              30.0334
            ],
            [
              -89.9113,
              30.0334
            ],
            [
              -89.9113,
              30.03285
            ]
          ]
        ]
      },
      "properties": {
        "account": "jm-smucker",
        "name": "Coffee Roasting - New Orleans LA",
        "type": "Manufacturing - Coffee roasting/packaging (bulk)",
        "archetype": "#9",
        "archetypeName": "Gate + No GS (remote check-in)",
        "confidence": "high",
        "zone": "dockApron",
        "index": 2
      }
    },
    {
      "type": "Feature",
      "geometry": {
        "type": "Polygon",
        "coordinates": [
          [
            [
              -90.11305,
              29.9132
            ],
            [
              -90.1114,
              29.9132
            ],
            [
              -90.1114,
              29.9146
            ],
            [
              -90.11305,
              29.9146
            ],
            [
              -90.11305,
              29.9132
            ]
          ]
        ]
      },
      "properties": {
        "account": "jm-smucker",
        "name": "Coffee Silo Operations - New Orleans LA",
        "type": "Distribution/Processing - Green coffee bean silo operations",
        "archetype": "#7",
        "archetypeName": "Gate + GS (not BU sens.) + fast lane opp",
        "confidence": "medium",
        "zone": "perimeter",
        "truckGate": true,
        "guardShack": true,
        "remoteGs": false,
        "fastLaneOpportunity": true,
        "backupSensitive": false,
        "dropYard": false,
        "multipleFacilities": false,
        "scale": false,
        "shipRcvSeparate": false,
        "urbanRural": "Urban",
        "dockDoors": "0-10",
        "dropArea": "0-10",
        "yardMetrics": {
          "dockDoorCount": 6,
          "trailersVisible": 8,
          "trailerParkingCapacity": 14,
          "truckGateCount": 1,
          "buildingCount": 2,
          "siteAreaAcres": 6.1,
          "railServed": true
        }
      }
    },
    {
      "type": "Feature",
      "geometry": {
        "type": "Polygon",
        "coordinates": [
          [
            [
              -90.113,
              29.9137
            ],
            [
              -90.1125,
              29.9137
            ],
            [
              -90.1125,
              29.9144
            ],
            [
              -90.113,
              29.9144
            ],
            [
              -90.113,
              29.9137
            ]
          ]
        ]
      },
      "properties": {
        "account": "jm-smucker",
        "name": "Coffee Silo Operations - New Orleans LA",
        "type": "Distribution/Processing - Green coffee bean silo operations",
        "archetype": "#7",
        "archetypeName": "Gate + GS (not BU sens.) + fast lane opp",
        "confidence": "medium",
        "zone": "dropYard",
        "index": 1
      }
    },
    {
      "type": "Feature",
      "geometry": {
        "type": "Polygon",
        "coordinates": [
          [
            [
              -90.1126,
              29.91345
            ],
            [
              -90.11175,
              29.91345
            ],
            [
              -90.11175,
              29.91385
            ],
            [
              -90.1126,
              29.91385
            ],
            [
              -90.1126,
              29.91345
            ]
          ]
        ]
      },
      "properties": {
        "account": "jm-smucker",
        "name": "Coffee Silo Operations - New Orleans LA",
        "type": "Distribution/Processing - Green coffee bean silo operations",
        "archetype": "#7",
        "archetypeName": "Gate + GS (not BU sens.) + fast lane opp",
        "confidence": "medium",
        "zone": "dockApron",
        "index": 1
      }
    },
    {
      "type": "Feature",
      "geometry": {
        "type": "Polygon",
        "coordinates": [
          [
            [
              -87.0632,
              33.2969
            ],
            [
              -87.0568,
              33.2969
            ],
            [
              -87.0568,
              33.3024
            ],
            [
              -87.0632,
              33.3024
            ],
            [
              -87.0632,
              33.2969
            ]
          ]
        ]
      },
      "properties": {
        "account": "jm-smucker",
        "name": "Uncrustables - McCalla AL",
        "type": "Manufacturing - Frozen handhelds (Uncrustables)",
        "archetype": "#7",
        "archetypeName": "Gate + GS (not BU sens.) + fast lane opp",
        "confidence": "medium",
        "zone": "perimeter",
        "truckGate": true,
        "guardShack": true,
        "remoteGs": false,
        "fastLaneOpportunity": true,
        "backupSensitive": false,
        "dropYard": true,
        "multipleFacilities": false,
        "scale": false,
        "shipRcvSeparate": false,
        "urbanRural": "Rural",
        "dockDoors": "50+",
        "dropArea": "25-50",
        "yardMetrics": {
          "dockDoorCount": 55,
          "trailersVisible": 22,
          "trailerParkingCapacity": 70,
          "truckGateCount": 1,
          "buildingCount": 1,
          "siteAreaAcres": 90.1,
          "railServed": false
        }
      }
    },
    {
      "type": "Feature",
      "geometry": {
        "type": "Polygon",
        "coordinates": [
          [
            [
              -87.058,
              33.2984
            ],
            [
              -87.0573,
              33.2984
            ],
            [
              -87.0573,
              33.299
            ],
            [
              -87.058,
              33.299
            ],
            [
              -87.058,
              33.2984
            ]
          ]
        ]
      },
      "properties": {
        "account": "jm-smucker",
        "name": "Uncrustables - McCalla AL",
        "type": "Manufacturing - Frozen handhelds (Uncrustables)",
        "archetype": "#7",
        "archetypeName": "Gate + GS (not BU sens.) + fast lane opp",
        "confidence": "medium",
        "zone": "truckGate"
      }
    },
    {
      "type": "Feature",
      "geometry": {
        "type": "Polygon",
        "coordinates": [
          [
            [
              -87.0615,
              33.2972
            ],
            [
              -87.0603,
              33.2972
            ],
            [
              -87.0603,
              33.2985
            ],
            [
              -87.0615,
              33.2985
            ],
            [
              -87.0615,
              33.2972
            ]
          ]
        ]
      },
      "properties": {
        "account": "jm-smucker",
        "name": "Uncrustables - McCalla AL",
        "type": "Manufacturing - Frozen handhelds (Uncrustables)",
        "archetype": "#7",
        "archetypeName": "Gate + GS (not BU sens.) + fast lane opp",
        "confidence": "medium",
        "zone": "dropYard",
        "index": 1
      }
    },
    {
      "type": "Feature",
      "geometry": {
        "type": "Polygon",
        "coordinates": [
          [
            [
              -87.0625,
              33.2976
            ],
            [
              -87.0608,
              33.2976
            ],
            [
              -87.0608,
              33.3006
            ],
            [
              -87.0625,
              33.3006
            ],
            [
              -87.0625,
              33.2976
            ]
          ]
        ]
      },
      "properties": {
        "account": "jm-smucker",
        "name": "Uncrustables - McCalla AL",
        "type": "Manufacturing - Frozen handhelds (Uncrustables)",
        "archetype": "#7",
        "archetypeName": "Gate + GS (not BU sens.) + fast lane opp",
        "confidence": "medium",
        "zone": "dockApron",
        "index": 1
      }
    },
    {
      "type": "Feature",
      "geometry": {
        "type": "Polygon",
        "coordinates": [
          [
            [
              -87.0588,
              33.2976
            ],
            [
              -87.0574,
              33.2976
            ],
            [
              -87.0574,
              33.2989
            ],
            [
              -87.0588,
              33.2989
            ],
            [
              -87.0588,
              33.2976
            ]
          ]
        ]
      },
      "properties": {
        "account": "jm-smucker",
        "name": "Uncrustables - McCalla AL",
        "type": "Manufacturing - Frozen handhelds (Uncrustables)",
        "archetype": "#7",
        "archetypeName": "Gate + GS (not BU sens.) + fast lane opp",
        "confidence": "medium",
        "zone": "staging"
      }
    },
    {
      "type": "Feature",
      "geometry": {
        "type": "Polygon",
        "coordinates": [
          [
            [
              -105.0555,
              40.1608
            ],
            [
              -105.049,
              40.1608
            ],
            [
              -105.049,
              40.1668
            ],
            [
              -105.0555,
              40.1668
            ],
            [
              -105.0555,
              40.1608
            ]
          ]
        ]
      },
      "properties": {
        "account": "jm-smucker",
        "name": "Uncrustables - Longmont CO",
        "type": "Manufacturing - Frozen handhelds (Uncrustables)",
        "archetype": "#3",
        "archetypeName": "No Gate / No GS",
        "confidence": "high",
        "zone": "perimeter",
        "truckGate": false,
        "guardShack": false,
        "remoteGs": false,
        "fastLaneOpportunity": true,
        "backupSensitive": false,
        "dropYard": true,
        "multipleFacilities": false,
        "scale": false,
        "shipRcvSeparate": false,
        "urbanRural": "Rural",
        "dockDoors": "25-50",
        "dropArea": "50+",
        "yardMetrics": {
          "dockDoorCount": 45,
          "trailersVisible": 60,
          "trailerParkingCapacity": 90,
          "truckGateCount": 1,
          "buildingCount": 2,
          "siteAreaAcres": 91.3,
          "railServed": false
        }
      }
    },
    {
      "type": "Feature",
      "geometry": {
        "type": "Polygon",
        "coordinates": [
          [
            [
              -105.055,
              40.1617
            ],
            [
              -105.05445,
              40.1617
            ],
            [
              -105.05445,
              40.16215
            ],
            [
              -105.055,
              40.16215
            ],
            [
              -105.055,
              40.1617
            ]
          ]
        ]
      },
      "properties": {
        "account": "jm-smucker",
        "name": "Uncrustables - Longmont CO",
        "type": "Manufacturing - Frozen handhelds (Uncrustables)",
        "archetype": "#3",
        "archetypeName": "No Gate / No GS",
        "confidence": "high",
        "zone": "truckGate"
      }
    },
    {
      "type": "Feature",
      "geometry": {
        "type": "Polygon",
        "coordinates": [
          [
            [
              -105.051,
              40.1638
            ],
            [
              -105.0492,
              40.1638
            ],
            [
              -105.0492,
              40.1658
            ],
            [
              -105.051,
              40.1658
            ],
            [
              -105.051,
              40.1638
            ]
          ]
        ]
      },
      "properties": {
        "account": "jm-smucker",
        "name": "Uncrustables - Longmont CO",
        "type": "Manufacturing - Frozen handhelds (Uncrustables)",
        "archetype": "#3",
        "archetypeName": "No Gate / No GS",
        "confidence": "high",
        "zone": "dropYard",
        "index": 1
      }
    },
    {
      "type": "Feature",
      "geometry": {
        "type": "Polygon",
        "coordinates": [
          [
            [
              -105.0523,
              40.1625
            ],
            [
              -105.0508,
              40.1625
            ],
            [
              -105.0508,
              40.1656
            ],
            [
              -105.0523,
              40.1656
            ],
            [
              -105.0523,
              40.1625
            ]
          ]
        ]
      },
      "properties": {
        "account": "jm-smucker",
        "name": "Uncrustables - Longmont CO",
        "type": "Manufacturing - Frozen handhelds (Uncrustables)",
        "archetype": "#3",
        "archetypeName": "No Gate / No GS",
        "confidence": "high",
        "zone": "dockApron",
        "index": 1
      }
    },
    {
      "type": "Feature",
      "geometry": {
        "type": "Polygon",
        "coordinates": [
          [
            [
              -86.185,
              36.7608
            ],
            [
              -86.179,
              36.7608
            ],
            [
              -86.179,
              36.7656
            ],
            [
              -86.185,
              36.7656
            ],
            [
              -86.185,
              36.7608
            ]
          ]
        ]
      },
      "properties": {
        "account": "jm-smucker",
        "name": "Uncrustables - Scottsville KY",
        "type": "Manufacturing - Frozen handhelds (Uncrustables)",
        "archetype": "#3",
        "archetypeName": "No Gate / No GS",
        "confidence": "high",
        "zone": "perimeter",
        "truckGate": false,
        "guardShack": false,
        "remoteGs": false,
        "fastLaneOpportunity": true,
        "backupSensitive": false,
        "dropYard": true,
        "multipleFacilities": false,
        "scale": false,
        "shipRcvSeparate": true,
        "urbanRural": "Rural",
        "dockDoors": "25-50",
        "dropArea": "50+",
        "yardMetrics": {
          "dockDoorCount": 38,
          "trailersVisible": 65,
          "trailerParkingCapacity": 100,
          "truckGateCount": 1,
          "buildingCount": 1,
          "siteAreaAcres": 70.7,
          "railServed": false
        }
      }
    },
    {
      "type": "Feature",
      "geometry": {
        "type": "Polygon",
        "coordinates": [
          [
            [
              -86.1851,
              36.76385
            ],
            [
              -86.1846,
              36.76385
            ],
            [
              -86.1846,
              36.76425
            ],
            [
              -86.1851,
              36.76425
            ],
            [
              -86.1851,
              36.76385
            ]
          ]
        ]
      },
      "properties": {
        "account": "jm-smucker",
        "name": "Uncrustables - Scottsville KY",
        "type": "Manufacturing - Frozen handhelds (Uncrustables)",
        "archetype": "#3",
        "archetypeName": "No Gate / No GS",
        "confidence": "high",
        "zone": "truckGate"
      }
    },
    {
      "type": "Feature",
      "geometry": {
        "type": "Polygon",
        "coordinates": [
          [
            [
              -86.1812,
              36.7636
            ],
            [
              -86.1798,
              36.7636
            ],
            [
              -86.1798,
              36.765
            ],
            [
              -86.1812,
              36.765
            ],
            [
              -86.1812,
              36.7636
            ]
          ]
        ]
      },
      "properties": {
        "account": "jm-smucker",
        "name": "Uncrustables - Scottsville KY",
        "type": "Manufacturing - Frozen handhelds (Uncrustables)",
        "archetype": "#3",
        "archetypeName": "No Gate / No GS",
        "confidence": "high",
        "zone": "dropYard",
        "index": 1
      }
    },
    {
      "type": "Feature",
      "geometry": {
        "type": "Polygon",
        "coordinates": [
          [
            [
              -86.1829,
              36.7609
            ],
            [
              -86.1816,
              36.7609
            ],
            [
              -86.1816,
              36.7621
            ],
            [
              -86.1829,
              36.7621
            ],
            [
              -86.1829,
              36.7609
            ]
          ]
        ]
      },
      "properties": {
        "account": "jm-smucker",
        "name": "Uncrustables - Scottsville KY",
        "type": "Manufacturing - Frozen handhelds (Uncrustables)",
        "archetype": "#3",
        "archetypeName": "No Gate / No GS",
        "confidence": "high",
        "zone": "dropYard",
        "index": 2
      }
    },
    {
      "type": "Feature",
      "geometry": {
        "type": "Polygon",
        "coordinates": [
          [
            [
              -86.1842,
              36.7638
            ],
            [
              -86.183,
              36.7638
            ],
            [
              -86.183,
              36.7648
            ],
            [
              -86.1842,
              36.7648
            ],
            [
              -86.1842,
              36.7638
            ]
          ]
        ]
      },
      "properties": {
        "account": "jm-smucker",
        "name": "Uncrustables - Scottsville KY",
        "type": "Manufacturing - Frozen handhelds (Uncrustables)",
        "archetype": "#3",
        "archetypeName": "No Gate / No GS",
        "confidence": "high",
        "zone": "dockApron",
        "index": 1
      }
    },
    {
      "type": "Feature",
      "geometry": {
        "type": "Polygon",
        "coordinates": [
          [
            [
              -86.1828,
              36.763
            ],
            [
              -86.1815,
              36.763
            ],
            [
              -86.1815,
              36.7644
            ],
            [
              -86.1828,
              36.7644
            ],
            [
              -86.1828,
              36.763
            ]
          ]
        ]
      },
      "properties": {
        "account": "jm-smucker",
        "name": "Uncrustables - Scottsville KY",
        "type": "Manufacturing - Frozen handhelds (Uncrustables)",
        "archetype": "#3",
        "archetypeName": "No Gate / No GS",
        "confidence": "high",
        "zone": "dockApron",
        "index": 2
      }
    },
    {
      "type": "Feature",
      "geometry": {
        "type": "Polygon",
        "coordinates": [
          [
            [
              -81.7648,
              40.8437
            ],
            [
              -81.756,
              40.8437
            ],
            [
              -81.756,
              40.8525
            ],
            [
              -81.7648,
              40.8525
            ],
            [
              -81.7648,
              40.8437
            ]
          ]
        ]
      },
      "properties": {
        "account": "jm-smucker",
        "name": "Smucker's Spreads/Toppings - Orrville OH",
        "type": "Manufacturing - Fruit spreads, syrups, ice cream toppings",
        "archetype": "#3",
        "archetypeName": "No Gate / No GS",
        "confidence": "high",
        "zone": "perimeter",
        "truckGate": false,
        "guardShack": false,
        "remoteGs": false,
        "fastLaneOpportunity": true,
        "backupSensitive": false,
        "dropYard": true,
        "multipleFacilities": true,
        "scale": false,
        "shipRcvSeparate": false,
        "urbanRural": "Rural",
        "dockDoors": "25-50",
        "dropArea": "50+",
        "yardMetrics": {
          "dockDoorCount": 38,
          "trailersVisible": 70,
          "trailerParkingCapacity": 110,
          "truckGateCount": 1,
          "buildingCount": 8,
          "siteAreaAcres": 64,
          "railServed": true
        }
      }
    },
    {
      "type": "Feature",
      "geometry": {
        "type": "Polygon",
        "coordinates": [
          [
            [
              -81.7601,
              40.84395
            ],
            [
              -81.759,
              40.84395
            ],
            [
              -81.759,
              40.84455
            ],
            [
              -81.7601,
              40.84455
            ],
            [
              -81.7601,
              40.84395
            ]
          ]
        ]
      },
      "properties": {
        "account": "jm-smucker",
        "name": "Smucker's Spreads/Toppings - Orrville OH",
        "type": "Manufacturing - Fruit spreads, syrups, ice cream toppings",
        "archetype": "#3",
        "archetypeName": "No Gate / No GS",
        "confidence": "high",
        "zone": "truckGate"
      }
    },
    {
      "type": "Feature",
      "geometry": {
        "type": "Polygon",
        "coordinates": [
          [
            [
              -81.7613,
              40.8443
            ],
            [
              -81.7588,
              40.8443
            ],
            [
              -81.7588,
              40.8465
            ],
            [
              -81.7613,
              40.8465
            ],
            [
              -81.7613,
              40.8443
            ]
          ]
        ]
      },
      "properties": {
        "account": "jm-smucker",
        "name": "Smucker's Spreads/Toppings - Orrville OH",
        "type": "Manufacturing - Fruit spreads, syrups, ice cream toppings",
        "archetype": "#3",
        "archetypeName": "No Gate / No GS",
        "confidence": "high",
        "zone": "dropYard",
        "index": 1
      }
    },
    {
      "type": "Feature",
      "geometry": {
        "type": "Polygon",
        "coordinates": [
          [
            [
              -81.7613,
              40.8469
            ],
            [
              -81.7598,
              40.8469
            ],
            [
              -81.7598,
              40.8481
            ],
            [
              -81.7613,
              40.8481
            ],
            [
              -81.7613,
              40.8469
            ]
          ]
        ]
      },
      "properties": {
        "account": "jm-smucker",
        "name": "Smucker's Spreads/Toppings - Orrville OH",
        "type": "Manufacturing - Fruit spreads, syrups, ice cream toppings",
        "archetype": "#3",
        "archetypeName": "No Gate / No GS",
        "confidence": "high",
        "zone": "dropYard",
        "index": 2
      }
    },
    {
      "type": "Feature",
      "geometry": {
        "type": "Polygon",
        "coordinates": [
          [
            [
              -81.7607,
              40.8472
            ],
            [
              -81.7598,
              40.8472
            ],
            [
              -81.7598,
              40.849
            ],
            [
              -81.7607,
              40.849
            ],
            [
              -81.7607,
              40.8472
            ]
          ]
        ]
      },
      "properties": {
        "account": "jm-smucker",
        "name": "Smucker's Spreads/Toppings - Orrville OH",
        "type": "Manufacturing - Fruit spreads, syrups, ice cream toppings",
        "archetype": "#3",
        "archetypeName": "No Gate / No GS",
        "confidence": "high",
        "zone": "dockApron",
        "index": 1
      }
    },
    {
      "type": "Feature",
      "geometry": {
        "type": "Polygon",
        "coordinates": [
          [
            [
              -81.7607,
              40.8466
            ],
            [
              -81.7596,
              40.8466
            ],
            [
              -81.7596,
              40.8474
            ],
            [
              -81.7607,
              40.8474
            ],
            [
              -81.7607,
              40.8466
            ]
          ]
        ]
      },
      "properties": {
        "account": "jm-smucker",
        "name": "Smucker's Spreads/Toppings - Orrville OH",
        "type": "Manufacturing - Fruit spreads, syrups, ice cream toppings",
        "archetype": "#3",
        "archetypeName": "No Gate / No GS",
        "confidence": "high",
        "zone": "staging"
      }
    },
    {
      "type": "Feature",
      "geometry": {
        "type": "Polygon",
        "coordinates": [
          [
            [
              -84.4805,
              38.0409
            ],
            [
              -84.4753,
              38.0409
            ],
            [
              -84.4753,
              38.0445
            ],
            [
              -84.4805,
              38.0445
            ],
            [
              -84.4805,
              38.0409
            ]
          ]
        ]
      },
      "properties": {
        "account": "jm-smucker",
        "name": "Jif Peanut Butter - Lexington KY",
        "type": "Manufacturing - Peanut butter (Jif)",
        "archetype": "#9",
        "archetypeName": "Gate + No GS (remote check-in)",
        "confidence": "high",
        "zone": "perimeter",
        "truckGate": true,
        "guardShack": false,
        "remoteGs": true,
        "fastLaneOpportunity": false,
        "backupSensitive": true,
        "dropYard": true,
        "multipleFacilities": true,
        "scale": false,
        "shipRcvSeparate": false,
        "urbanRural": "Urban",
        "dockDoors": "25-50",
        "dropArea": "50+",
        "yardMetrics": {
          "dockDoorCount": 40,
          "trailersVisible": 80,
          "trailerParkingCapacity": 120,
          "truckGateCount": 2,
          "buildingCount": 9,
          "siteAreaAcres": 30,
          "railServed": true
        }
      }
    },
    {
      "type": "Feature",
      "geometry": {
        "type": "Polygon",
        "coordinates": [
          [
            [
              -84.476,
              38.0415
            ],
            [
              -84.4752,
              38.0415
            ],
            [
              -84.4752,
              38.0421
            ],
            [
              -84.476,
              38.0421
            ],
            [
              -84.476,
              38.0415
            ]
          ]
        ]
      },
      "properties": {
        "account": "jm-smucker",
        "name": "Jif Peanut Butter - Lexington KY",
        "type": "Manufacturing - Peanut butter (Jif)",
        "archetype": "#9",
        "archetypeName": "Gate + No GS (remote check-in)",
        "confidence": "high",
        "zone": "truckGate"
      }
    },
    {
      "type": "Feature",
      "geometry": {
        "type": "Polygon",
        "coordinates": [
          [
            [
              -84.4793,
              38.0425
            ],
            [
              -84.4777,
              38.0425
            ],
            [
              -84.4777,
              38.0434
            ],
            [
              -84.4793,
              38.0434
            ],
            [
              -84.4793,
              38.0425
            ]
          ]
        ]
      },
      "properties": {
        "account": "jm-smucker",
        "name": "Jif Peanut Butter - Lexington KY",
        "type": "Manufacturing - Peanut butter (Jif)",
        "archetype": "#9",
        "archetypeName": "Gate + No GS (remote check-in)",
        "confidence": "high",
        "zone": "dropYard",
        "index": 1
      }
    },
    {
      "type": "Feature",
      "geometry": {
        "type": "Polygon",
        "coordinates": [
          [
            [
              -84.4798,
              38.0433
            ],
            [
              -84.4783,
              38.0433
            ],
            [
              -84.4783,
              38.0442
            ],
            [
              -84.4798,
              38.0442
            ],
            [
              -84.4798,
              38.0433
            ]
          ]
        ]
      },
      "properties": {
        "account": "jm-smucker",
        "name": "Jif Peanut Butter - Lexington KY",
        "type": "Manufacturing - Peanut butter (Jif)",
        "archetype": "#9",
        "archetypeName": "Gate + No GS (remote check-in)",
        "confidence": "high",
        "zone": "dropYard",
        "index": 2
      }
    },
    {
      "type": "Feature",
      "geometry": {
        "type": "Polygon",
        "coordinates": [
          [
            [
              -84.4762,
              38.0419
            ],
            [
              -84.4753,
              38.0419
            ],
            [
              -84.4753,
              38.0428
            ],
            [
              -84.4762,
              38.0428
            ],
            [
              -84.4762,
              38.0419
            ]
          ]
        ]
      },
      "properties": {
        "account": "jm-smucker",
        "name": "Jif Peanut Butter - Lexington KY",
        "type": "Manufacturing - Peanut butter (Jif)",
        "archetype": "#9",
        "archetypeName": "Gate + No GS (remote check-in)",
        "confidence": "high",
        "zone": "dockApron",
        "index": 1
      }
    },
    {
      "type": "Feature",
      "geometry": {
        "type": "Polygon",
        "coordinates": [
          [
            [
              -79.3269,
              41.0024
            ],
            [
              -79.32505,
              41.0024
            ],
            [
              -79.32505,
              41.00375
            ],
            [
              -79.3269,
              41.00375
            ],
            [
              -79.3269,
              41.0024
            ]
          ]
        ]
      },
      "properties": {
        "account": "jm-smucker",
        "name": "Smucker's Peanut Butter - New Bethlehem PA",
        "type": "Manufacturing - Peanut butter / spreads",
        "archetype": "#3",
        "archetypeName": "No Gate / No GS",
        "confidence": "high",
        "zone": "perimeter",
        "truckGate": false,
        "guardShack": false,
        "remoteGs": false,
        "fastLaneOpportunity": false,
        "backupSensitive": true,
        "dropYard": false,
        "multipleFacilities": false,
        "scale": false,
        "shipRcvSeparate": false,
        "urbanRural": "Rural",
        "dockDoors": "0-10",
        "dropArea": "0-10",
        "yardMetrics": {
          "dockDoorCount": 6,
          "trailersVisible": 4,
          "trailerParkingCapacity": 10,
          "truckGateCount": 1,
          "buildingCount": 3,
          "siteAreaAcres": 3,
          "railServed": false
        }
      }
    },
    {
      "type": "Feature",
      "geometry": {
        "type": "Polygon",
        "coordinates": [
          [
            [
              -79.3258,
              41.0032
            ],
            [
              -79.32525,
              41.0032
            ],
            [
              -79.32525,
              41.00355
            ],
            [
              -79.3258,
              41.00355
            ],
            [
              -79.3258,
              41.0032
            ]
          ]
        ]
      },
      "properties": {
        "account": "jm-smucker",
        "name": "Smucker's Peanut Butter - New Bethlehem PA",
        "type": "Manufacturing - Peanut butter / spreads",
        "archetype": "#3",
        "archetypeName": "No Gate / No GS",
        "confidence": "high",
        "zone": "truckGate"
      }
    },
    {
      "type": "Feature",
      "geometry": {
        "type": "Polygon",
        "coordinates": [
          [
            [
              -79.32575,
              41.003
            ],
            [
              -79.3252,
              41.003
            ],
            [
              -79.3252,
              41.00345
            ],
            [
              -79.32575,
              41.00345
            ],
            [
              -79.32575,
              41.003
            ]
          ]
        ]
      },
      "properties": {
        "account": "jm-smucker",
        "name": "Smucker's Peanut Butter - New Bethlehem PA",
        "type": "Manufacturing - Peanut butter / spreads",
        "archetype": "#3",
        "archetypeName": "No Gate / No GS",
        "confidence": "high",
        "zone": "dropYard",
        "index": 1
      }
    },
    {
      "type": "Feature",
      "geometry": {
        "type": "Polygon",
        "coordinates": [
          [
            [
              -79.326,
              41.00295
            ],
            [
              -79.32545,
              41.00295
            ],
            [
              -79.32545,
              41.0033
            ],
            [
              -79.326,
              41.0033
            ],
            [
              -79.326,
              41.00295
            ]
          ]
        ]
      },
      "properties": {
        "account": "jm-smucker",
        "name": "Smucker's Peanut Butter - New Bethlehem PA",
        "type": "Manufacturing - Peanut butter / spreads",
        "archetype": "#3",
        "archetypeName": "No Gate / No GS",
        "confidence": "high",
        "zone": "dockApron",
        "index": 1
      }
    },
    {
      "type": "Feature",
      "geometry": {
        "type": "Polygon",
        "coordinates": [
          [
            [
              -121.8056,
              39.7047
            ],
            [
              -121.8002,
              39.7047
            ],
            [
              -121.8002,
              39.7085
            ],
            [
              -121.8056,
              39.7085
            ],
            [
              -121.8056,
              39.7047
            ]
          ]
        ]
      },
      "properties": {
        "account": "jm-smucker",
        "name": "R.W. Knudsen Juices - Chico CA",
        "type": "Manufacturing - Juices/beverages (Knudsen)",
        "archetype": "#3",
        "archetypeName": "No Gate / No GS",
        "confidence": "medium",
        "zone": "perimeter",
        "truckGate": false,
        "guardShack": false,
        "remoteGs": false,
        "fastLaneOpportunity": true,
        "backupSensitive": false,
        "dropYard": true,
        "multipleFacilities": true,
        "scale": false,
        "shipRcvSeparate": false,
        "urbanRural": "Rural",
        "dockDoors": "10-25",
        "dropArea": "25-50",
        "yardMetrics": {
          "dockDoorCount": 18,
          "trailersVisible": 55,
          "trailerParkingCapacity": 90,
          "truckGateCount": 1,
          "buildingCount": 6,
          "siteAreaAcres": 38,
          "railServed": false
        }
      }
    },
    {
      "type": "Feature",
      "geometry": {
        "type": "Polygon",
        "coordinates": [
          [
            [
              -121.8045,
              39.70475
            ],
            [
              -121.8039,
              39.70475
            ],
            [
              -121.8039,
              39.7052
            ],
            [
              -121.8045,
              39.7052
            ],
            [
              -121.8045,
              39.70475
            ]
          ]
        ]
      },
      "properties": {
        "account": "jm-smucker",
        "name": "R.W. Knudsen Juices - Chico CA",
        "type": "Manufacturing - Juices/beverages (Knudsen)",
        "archetype": "#3",
        "archetypeName": "No Gate / No GS",
        "confidence": "medium",
        "zone": "truckGate"
      }
    },
    {
      "type": "Feature",
      "geometry": {
        "type": "Polygon",
        "coordinates": [
          [
            [
              -121.806,
              39.7074
            ],
            [
              -121.8042,
              39.7074
            ],
            [
              -121.8042,
              39.7085
            ],
            [
              -121.806,
              39.7085
            ],
            [
              -121.806,
              39.7074
            ]
          ]
        ]
      },
      "properties": {
        "account": "jm-smucker",
        "name": "R.W. Knudsen Juices - Chico CA",
        "type": "Manufacturing - Juices/beverages (Knudsen)",
        "archetype": "#3",
        "archetypeName": "No Gate / No GS",
        "confidence": "medium",
        "zone": "dropYard",
        "index": 1
      }
    },
    {
      "type": "Feature",
      "geometry": {
        "type": "Polygon",
        "coordinates": [
          [
            [
              -121.8036,
              39.7059
            ],
            [
              -121.8027,
              39.7059
            ],
            [
              -121.8027,
              39.7068
            ],
            [
              -121.8036,
              39.7068
            ],
            [
              -121.8036,
              39.7059
            ]
          ]
        ]
      },
      "properties": {
        "account": "jm-smucker",
        "name": "R.W. Knudsen Juices - Chico CA",
        "type": "Manufacturing - Juices/beverages (Knudsen)",
        "archetype": "#3",
        "archetypeName": "No Gate / No GS",
        "confidence": "medium",
        "zone": "dockApron",
        "index": 1
      }
    },
    {
      "type": "Feature",
      "geometry": {
        "type": "Polygon",
        "coordinates": [
          [
            [
              -121.802,
              39.7068
            ],
            [
              -121.8012,
              39.7068
            ],
            [
              -121.8012,
              39.7074
            ],
            [
              -121.802,
              39.7074
            ],
            [
              -121.802,
              39.7068
            ]
          ]
        ]
      },
      "properties": {
        "account": "jm-smucker",
        "name": "R.W. Knudsen Juices - Chico CA",
        "type": "Manufacturing - Juices/beverages (Knudsen)",
        "archetype": "#3",
        "archetypeName": "No Gate / No GS",
        "confidence": "medium",
        "zone": "dockApron",
        "index": 2
      }
    },
    {
      "type": "Feature",
      "geometry": {
        "type": "Polygon",
        "coordinates": [
          [
            [
              -121.8042,
              39.7056
            ],
            [
              -121.8034,
              39.7056
            ],
            [
              -121.8034,
              39.7062
            ],
            [
              -121.8042,
              39.7062
            ],
            [
              -121.8042,
              39.7056
            ]
          ]
        ]
      },
      "properties": {
        "account": "jm-smucker",
        "name": "R.W. Knudsen Juices - Chico CA",
        "type": "Manufacturing - Juices/beverages (Knudsen)",
        "archetype": "#3",
        "archetypeName": "No Gate / No GS",
        "confidence": "medium",
        "zone": "staging"
      }
    },
    {
      "type": "Feature",
      "geometry": {
        "type": "Polygon",
        "coordinates": [
          [
            [
              -121.6268,
              36.6552
            ],
            [
              -121.6224,
              36.6552
            ],
            [
              -121.6224,
              36.659
            ],
            [
              -121.6268,
              36.659
            ],
            [
              -121.6268,
              36.6552
            ]
          ]
        ]
      },
      "properties": {
        "account": "jm-smucker",
        "name": "Smucker Plant - Salinas CA",
        "type": "Manufacturing - Fruit/produce processing",
        "archetype": "#3",
        "archetypeName": "No Gate / No GS",
        "confidence": "medium",
        "zone": "perimeter",
        "truckGate": false,
        "guardShack": false,
        "remoteGs": false,
        "fastLaneOpportunity": false,
        "backupSensitive": false,
        "dropYard": true,
        "multipleFacilities": true,
        "scale": false,
        "shipRcvSeparate": false,
        "urbanRural": "Urban",
        "dockDoors": "25-50",
        "dropArea": "10-25",
        "yardMetrics": {
          "dockDoorCount": 30,
          "trailersVisible": 18,
          "trailerParkingCapacity": 35,
          "truckGateCount": 1,
          "buildingCount": 5,
          "siteAreaAcres": 22,
          "railServed": false
        }
      }
    },
    {
      "type": "Feature",
      "geometry": {
        "type": "Polygon",
        "coordinates": [
          [
            [
              -121.6262,
              36.657
            ],
            [
              -121.6254,
              36.657
            ],
            [
              -121.6254,
              36.6576
            ],
            [
              -121.6262,
              36.6576
            ],
            [
              -121.6262,
              36.657
            ]
          ]
        ]
      },
      "properties": {
        "account": "jm-smucker",
        "name": "Smucker Plant - Salinas CA",
        "type": "Manufacturing - Fruit/produce processing",
        "archetype": "#3",
        "archetypeName": "No Gate / No GS",
        "confidence": "medium",
        "zone": "truckGate"
      }
    },
    {
      "type": "Feature",
      "geometry": {
        "type": "Polygon",
        "coordinates": [
          [
            [
              -121.6256,
              36.6562
            ],
            [
              -121.6242,
              36.6562
            ],
            [
              -121.6242,
              36.6573
            ],
            [
              -121.6256,
              36.6573
            ],
            [
              -121.6256,
              36.6562
            ]
          ]
        ]
      },
      "properties": {
        "account": "jm-smucker",
        "name": "Smucker Plant - Salinas CA",
        "type": "Manufacturing - Fruit/produce processing",
        "archetype": "#3",
        "archetypeName": "No Gate / No GS",
        "confidence": "medium",
        "zone": "dropYard",
        "index": 1
      }
    },
    {
      "type": "Feature",
      "geometry": {
        "type": "Polygon",
        "coordinates": [
          [
            [
              -121.6254,
              36.6564
            ],
            [
              -121.6246,
              36.6564
            ],
            [
              -121.6246,
              36.6576
            ],
            [
              -121.6254,
              36.6576
            ],
            [
              -121.6254,
              36.6564
            ]
          ]
        ]
      },
      "properties": {
        "account": "jm-smucker",
        "name": "Smucker Plant - Salinas CA",
        "type": "Manufacturing - Fruit/produce processing",
        "archetype": "#3",
        "archetypeName": "No Gate / No GS",
        "confidence": "medium",
        "zone": "dockApron",
        "index": 1
      }
    },
    {
      "type": "Feature",
      "geometry": {
        "type": "Polygon",
        "coordinates": [
          [
            [
              -76.1099,
              39.5296
            ],
            [
              -76.1072,
              39.5296
            ],
            [
              -76.1072,
              39.5318
            ],
            [
              -76.1099,
              39.5318
            ],
            [
              -76.1099,
              39.5296
            ]
          ]
        ]
      },
      "properties": {
        "account": "jm-smucker",
        "name": "Smucker Plant - Havre de Grace MD",
        "type": "Manufacturing - Spreads / portion control products",
        "archetype": "#3",
        "archetypeName": "No Gate / No GS",
        "confidence": "high",
        "zone": "perimeter",
        "truckGate": false,
        "guardShack": false,
        "remoteGs": false,
        "fastLaneOpportunity": false,
        "backupSensitive": false,
        "dropYard": false,
        "multipleFacilities": false,
        "scale": false,
        "shipRcvSeparate": false,
        "urbanRural": "Rural",
        "dockDoors": "0-10",
        "dropArea": "0-10",
        "yardMetrics": {
          "dockDoorCount": 9,
          "trailersVisible": 7,
          "trailerParkingCapacity": 8,
          "truckGateCount": 1,
          "buildingCount": 1,
          "siteAreaAcres": 14,
          "railServed": false
        }
      }
    },
    {
      "type": "Feature",
      "geometry": {
        "type": "Polygon",
        "coordinates": [
          [
            [
              -76.10905,
              39.52985
            ],
            [
              -76.1082,
              39.52985
            ],
            [
              -76.1082,
              39.53025
            ],
            [
              -76.10905,
              39.53025
            ],
            [
              -76.10905,
              39.52985
            ]
          ]
        ]
      },
      "properties": {
        "account": "jm-smucker",
        "name": "Smucker Plant - Havre de Grace MD",
        "type": "Manufacturing - Spreads / portion control products",
        "archetype": "#3",
        "archetypeName": "No Gate / No GS",
        "confidence": "high",
        "zone": "dockApron",
        "index": 1
      }
    },
    {
      "type": "Feature",
      "geometry": {
        "type": "Polygon",
        "coordinates": [
          [
            [
              -78.8318,
              42.9081
            ],
            [
              -78.829,
              42.9081
            ],
            [
              -78.829,
              42.9109
            ],
            [
              -78.8318,
              42.9109
            ],
            [
              -78.8318,
              42.9081
            ]
          ]
        ]
      },
      "properties": {
        "account": "jm-smucker",
        "name": "Milk-Bone Pet Treats - Buffalo NY",
        "type": "Manufacturing - Pet treats (Milk-Bone), ambient + refrigerated",
        "archetype": "#9",
        "archetypeName": "Gate + No GS (remote check-in)",
        "confidence": "high",
        "zone": "perimeter",
        "truckGate": true,
        "guardShack": false,
        "remoteGs": true,
        "fastLaneOpportunity": true,
        "backupSensitive": false,
        "dropYard": true,
        "multipleFacilities": false,
        "scale": false,
        "shipRcvSeparate": false,
        "urbanRural": "Urban",
        "dockDoors": "10-25",
        "dropArea": "50+",
        "yardMetrics": {
          "dockDoorCount": 14,
          "trailersVisible": 48,
          "trailerParkingCapacity": 70,
          "truckGateCount": 2,
          "buildingCount": 1,
          "siteAreaAcres": 18.2,
          "railServed": false
        }
      }
    },
    {
      "type": "Feature",
      "geometry": {
        "type": "Polygon",
        "coordinates": [
          [
            [
              -78.8311,
              42.9092
            ],
            [
              -78.8306,
              42.9092
            ],
            [
              -78.8306,
              42.90945
            ],
            [
              -78.8311,
              42.90945
            ],
            [
              -78.8311,
              42.9092
            ]
          ]
        ]
      },
      "properties": {
        "account": "jm-smucker",
        "name": "Milk-Bone Pet Treats - Buffalo NY",
        "type": "Manufacturing - Pet treats (Milk-Bone), ambient + refrigerated",
        "archetype": "#9",
        "archetypeName": "Gate + No GS (remote check-in)",
        "confidence": "high",
        "zone": "truckGate"
      }
    },
    {
      "type": "Feature",
      "geometry": {
        "type": "Polygon",
        "coordinates": [
          [
            [
              -78.8315,
              42.9094
            ],
            [
              -78.8293,
              42.9094
            ],
            [
              -78.8293,
              42.9106
            ],
            [
              -78.8315,
              42.9106
            ],
            [
              -78.8315,
              42.9094
            ]
          ]
        ]
      },
      "properties": {
        "account": "jm-smucker",
        "name": "Milk-Bone Pet Treats - Buffalo NY",
        "type": "Manufacturing - Pet treats (Milk-Bone), ambient + refrigerated",
        "archetype": "#9",
        "archetypeName": "Gate + No GS (remote check-in)",
        "confidence": "high",
        "zone": "dropYard",
        "index": 1
      }
    },
    {
      "type": "Feature",
      "geometry": {
        "type": "Polygon",
        "coordinates": [
          [
            [
              -78.83,
              42.90825
            ],
            [
              -78.82935,
              42.90825
            ],
            [
              -78.82935,
              42.9088
            ],
            [
              -78.83,
              42.9088
            ],
            [
              -78.83,
              42.90825
            ]
          ]
        ]
      },
      "properties": {
        "account": "jm-smucker",
        "name": "Milk-Bone Pet Treats - Buffalo NY",
        "type": "Manufacturing - Pet treats (Milk-Bone), ambient + refrigerated",
        "archetype": "#9",
        "archetypeName": "Gate + No GS (remote check-in)",
        "confidence": "high",
        "zone": "dockApron",
        "index": 1
      }
    },
    {
      "type": "Feature",
      "geometry": {
        "type": "Polygon",
        "coordinates": [
          [
            [
              -86.9705,
              34.6048
            ],
            [
              -86.9668,
              34.6048
            ],
            [
              -86.9668,
              34.6084
            ],
            [
              -86.9705,
              34.6084
            ],
            [
              -86.9705,
              34.6048
            ]
          ]
        ]
      },
      "properties": {
        "account": "jm-smucker",
        "name": "Meow Mix Pet Food - Decatur AL",
        "type": "Manufacturing - Cat food (Meow Mix)",
        "archetype": "#9",
        "archetypeName": "Gate + No GS (remote check-in)",
        "confidence": "high",
        "zone": "perimeter",
        "truckGate": true,
        "guardShack": false,
        "remoteGs": true,
        "fastLaneOpportunity": true,
        "backupSensitive": false,
        "dropYard": true,
        "multipleFacilities": false,
        "scale": false,
        "shipRcvSeparate": true,
        "urbanRural": "Rural",
        "dockDoors": "10-25",
        "dropArea": "50+",
        "yardMetrics": {
          "dockDoorCount": 18,
          "trailersVisible": 55,
          "trailerParkingCapacity": 75,
          "truckGateCount": 2,
          "buildingCount": 3,
          "siteAreaAcres": 33.6,
          "railServed": true
        }
      }
    },
    {
      "type": "Feature",
      "geometry": {
        "type": "Polygon",
        "coordinates": [
          [
            [
              -86.9702,
              34.6048
            ],
            [
              -86.9696,
              34.6048
            ],
            [
              -86.9696,
              34.6051
            ],
            [
              -86.9702,
              34.6051
            ],
            [
              -86.9702,
              34.6048
            ]
          ]
        ]
      },
      "properties": {
        "account": "jm-smucker",
        "name": "Meow Mix Pet Food - Decatur AL",
        "type": "Manufacturing - Cat food (Meow Mix)",
        "archetype": "#9",
        "archetypeName": "Gate + No GS (remote check-in)",
        "confidence": "high",
        "zone": "truckGate"
      }
    },
    {
      "type": "Feature",
      "geometry": {
        "type": "Polygon",
        "coordinates": [
          [
            [
              -86.9701,
              34.6054
            ],
            [
              -86.9685,
              34.6054
            ],
            [
              -86.9685,
              34.6068
            ],
            [
              -86.9701,
              34.6068
            ],
            [
              -86.9701,
              34.6054
            ]
          ]
        ]
      },
      "properties": {
        "account": "jm-smucker",
        "name": "Meow Mix Pet Food - Decatur AL",
        "type": "Manufacturing - Cat food (Meow Mix)",
        "archetype": "#9",
        "archetypeName": "Gate + No GS (remote check-in)",
        "confidence": "high",
        "zone": "dropYard",
        "index": 1
      }
    },
    {
      "type": "Feature",
      "geometry": {
        "type": "Polygon",
        "coordinates": [
          [
            [
              -86.9685,
              34.6066
            ],
            [
              -86.9676,
              34.6066
            ],
            [
              -86.9676,
              34.6073
            ],
            [
              -86.9685,
              34.6073
            ],
            [
              -86.9685,
              34.6066
            ]
          ]
        ]
      },
      "properties": {
        "account": "jm-smucker",
        "name": "Meow Mix Pet Food - Decatur AL",
        "type": "Manufacturing - Cat food (Meow Mix)",
        "archetype": "#9",
        "archetypeName": "Gate + No GS (remote check-in)",
        "confidence": "high",
        "zone": "dockApron",
        "index": 1
      }
    },
    {
      "type": "Feature",
      "geometry": {
        "type": "Polygon",
        "coordinates": [
          [
            [
              -95.7255,
              39.0838
            ],
            [
              -95.716,
              39.0838
            ],
            [
              -95.716,
              39.09
            ],
            [
              -95.7255,
              39.09
            ],
            [
              -95.7255,
              39.0838
            ]
          ]
        ]
      },
      "properties": {
        "account": "jm-smucker",
        "name": "Pet Food Plant - Topeka KS",
        "type": "Manufacturing/Distribution - Pet food plant + distribution center",
        "archetype": "#9",
        "archetypeName": "Gate + No GS (remote check-in)",
        "confidence": "high",
        "zone": "perimeter",
        "truckGate": true,
        "guardShack": false,
        "remoteGs": true,
        "fastLaneOpportunity": true,
        "backupSensitive": false,
        "dropYard": true,
        "multipleFacilities": true,
        "scale": true,
        "shipRcvSeparate": true,
        "urbanRural": "Rural",
        "dockDoors": "50+",
        "dropArea": "50+",
        "yardMetrics": {
          "dockDoorCount": 60,
          "trailersVisible": 130,
          "trailerParkingCapacity": 180,
          "truckGateCount": 2,
          "buildingCount": 4,
          "siteAreaAcres": 140,
          "railServed": true
        }
      }
    },
    {
      "type": "Feature",
      "geometry": {
        "type": "Polygon",
        "coordinates": [
          [
            [
              -95.7245,
              39.084
            ],
            [
              -95.7236,
              39.084
            ],
            [
              -95.7236,
              39.0844
            ],
            [
              -95.7245,
              39.0844
            ],
            [
              -95.7245,
              39.084
            ]
          ]
        ]
      },
      "properties": {
        "account": "jm-smucker",
        "name": "Pet Food Plant - Topeka KS",
        "type": "Manufacturing/Distribution - Pet food plant + distribution center",
        "archetype": "#9",
        "archetypeName": "Gate + No GS (remote check-in)",
        "confidence": "high",
        "zone": "truckGate"
      }
    },
    {
      "type": "Feature",
      "geometry": {
        "type": "Polygon",
        "coordinates": [
          [
            [
              -95.7195,
              39.0847
            ],
            [
              -95.7164,
              39.0847
            ],
            [
              -95.7164,
              39.0876
            ],
            [
              -95.7195,
              39.0876
            ],
            [
              -95.7195,
              39.0847
            ]
          ]
        ]
      },
      "properties": {
        "account": "jm-smucker",
        "name": "Pet Food Plant - Topeka KS",
        "type": "Manufacturing/Distribution - Pet food plant + distribution center",
        "archetype": "#9",
        "archetypeName": "Gate + No GS (remote check-in)",
        "confidence": "high",
        "zone": "dropYard",
        "index": 1
      }
    },
    {
      "type": "Feature",
      "geometry": {
        "type": "Polygon",
        "coordinates": [
          [
            [
              -95.7233,
              39.0868
            ],
            [
              -95.7205,
              39.0868
            ],
            [
              -95.7205,
              39.0883
            ],
            [
              -95.7233,
              39.0883
            ],
            [
              -95.7233,
              39.0868
            ]
          ]
        ]
      },
      "properties": {
        "account": "jm-smucker",
        "name": "Pet Food Plant - Topeka KS",
        "type": "Manufacturing/Distribution - Pet food plant + distribution center",
        "archetype": "#9",
        "archetypeName": "Gate + No GS (remote check-in)",
        "confidence": "high",
        "zone": "dropYard",
        "index": 2
      }
    },
    {
      "type": "Feature",
      "geometry": {
        "type": "Polygon",
        "coordinates": [
          [
            [
              -95.7212,
              39.0856
            ],
            [
              -95.7185,
              39.0856
            ],
            [
              -95.7185,
              39.0864
            ],
            [
              -95.7212,
              39.0864
            ],
            [
              -95.7212,
              39.0856
            ]
          ]
        ]
      },
      "properties": {
        "account": "jm-smucker",
        "name": "Pet Food Plant - Topeka KS",
        "type": "Manufacturing/Distribution - Pet food plant + distribution center",
        "archetype": "#9",
        "archetypeName": "Gate + No GS (remote check-in)",
        "confidence": "high",
        "zone": "dockApron",
        "index": 1
      }
    },
    {
      "type": "Feature",
      "geometry": {
        "type": "Polygon",
        "coordinates": [
          [
            [
              -96.2216,
              38.4153
            ],
            [
              -96.2168,
              38.4153
            ],
            [
              -96.2168,
              38.4197
            ],
            [
              -96.2216,
              38.4197
            ],
            [
              -96.2216,
              38.4153
            ]
          ]
        ]
      },
      "properties": {
        "account": "jm-smucker",
        "name": "Hostess Bakery - Emporia KS",
        "type": "Manufacturing - Sweet baked snacks (Hostess)",
        "archetype": "#3",
        "archetypeName": "No Gate / No GS",
        "confidence": "high",
        "zone": "perimeter",
        "truckGate": false,
        "guardShack": false,
        "remoteGs": false,
        "fastLaneOpportunity": true,
        "backupSensitive": false,
        "dropYard": true,
        "multipleFacilities": true,
        "scale": false,
        "shipRcvSeparate": true,
        "urbanRural": "Rural",
        "dockDoors": "25-50",
        "dropArea": "50+",
        "yardMetrics": {
          "dockDoorCount": 40,
          "trailersVisible": 70,
          "trailerParkingCapacity": 110,
          "truckGateCount": 2,
          "buildingCount": 3,
          "siteAreaAcres": 49.5,
          "railServed": false
        }
      }
    },
    {
      "type": "Feature",
      "geometry": {
        "type": "Polygon",
        "coordinates": [
          [
            [
              -96.21755,
              38.41685
            ],
            [
              -96.2172,
              38.41685
            ],
            [
              -96.2172,
              38.41715
            ],
            [
              -96.21755,
              38.41715
            ],
            [
              -96.21755,
              38.41685
            ]
          ]
        ]
      },
      "properties": {
        "account": "jm-smucker",
        "name": "Hostess Bakery - Emporia KS",
        "type": "Manufacturing - Sweet baked snacks (Hostess)",
        "archetype": "#3",
        "archetypeName": "No Gate / No GS",
        "confidence": "high",
        "zone": "truckGate"
      }
    },
    {
      "type": "Feature",
      "geometry": {
        "type": "Polygon",
        "coordinates": [
          [
            [
              -96.2208,
              38.4185
            ],
            [
              -96.2185,
              38.4185
            ],
            [
              -96.2185,
              38.4197
            ],
            [
              -96.2208,
              38.4197
            ],
            [
              -96.2208,
              38.4185
            ]
          ]
        ]
      },
      "properties": {
        "account": "jm-smucker",
        "name": "Hostess Bakery - Emporia KS",
        "type": "Manufacturing - Sweet baked snacks (Hostess)",
        "archetype": "#3",
        "archetypeName": "No Gate / No GS",
        "confidence": "high",
        "zone": "dropYard",
        "index": 1
      }
    },
    {
      "type": "Feature",
      "geometry": {
        "type": "Polygon",
        "coordinates": [
          [
            [
              -96.22,
              38.416
            ],
            [
              -96.2192,
              38.416
            ],
            [
              -96.2192,
              38.4172
            ],
            [
              -96.22,
              38.4172
            ],
            [
              -96.22,
              38.416
            ]
          ]
        ]
      },
      "properties": {
        "account": "jm-smucker",
        "name": "Hostess Bakery - Emporia KS",
        "type": "Manufacturing - Sweet baked snacks (Hostess)",
        "archetype": "#3",
        "archetypeName": "No Gate / No GS",
        "confidence": "high",
        "zone": "dropYard",
        "index": 2
      }
    },
    {
      "type": "Feature",
      "geometry": {
        "type": "Polygon",
        "coordinates": [
          [
            [
              -96.2192,
              38.4163
            ],
            [
              -96.2182,
              38.4163
            ],
            [
              -96.2182,
              38.4172
            ],
            [
              -96.2192,
              38.4172
            ],
            [
              -96.2192,
              38.4163
            ]
          ]
        ]
      },
      "properties": {
        "account": "jm-smucker",
        "name": "Hostess Bakery - Emporia KS",
        "type": "Manufacturing - Sweet baked snacks (Hostess)",
        "archetype": "#3",
        "archetypeName": "No Gate / No GS",
        "confidence": "high",
        "zone": "dockApron",
        "index": 1
      }
    },
    {
      "type": "Feature",
      "geometry": {
        "type": "Polygon",
        "coordinates": [
          [
            [
              -96.22,
              38.4172
            ],
            [
              -96.219,
              38.4172
            ],
            [
              -96.219,
              38.418
            ],
            [
              -96.22,
              38.418
            ],
            [
              -96.22,
              38.4172
            ]
          ]
        ]
      },
      "properties": {
        "account": "jm-smucker",
        "name": "Hostess Bakery - Emporia KS",
        "type": "Manufacturing - Sweet baked snacks (Hostess)",
        "archetype": "#3",
        "archetypeName": "No Gate / No GS",
        "confidence": "high",
        "zone": "dockApron",
        "index": 2
      }
    },
    {
      "type": "Feature",
      "geometry": {
        "type": "Polygon",
        "coordinates": [
          [
            [
              -93.0958,
              34.0518
            ],
            [
              -93.0915,
              34.0518
            ],
            [
              -93.0915,
              34.056
            ],
            [
              -93.0958,
              34.056
            ],
            [
              -93.0958,
              34.0518
            ]
          ]
        ]
      },
      "properties": {
        "account": "jm-smucker",
        "name": "Hostess Bakery - Arkadelphia AR",
        "type": "Manufacturing - Sweet baked snacks (Hostess Donettes)",
        "archetype": "#3",
        "archetypeName": "No Gate / No GS",
        "confidence": "high",
        "zone": "perimeter",
        "truckGate": false,
        "guardShack": false,
        "remoteGs": false,
        "fastLaneOpportunity": true,
        "backupSensitive": false,
        "dropYard": true,
        "multipleFacilities": false,
        "scale": false,
        "shipRcvSeparate": true,
        "urbanRural": "Rural",
        "dockDoors": "10-25",
        "dropArea": "10-25",
        "yardMetrics": {
          "dockDoorCount": 22,
          "trailersVisible": 20,
          "trailerParkingCapacity": 60,
          "truckGateCount": 1,
          "buildingCount": 2,
          "siteAreaAcres": 45.8,
          "railServed": false
        }
      }
    },
    {
      "type": "Feature",
      "geometry": {
        "type": "Polygon",
        "coordinates": [
          [
            [
              -93.0948,
              34.04995
            ],
            [
              -93.0944,
              34.04995
            ],
            [
              -93.0944,
              34.05025
            ],
            [
              -93.0948,
              34.05025
            ],
            [
              -93.0948,
              34.04995
            ]
          ]
        ]
      },
      "properties": {
        "account": "jm-smucker",
        "name": "Hostess Bakery - Arkadelphia AR",
        "type": "Manufacturing - Sweet baked snacks (Hostess Donettes)",
        "archetype": "#3",
        "archetypeName": "No Gate / No GS",
        "confidence": "high",
        "zone": "truckGate"
      }
    },
    {
      "type": "Feature",
      "geometry": {
        "type": "Polygon",
        "coordinates": [
          [
            [
              -93.0928,
              34.053
            ],
            [
              -93.0913,
              34.053
            ],
            [
              -93.0913,
              34.0556
            ],
            [
              -93.0928,
              34.0556
            ],
            [
              -93.0928,
              34.053
            ]
          ]
        ]
      },
      "properties": {
        "account": "jm-smucker",
        "name": "Hostess Bakery - Arkadelphia AR",
        "type": "Manufacturing - Sweet baked snacks (Hostess Donettes)",
        "archetype": "#3",
        "archetypeName": "No Gate / No GS",
        "confidence": "high",
        "zone": "dropYard",
        "index": 1
      }
    },
    {
      "type": "Feature",
      "geometry": {
        "type": "Polygon",
        "coordinates": [
          [
            [
              -93.0933,
              34.0524
            ],
            [
              -93.0925,
              34.0524
            ],
            [
              -93.0925,
              34.054
            ],
            [
              -93.0933,
              34.054
            ],
            [
              -93.0933,
              34.0524
            ]
          ]
        ]
      },
      "properties": {
        "account": "jm-smucker",
        "name": "Hostess Bakery - Arkadelphia AR",
        "type": "Manufacturing - Sweet baked snacks (Hostess Donettes)",
        "archetype": "#3",
        "archetypeName": "No Gate / No GS",
        "confidence": "high",
        "zone": "dockApron",
        "index": 1
      }
    },
    {
      "type": "Feature",
      "geometry": {
        "type": "Polygon",
        "coordinates": [
          [
            [
              -93.095,
              34.0518
            ],
            [
              -93.0928,
              34.0518
            ],
            [
              -93.0928,
              34.0524
            ],
            [
              -93.095,
              34.0524
            ],
            [
              -93.095,
              34.0518
            ]
          ]
        ]
      },
      "properties": {
        "account": "jm-smucker",
        "name": "Hostess Bakery - Arkadelphia AR",
        "type": "Manufacturing - Sweet baked snacks (Hostess Donettes)",
        "archetype": "#3",
        "archetypeName": "No Gate / No GS",
        "confidence": "high",
        "zone": "dockApron",
        "index": 2
      }
    },
    {
      "type": "Feature",
      "geometry": {
        "type": "Polygon",
        "coordinates": [
          [
            [
              -93.0948,
              34.0502
            ],
            [
              -93.0943,
              34.0502
            ],
            [
              -93.0943,
              34.053
            ],
            [
              -93.0948,
              34.053
            ],
            [
              -93.0948,
              34.0502
            ]
          ]
        ]
      },
      "properties": {
        "account": "jm-smucker",
        "name": "Hostess Bakery - Arkadelphia AR",
        "type": "Manufacturing - Sweet baked snacks (Hostess Donettes)",
        "archetype": "#3",
        "archetypeName": "No Gate / No GS",
        "confidence": "high",
        "zone": "staging"
      }
    },
    {
      "type": "Feature",
      "geometry": {
        "type": "Polygon",
        "coordinates": [
          [
            [
              -84.9698,
              32.4422
            ],
            [
              -84.9663,
              32.4422
            ],
            [
              -84.9663,
              32.446
            ],
            [
              -84.9698,
              32.446
            ],
            [
              -84.9698,
              32.4422
            ]
          ]
        ]
      },
      "properties": {
        "account": "jm-smucker",
        "name": "Hostess Bakery - Columbus GA",
        "type": "Manufacturing - Sweet baked snacks (Hostess), $120M expansion underway",
        "archetype": "#9",
        "archetypeName": "Gate + No GS (remote check-in)",
        "confidence": "medium",
        "zone": "perimeter",
        "truckGate": true,
        "guardShack": false,
        "remoteGs": true,
        "fastLaneOpportunity": false,
        "backupSensitive": true,
        "dropYard": true,
        "multipleFacilities": false,
        "scale": false,
        "shipRcvSeparate": false,
        "urbanRural": "Urban",
        "dockDoors": "25-50",
        "dropArea": "50+",
        "yardMetrics": {
          "dockDoorCount": 35,
          "trailersVisible": 55,
          "trailerParkingCapacity": 80,
          "truckGateCount": 1,
          "buildingCount": 2,
          "siteAreaAcres": 34.4,
          "railServed": false
        }
      }
    },
    {
      "type": "Feature",
      "geometry": {
        "type": "Polygon",
        "coordinates": [
          [
            [
              -84.9671,
              32.4439
            ],
            [
              -84.96675,
              32.4439
            ],
            [
              -84.96675,
              32.4442
            ],
            [
              -84.9671,
              32.4442
            ],
            [
              -84.9671,
              32.4439
            ]
          ]
        ]
      },
      "properties": {
        "account": "jm-smucker",
        "name": "Hostess Bakery - Columbus GA",
        "type": "Manufacturing - Sweet baked snacks (Hostess), $120M expansion underway",
        "archetype": "#9",
        "archetypeName": "Gate + No GS (remote check-in)",
        "confidence": "medium",
        "zone": "truckGate"
      }
    },
    {
      "type": "Feature",
      "geometry": {
        "type": "Polygon",
        "coordinates": [
          [
            [
              -84.9676,
              32.4438
            ],
            [
              -84.9664,
              32.4438
            ],
            [
              -84.9664,
              32.4458
            ],
            [
              -84.9676,
              32.4458
            ],
            [
              -84.9676,
              32.4438
            ]
          ]
        ]
      },
      "properties": {
        "account": "jm-smucker",
        "name": "Hostess Bakery - Columbus GA",
        "type": "Manufacturing - Sweet baked snacks (Hostess), $120M expansion underway",
        "archetype": "#9",
        "archetypeName": "Gate + No GS (remote check-in)",
        "confidence": "medium",
        "zone": "dropYard",
        "index": 1
      }
    },
    {
      "type": "Feature",
      "geometry": {
        "type": "Polygon",
        "coordinates": [
          [
            [
              -84.9682,
              32.4435
            ],
            [
              -84.967,
              32.4435
            ],
            [
              -84.967,
              32.4447
            ],
            [
              -84.9682,
              32.4447
            ],
            [
              -84.9682,
              32.4435
            ]
          ]
        ]
      },
      "properties": {
        "account": "jm-smucker",
        "name": "Hostess Bakery - Columbus GA",
        "type": "Manufacturing - Sweet baked snacks (Hostess), $120M expansion underway",
        "archetype": "#9",
        "archetypeName": "Gate + No GS (remote check-in)",
        "confidence": "medium",
        "zone": "dockApron",
        "index": 1
      }
    },
    {
      "type": "Feature",
      "geometry": {
        "type": "Polygon",
        "coordinates": [
          [
            [
              -84.9666,
              32.4434
            ],
            [
              -84.9662,
              32.4434
            ],
            [
              -84.9662,
              32.4452
            ],
            [
              -84.9666,
              32.4452
            ],
            [
              -84.9666,
              32.4434
            ]
          ]
        ]
      },
      "properties": {
        "account": "jm-smucker",
        "name": "Hostess Bakery - Columbus GA",
        "type": "Manufacturing - Sweet baked snacks (Hostess), $120M expansion underway",
        "archetype": "#9",
        "archetypeName": "Gate + No GS (remote check-in)",
        "confidence": "medium",
        "zone": "staging"
      }
    }
  ]
}
