{
  "type": "FeatureCollection",
  "features": [
    {
      "type": "Feature",
      "geometry": {
        "type": "Polygon",
        "coordinates": [
          [
            [
              -83.526874,
              40.286181
            ],
            [
              -83.527973,
              40.283667
            ],
            [
              -83.527423,
              40.279895
            ],
            [
              -83.522479,
              40.2778
            ],
            [
              -83.506,
              40.272352
            ],
            [
              -83.501605,
              40.275705
            ],
            [
              -83.498859,
              40.279476
            ],
            [
              -83.502704,
              40.285343
            ],
            [
              -83.526874,
              40.286181
            ]
          ]
        ]
      },
      "properties": {
        "account": "honda",
        "name": "Honda - Marysville Auto Plant (MAP) - Marysville OH",
        "type": "Auto Assembly Plant",
        "archetype": "#6",
        "archetypeName": "Gate + GS (not BU sens.) + campus",
        "confidence": "high",
        "zone": "perimeter",
        "truckGate": true,
        "guardShack": true,
        "remoteGs": false,
        "fastLaneOpportunity": true,
        "backupSensitive": false,
        "dropYard": true,
        "multipleFacilities": true,
        "scale": false,
        "shipRcvSeparate": true,
        "urbanRural": "Rural",
        "dockDoors": "50+",
        "dropArea": "50+",
        "yardMetrics": {
          "dockDoorCount": 90,
          "trailersVisible": 240,
          "trailerParkingCapacity": 320,
          "truckGateCount": 3,
          "buildingCount": 8,
          "siteAreaAcres": 720,
          "railServed": true
        }
      }
    },
    {
      "type": "Feature",
      "geometry": {
        "type": "Polygon",
        "coordinates": [
          [
            [
              -83.501056,
              40.2778
            ],
            [
              -83.501056,
              40.276124
            ],
            [
              -83.499408,
              40.276124
            ],
            [
              -83.499408,
              40.2778
            ],
            [
              -83.501056,
              40.2778
            ]
          ]
        ]
      },
      "properties": {
        "account": "honda",
        "name": "Honda - Marysville Auto Plant (MAP) - Marysville OH",
        "type": "Auto Assembly Plant",
        "archetype": "#6",
        "archetypeName": "Gate + GS (not BU sens.) + campus",
        "confidence": "high",
        "zone": "truckGate"
      }
    },
    {
      "type": "Feature",
      "geometry": {
        "type": "Polygon",
        "coordinates": [
          [
            [
              -83.526325,
              40.28241
            ],
            [
              -83.526874,
              40.276124
            ],
            [
              -83.523029,
              40.275705
            ],
            [
              -83.522479,
              40.281991
            ],
            [
              -83.526325,
              40.28241
            ]
          ]
        ]
      },
      "properties": {
        "account": "honda",
        "name": "Honda - Marysville Auto Plant (MAP) - Marysville OH",
        "type": "Auto Assembly Plant",
        "archetype": "#6",
        "archetypeName": "Gate + GS (not BU sens.) + campus",
        "confidence": "high",
        "zone": "dropYard",
        "index": 1
      }
    },
    {
      "type": "Feature",
      "geometry": {
        "type": "Polygon",
        "coordinates": [
          [
            [
              -83.51369,
              40.281153
            ],
            [
              -83.51424,
              40.279476
            ],
            [
              -83.503803,
              40.2778
            ],
            [
              -83.503253,
              40.279476
            ],
            [
              -83.51369,
              40.281153
            ]
          ]
        ]
      },
      "properties": {
        "account": "honda",
        "name": "Honda - Marysville Auto Plant (MAP) - Marysville OH",
        "type": "Auto Assembly Plant",
        "archetype": "#6",
        "archetypeName": "Gate + GS (not BU sens.) + campus",
        "confidence": "high",
        "zone": "dockApron",
        "index": 1
      }
    },
    {
      "type": "Feature",
      "geometry": {
        "type": "Polygon",
        "coordinates": [
          [
            [
              -83.545628,
              40.325881
            ],
            [
              -83.545234,
              40.331663
            ],
            [
              -83.55253,
              40.331957
            ],
            [
              -83.552924,
              40.326175
            ],
            [
              -83.545628,
              40.325881
            ]
          ]
        ]
      },
      "properties": {
        "account": "honda",
        "name": "Honda - East Liberty Auto Plant (ELP) - East Liberty OH",
        "type": "Auto Assembly Plant",
        "archetype": "#6",
        "archetypeName": "Gate + GS (not BU sens.) + campus",
        "confidence": "high",
        "zone": "perimeter",
        "truckGate": true,
        "guardShack": true,
        "remoteGs": false,
        "fastLaneOpportunity": true,
        "backupSensitive": false,
        "dropYard": true,
        "multipleFacilities": true,
        "scale": false,
        "shipRcvSeparate": true,
        "urbanRural": "Rural",
        "dockDoors": "50+",
        "dropArea": "50+",
        "yardMetrics": {
          "dockDoorCount": 70,
          "trailersVisible": 180,
          "trailerParkingCapacity": 260,
          "truckGateCount": 2,
          "buildingCount": 5,
          "siteAreaAcres": 560,
          "railServed": true
        }
      }
    },
    {
      "type": "Feature",
      "geometry": {
        "type": "Polygon",
        "coordinates": [
          [
            [
              -83.548678,
              40.324879
            ],
            [
              -83.548656,
              40.325195
            ],
            [
              -83.549068,
              40.325211
            ],
            [
              -83.54909,
              40.324895
            ],
            [
              -83.548678,
              40.324879
            ]
          ]
        ]
      },
      "properties": {
        "account": "honda",
        "name": "Honda - East Liberty Auto Plant (ELP) - East Liberty OH",
        "type": "Auto Assembly Plant",
        "archetype": "#6",
        "archetypeName": "Gate + GS (not BU sens.) + campus",
        "confidence": "high",
        "zone": "truckGate"
      }
    },
    {
      "type": "Feature",
      "geometry": {
        "type": "Polygon",
        "coordinates": [
          [
            [
              -83.542411,
              40.328339
            ],
            [
              -83.542269,
              40.330417
            ],
            [
              -83.545447,
              40.330545
            ],
            [
              -83.545589,
              40.328467
            ],
            [
              -83.542411,
              40.328339
            ]
          ]
        ]
      },
      "properties": {
        "account": "honda",
        "name": "Honda - East Liberty Auto Plant (ELP) - East Liberty OH",
        "type": "Auto Assembly Plant",
        "archetype": "#6",
        "archetypeName": "Gate + GS (not BU sens.) + campus",
        "confidence": "high",
        "zone": "dropYard",
        "index": 1
      }
    },
    {
      "type": "Feature",
      "geometry": {
        "type": "Polygon",
        "coordinates": [
          [
            [
              -83.546384,
              40.327997
            ],
            [
              -83.545736,
              40.327971
            ],
            [
              -83.545594,
              40.330049
            ],
            [
              -83.546242,
              40.330075
            ],
            [
              -83.546384,
              40.327997
            ]
          ]
        ]
      },
      "properties": {
        "account": "honda",
        "name": "Honda - East Liberty Auto Plant (ELP) - East Liberty OH",
        "type": "Auto Assembly Plant",
        "archetype": "#6",
        "archetypeName": "Gate + GS (not BU sens.) + campus",
        "confidence": "high",
        "zone": "dockApron",
        "index": 1
      }
    },
    {
      "type": "Feature",
      "geometry": {
        "type": "Polygon",
        "coordinates": [
          [
            [
              -83.526673,
              40.280767
            ],
            [
              -83.527223,
              40.278776
            ],
            [
              -83.523103,
              40.278043
            ],
            [
              -83.522279,
              40.279929
            ],
            [
              -83.526673,
              40.280767
            ]
          ]
        ]
      },
      "properties": {
        "account": "honda",
        "name": "Honda - Performance Manufacturing Center (PMC) - Marysville OH",
        "type": "Auto Assembly Plant (low-volume)",
        "archetype": "#3",
        "archetypeName": "No Gate / No GS",
        "confidence": "medium",
        "zone": "perimeter",
        "truckGate": false,
        "guardShack": false,
        "remoteGs": false,
        "fastLaneOpportunity": false,
        "backupSensitive": false,
        "dropYard": false,
        "multipleFacilities": false,
        "scale": false,
        "shipRcvSeparate": false,
        "urbanRural": "Rural",
        "dockDoors": "0-10",
        "dropArea": "0-10",
        "yardMetrics": {
          "dockDoorCount": 9,
          "trailersVisible": 8,
          "trailerParkingCapacity": 18,
          "truckGateCount": 1,
          "buildingCount": 2,
          "siteAreaAcres": 36,
          "railServed": false
        }
      }
    },
    {
      "type": "Feature",
      "geometry": {
        "type": "Polygon",
        "coordinates": [
          [
            [
              -83.523652,
              40.278776
            ],
            [
              -83.523789,
              40.278252
            ],
            [
              -83.522965,
              40.278148
            ],
            [
              -83.522828,
              40.278671
            ],
            [
              -83.523652,
              40.278776
            ]
          ]
        ]
      },
      "properties": {
        "account": "honda",
        "name": "Honda - Performance Manufacturing Center (PMC) - Marysville OH",
        "type": "Auto Assembly Plant (low-volume)",
        "archetype": "#3",
        "archetypeName": "No Gate / No GS",
        "confidence": "medium",
        "zone": "truckGate"
      }
    },
    {
      "type": "Feature",
      "geometry": {
        "type": "Polygon",
        "coordinates": [
          [
            [
              -83.526124,
              40.27909
            ],
            [
              -83.526261,
              40.278671
            ],
            [
              -83.523789,
              40.278252
            ],
            [
              -83.523652,
              40.278671
            ],
            [
              -83.526124,
              40.27909
            ]
          ]
        ]
      },
      "properties": {
        "account": "honda",
        "name": "Honda - Performance Manufacturing Center (PMC) - Marysville OH",
        "type": "Auto Assembly Plant (low-volume)",
        "archetype": "#3",
        "archetypeName": "No Gate / No GS",
        "confidence": "medium",
        "zone": "dockApron",
        "index": 1
      }
    },
    {
      "type": "Feature",
      "geometry": {
        "type": "Polygon",
        "coordinates": [
          [
            [
              -84.198542,
              40.379766
            ],
            [
              -84.198542,
              40.371815
            ],
            [
              -84.186458,
              40.371815
            ],
            [
              -84.186458,
              40.379766
            ],
            [
              -84.198542,
              40.379766
            ]
          ]
        ]
      },
      "properties": {
        "account": "honda",
        "name": "Honda - Anna Engine Plant (AEP) - Anna OH",
        "type": "Engine Plant / EV Battery Pack (IPU) Assembly",
        "archetype": "#6",
        "archetypeName": "Gate + GS (not BU sens.) + campus",
        "confidence": "high",
        "zone": "perimeter",
        "truckGate": true,
        "guardShack": true,
        "remoteGs": false,
        "fastLaneOpportunity": true,
        "backupSensitive": false,
        "dropYard": true,
        "multipleFacilities": true,
        "scale": false,
        "shipRcvSeparate": true,
        "urbanRural": "Rural",
        "dockDoors": "50+",
        "dropArea": "50+",
        "yardMetrics": {
          "dockDoorCount": 110,
          "trailersVisible": 320,
          "trailerParkingCapacity": 420,
          "truckGateCount": 3,
          "buildingCount": 9,
          "siteAreaAcres": 690,
          "railServed": false
        }
      }
    },
    {
      "type": "Feature",
      "geometry": {
        "type": "Polygon",
        "coordinates": [
          [
            [
              -84.1925,
              40.379975
            ],
            [
              -84.1925,
              40.379348
            ],
            [
              -84.191127,
              40.379348
            ],
            [
              -84.191127,
              40.379975
            ],
            [
              -84.1925,
              40.379975
            ]
          ]
        ]
      },
      "properties": {
        "account": "honda",
        "name": "Honda - Anna Engine Plant (AEP) - Anna OH",
        "type": "Engine Plant / EV Battery Pack (IPU) Assembly",
        "archetype": "#6",
        "archetypeName": "Gate + GS (not BU sens.) + campus",
        "confidence": "high",
        "zone": "truckGate"
      }
    },
    {
      "type": "Feature",
      "geometry": {
        "type": "Polygon",
        "coordinates": [
          [
            [
              -84.197993,
              40.378092
            ],
            [
              -84.197993,
              40.374954
            ],
            [
              -84.195247,
              40.374954
            ],
            [
              -84.195247,
              40.378092
            ],
            [
              -84.197993,
              40.378092
            ]
          ]
        ]
      },
      "properties": {
        "account": "honda",
        "name": "Honda - Anna Engine Plant (AEP) - Anna OH",
        "type": "Engine Plant / EV Battery Pack (IPU) Assembly",
        "archetype": "#6",
        "archetypeName": "Gate + GS (not BU sens.) + campus",
        "confidence": "high",
        "zone": "dropYard",
        "index": 1
      }
    },
    {
      "type": "Feature",
      "geometry": {
        "type": "Polygon",
        "coordinates": [
          [
            [
              -84.194697,
              40.374954
            ],
            [
              -84.194697,
              40.373908
            ],
            [
              -84.189204,
              40.373908
            ],
            [
              -84.189204,
              40.374954
            ],
            [
              -84.194697,
              40.374954
            ]
          ]
        ]
      },
      "properties": {
        "account": "honda",
        "name": "Honda - Anna Engine Plant (AEP) - Anna OH",
        "type": "Engine Plant / EV Battery Pack (IPU) Assembly",
        "archetype": "#6",
        "archetypeName": "Gate + GS (not BU sens.) + campus",
        "confidence": "high",
        "zone": "dockApron",
        "index": 1
      }
    },
    {
      "type": "Feature",
      "geometry": {
        "type": "Polygon",
        "coordinates": [
          [
            [
              -86.150042,
              33.620074
            ],
            [
              -86.150042,
              33.610468
            ],
            [
              -86.13631,
              33.610468
            ],
            [
              -86.13631,
              33.620074
            ],
            [
              -86.150042,
              33.620074
            ]
          ]
        ]
      },
      "properties": {
        "account": "honda",
        "name": "Honda Manufacturing of Alabama (HMA) - Lincoln AL",
        "type": "Auto Assembly Plant + Engine Plant",
        "archetype": "#6",
        "archetypeName": "Gate + GS (not BU sens.) + campus",
        "confidence": "high",
        "zone": "perimeter",
        "truckGate": true,
        "guardShack": true,
        "remoteGs": false,
        "fastLaneOpportunity": true,
        "backupSensitive": false,
        "dropYard": true,
        "multipleFacilities": true,
        "scale": false,
        "shipRcvSeparate": true,
        "urbanRural": "Rural",
        "dockDoors": "50+",
        "dropArea": "50+",
        "yardMetrics": {
          "dockDoorCount": 120,
          "trailersVisible": 280,
          "trailerParkingCapacity": 380,
          "truckGateCount": 3,
          "buildingCount": 10,
          "siteAreaAcres": 900,
          "railServed": false
        }
      }
    },
    {
      "type": "Feature",
      "geometry": {
        "type": "Polygon",
        "coordinates": [
          [
            [
              -86.150042,
              33.61184
            ],
            [
              -86.150042,
              33.610925
            ],
            [
              -86.148669,
              33.610925
            ],
            [
              -86.148669,
              33.61184
            ],
            [
              -86.150042,
              33.61184
            ]
          ]
        ]
      },
      "properties": {
        "account": "honda",
        "name": "Honda Manufacturing of Alabama (HMA) - Lincoln AL",
        "type": "Auto Assembly Plant + Engine Plant",
        "archetype": "#6",
        "archetypeName": "Gate + GS (not BU sens.) + campus",
        "confidence": "high",
        "zone": "truckGate"
      }
    },
    {
      "type": "Feature",
      "geometry": {
        "type": "Polygon",
        "coordinates": [
          [
            [
              -86.139605,
              33.620074
            ],
            [
              -86.139605,
              33.613899
            ],
            [
              -86.13631,
              33.61367
            ],
            [
              -86.13631,
              33.619846
            ],
            [
              -86.139605,
              33.620074
            ]
          ]
        ]
      },
      "properties": {
        "account": "honda",
        "name": "Honda Manufacturing of Alabama (HMA) - Lincoln AL",
        "type": "Auto Assembly Plant + Engine Plant",
        "archetype": "#6",
        "archetypeName": "Gate + GS (not BU sens.) + campus",
        "confidence": "high",
        "zone": "dropYard",
        "index": 1
      }
    },
    {
      "type": "Feature",
      "geometry": {
        "type": "Polygon",
        "coordinates": [
          [
            [
              -86.149493,
              33.6155
            ],
            [
              -86.149493,
              33.614356
            ],
            [
              -86.145099,
              33.614356
            ],
            [
              -86.145099,
              33.6155
            ],
            [
              -86.149493,
              33.6155
            ]
          ]
        ]
      },
      "properties": {
        "account": "honda",
        "name": "Honda Manufacturing of Alabama (HMA) - Lincoln AL",
        "type": "Auto Assembly Plant + Engine Plant",
        "archetype": "#6",
        "archetypeName": "Gate + GS (not BU sens.) + campus",
        "confidence": "high",
        "zone": "dockApron",
        "index": 1
      }
    },
    {
      "type": "Feature",
      "geometry": {
        "type": "Polygon",
        "coordinates": [
          [
            [
              -86.150042,
              33.61001
            ],
            [
              -86.150042,
              33.60818
            ],
            [
              -86.143451,
              33.60818
            ],
            [
              -86.143451,
              33.61001
            ],
            [
              -86.150042,
              33.61001
            ]
          ]
        ]
      },
      "properties": {
        "account": "honda",
        "name": "Honda Manufacturing of Alabama (HMA) - Lincoln AL",
        "type": "Auto Assembly Plant + Engine Plant",
        "archetype": "#6",
        "archetypeName": "Gate + GS (not BU sens.) + campus",
        "confidence": "high",
        "zone": "staging"
      }
    },
    {
      "type": "Feature",
      "geometry": {
        "type": "Polygon",
        "coordinates": [
          [
            [
              -85.554184,
              39.379041
            ],
            [
              -85.557479,
              39.364603
            ],
            [
              -85.538253,
              39.361205
            ],
            [
              -85.534408,
              39.375644
            ],
            [
              -85.554184,
              39.379041
            ]
          ]
        ]
      },
      "properties": {
        "account": "honda",
        "name": "Honda Manufacturing of Indiana (HMIN) - Greensburg IN",
        "type": "Auto Assembly Plant",
        "archetype": "#6",
        "archetypeName": "Gate + GS (not BU sens.) + campus",
        "confidence": "medium",
        "zone": "perimeter",
        "truckGate": true,
        "guardShack": true,
        "remoteGs": false,
        "fastLaneOpportunity": true,
        "backupSensitive": false,
        "dropYard": true,
        "multipleFacilities": true,
        "scale": false,
        "shipRcvSeparate": true,
        "urbanRural": "Rural",
        "dockDoors": "50+",
        "dropArea": "50+",
        "yardMetrics": {
          "dockDoorCount": 70,
          "trailersVisible": 380,
          "trailerParkingCapacity": 600,
          "truckGateCount": 1,
          "buildingCount": 6,
          "siteAreaAcres": 1480,
          "railServed": true
        }
      }
    },
    {
      "type": "Feature",
      "geometry": {
        "type": "Polygon",
        "coordinates": [
          [
            [
              -85.546493,
              39.367151
            ],
            [
              -85.547042,
              39.365027
            ],
            [
              -85.543747,
              39.364603
            ],
            [
              -85.543197,
              39.366726
            ],
            [
              -85.546493,
              39.367151
            ]
          ]
        ]
      },
      "properties": {
        "account": "honda",
        "name": "Honda Manufacturing of Indiana (HMIN) - Greensburg IN",
        "type": "Auto Assembly Plant",
        "archetype": "#6",
        "archetypeName": "Gate + GS (not BU sens.) + campus",
        "confidence": "medium",
        "zone": "truckGate"
      }
    },
    {
      "type": "Feature",
      "geometry": {
        "type": "Polygon",
        "coordinates": [
          [
            [
              -85.545395,
              39.372247
            ],
            [
              -85.546493,
              39.368
            ],
            [
              -85.541,
              39.367151
            ],
            [
              -85.539901,
              39.371397
            ],
            [
              -85.545395,
              39.372247
            ]
          ]
        ]
      },
      "properties": {
        "account": "honda",
        "name": "Honda Manufacturing of Indiana (HMIN) - Greensburg IN",
        "type": "Auto Assembly Plant",
        "archetype": "#6",
        "archetypeName": "Gate + GS (not BU sens.) + campus",
        "confidence": "medium",
        "zone": "dropYard",
        "index": 1
      }
    },
    {
      "type": "Feature",
      "geometry": {
        "type": "Polygon",
        "coordinates": [
          [
            [
              -85.546493,
              39.369699
            ],
            [
              -85.547042,
              39.368
            ],
            [
              -85.539352,
              39.366726
            ],
            [
              -85.538803,
              39.368425
            ],
            [
              -85.546493,
              39.369699
            ]
          ]
        ]
      },
      "properties": {
        "account": "honda",
        "name": "Honda Manufacturing of Indiana (HMIN) - Greensburg IN",
        "type": "Auto Assembly Plant",
        "archetype": "#6",
        "archetypeName": "Gate + GS (not BU sens.) + campus",
        "confidence": "medium",
        "zone": "dockApron",
        "index": 1
      }
    },
    {
      "type": "Feature",
      "geometry": {
        "type": "Polygon",
        "coordinates": [
          [
            [
              -83.57824,
              39.627762
            ],
            [
              -83.57824,
              39.61803
            ],
            [
              -83.563958,
              39.61803
            ],
            [
              -83.563958,
              39.627762
            ],
            [
              -83.57824,
              39.627762
            ]
          ]
        ]
      },
      "properties": {
        "account": "honda",
        "name": "LG Energy Solution-Honda EV Battery Plant (L-H Battery Co.) - Jeffersonville OH",
        "type": "EV Battery Cell Plant (JV)",
        "archetype": "#7",
        "archetypeName": "Gate + GS (not BU sens.) + fast lane opp",
        "confidence": "low",
        "zone": "perimeter",
        "truckGate": true,
        "guardShack": true,
        "remoteGs": false,
        "fastLaneOpportunity": true,
        "backupSensitive": false,
        "dropYard": false,
        "multipleFacilities": false,
        "scale": false,
        "shipRcvSeparate": false,
        "urbanRural": "Rural",
        "dockDoors": "25-50",
        "dropArea": "10-25",
        "yardMetrics": {
          "dockDoorCount": 35,
          "trailersVisible": 25,
          "trailerParkingCapacity": 120,
          "truckGateCount": 1,
          "buildingCount": 2,
          "siteAreaAcres": 290,
          "railServed": false
        }
      }
    },
    {
      "type": "Feature",
      "geometry": {
        "type": "Polygon",
        "coordinates": [
          [
            [
              -83.57824,
              39.625646
            ],
            [
              -83.57824,
              39.6248
            ],
            [
              -83.577141,
              39.6248
            ],
            [
              -83.577141,
              39.625646
            ],
            [
              -83.57824,
              39.625646
            ]
          ]
        ]
      },
      "properties": {
        "account": "honda",
        "name": "LG Energy Solution-Honda EV Battery Plant (L-H Battery Co.) - Jeffersonville OH",
        "type": "EV Battery Cell Plant (JV)",
        "archetype": "#7",
        "archetypeName": "Gate + GS (not BU sens.) + fast lane opp",
        "confidence": "low",
        "zone": "truckGate"
      }
    },
    {
      "type": "Feature",
      "geometry": {
        "type": "Polygon",
        "coordinates": [
          [
            [
              -83.57769,
              39.623108
            ],
            [
              -83.57769,
              39.620992
            ],
            [
              -83.565605,
              39.620992
            ],
            [
              -83.565605,
              39.623108
            ],
            [
              -83.57769,
              39.623108
            ]
          ]
        ]
      },
      "properties": {
        "account": "honda",
        "name": "LG Energy Solution-Honda EV Battery Plant (L-H Battery Co.) - Jeffersonville OH",
        "type": "EV Battery Cell Plant (JV)",
        "archetype": "#7",
        "archetypeName": "Gate + GS (not BU sens.) + fast lane opp",
        "confidence": "low",
        "zone": "dropYard",
        "index": 1
      }
    },
    {
      "type": "Feature",
      "geometry": {
        "type": "Polygon",
        "coordinates": [
          [
            [
              -83.57769,
              39.620146
            ],
            [
              -83.57769,
              39.618453
            ],
            [
              -83.567253,
              39.618453
            ],
            [
              -83.567253,
              39.620146
            ],
            [
              -83.57769,
              39.620146
            ]
          ]
        ]
      },
      "properties": {
        "account": "honda",
        "name": "LG Energy Solution-Honda EV Battery Plant (L-H Battery Co.) - Jeffersonville OH",
        "type": "EV Battery Cell Plant (JV)",
        "archetype": "#7",
        "archetypeName": "Gate + GS (not BU sens.) + fast lane opp",
        "confidence": "low",
        "zone": "dropYard",
        "index": 2
      }
    },
    {
      "type": "Feature",
      "geometry": {
        "type": "Polygon",
        "coordinates": [
          [
            [
              -83.577141,
              39.624377
            ],
            [
              -83.577141,
              39.623319
            ],
            [
              -83.565605,
              39.623319
            ],
            [
              -83.565605,
              39.624377
            ],
            [
              -83.577141,
              39.624377
            ]
          ]
        ]
      },
      "properties": {
        "account": "honda",
        "name": "LG Energy Solution-Honda EV Battery Plant (L-H Battery Co.) - Jeffersonville OH",
        "type": "EV Battery Cell Plant (JV)",
        "archetype": "#7",
        "archetypeName": "Gate + GS (not BU sens.) + fast lane opp",
        "confidence": "low",
        "zone": "dockApron",
        "index": 1
      }
    },
    {
      "type": "Feature",
      "geometry": {
        "type": "Polygon",
        "coordinates": [
          [
            [
              -83.905542,
              40.450426
            ],
            [
              -83.905817,
              40.44541
            ],
            [
              -83.897577,
              40.444992
            ],
            [
              -83.897303,
              40.450008
            ],
            [
              -83.905542,
              40.450426
            ]
          ]
        ]
      },
      "properties": {
        "account": "honda",
        "name": "Honda Transmission Mfg. of America - Russells Point OH",
        "type": "Transmission Plant",
        "archetype": "#1",
        "archetypeName": "Gate + GS (not BU sens.)",
        "confidence": "medium",
        "zone": "perimeter",
        "truckGate": true,
        "guardShack": true,
        "remoteGs": false,
        "fastLaneOpportunity": false,
        "backupSensitive": false,
        "dropYard": true,
        "multipleFacilities": false,
        "scale": false,
        "shipRcvSeparate": false,
        "urbanRural": "Rural",
        "dockDoors": "25-50",
        "dropArea": "25-50",
        "yardMetrics": {
          "dockDoorCount": 40,
          "trailersVisible": 90,
          "trailerParkingCapacity": 160,
          "truckGateCount": 1,
          "buildingCount": 4,
          "siteAreaAcres": 80,
          "railServed": false
        }
      }
    },
    {
      "type": "Feature",
      "geometry": {
        "type": "Polygon",
        "coordinates": [
          [
            [
              -83.898401,
              40.449172
            ],
            [
              -83.898676,
              40.448336
            ],
            [
              -83.897577,
              40.448127
            ],
            [
              -83.897303,
              40.448963
            ],
            [
              -83.898401,
              40.449172
            ]
          ]
        ]
      },
      "properties": {
        "account": "honda",
        "name": "Honda Transmission Mfg. of America - Russells Point OH",
        "type": "Transmission Plant",
        "archetype": "#1",
        "archetypeName": "Gate + GS (not BU sens.)",
        "confidence": "medium",
        "zone": "truckGate"
      }
    },
    {
      "type": "Feature",
      "geometry": {
        "type": "Polygon",
        "coordinates": [
          [
            [
              -83.905268,
              40.447082
            ],
            [
              -83.905542,
              40.44541
            ],
            [
              -83.901972,
              40.444992
            ],
            [
              -83.901697,
              40.446873
            ],
            [
              -83.905268,
              40.447082
            ]
          ]
        ]
      },
      "properties": {
        "account": "honda",
        "name": "Honda Transmission Mfg. of America - Russells Point OH",
        "type": "Transmission Plant",
        "archetype": "#1",
        "archetypeName": "Gate + GS (not BU sens.)",
        "confidence": "medium",
        "zone": "dropYard",
        "index": 1
      }
    },
    {
      "type": "Feature",
      "geometry": {
        "type": "Polygon",
        "coordinates": [
          [
            [
              -83.904993,
              40.449172
            ],
            [
              -83.905268,
              40.448336
            ],
            [
              -83.899775,
              40.448127
            ],
            [
              -83.8995,
              40.448963
            ],
            [
              -83.904993,
              40.449172
            ]
          ]
        ]
      },
      "properties": {
        "account": "honda",
        "name": "Honda Transmission Mfg. of America - Russells Point OH",
        "type": "Transmission Plant",
        "archetype": "#1",
        "archetypeName": "Gate + GS (not BU sens.)",
        "confidence": "medium",
        "zone": "dockApron",
        "index": 1
      }
    },
    {
      "type": "Feature",
      "geometry": {
        "type": "Polygon",
        "coordinates": [
          [
            [
              -85.287796,
              33.692828
            ],
            [
              -85.288345,
              33.688258
            ],
            [
              -85.280105,
              33.688258
            ],
            [
              -85.280655,
              33.692828
            ],
            [
              -85.287796,
              33.692828
            ]
          ]
        ]
      },
      "properties": {
        "account": "honda",
        "name": "Honda Precision Parts of Georgia (Transmission Plant) - Tallapoosa GA",
        "type": "Transmission Plant",
        "archetype": "#10",
        "archetypeName": "Ship/Rcv Separate (Gate+GS)",
        "confidence": "medium",
        "zone": "perimeter",
        "truckGate": true,
        "guardShack": true,
        "remoteGs": false,
        "fastLaneOpportunity": true,
        "backupSensitive": false,
        "dropYard": true,
        "multipleFacilities": false,
        "scale": false,
        "shipRcvSeparate": true,
        "urbanRural": "Rural",
        "dockDoors": "50+",
        "dropArea": "25-50",
        "yardMetrics": {
          "dockDoorCount": 50,
          "trailersVisible": 110,
          "trailerParkingCapacity": 180,
          "truckGateCount": 1,
          "buildingCount": 3,
          "siteAreaAcres": 130,
          "railServed": false
        }
      }
    },
    {
      "type": "Feature",
      "geometry": {
        "type": "Polygon",
        "coordinates": [
          [
            [
              -85.287796,
              33.689172
            ],
            [
              -85.287796,
              33.688258
            ],
            [
              -85.286423,
              33.688258
            ],
            [
              -85.286423,
              33.689172
            ],
            [
              -85.287796,
              33.689172
            ]
          ]
        ]
      },
      "properties": {
        "account": "honda",
        "name": "Honda Precision Parts of Georgia (Transmission Plant) - Tallapoosa GA",
        "type": "Transmission Plant",
        "archetype": "#10",
        "archetypeName": "Ship/Rcv Separate (Gate+GS)",
        "confidence": "medium",
        "zone": "truckGate"
      }
    },
    {
      "type": "Feature",
      "geometry": {
        "type": "Polygon",
        "coordinates": [
          [
            [
              -85.283401,
              33.691914
            ],
            [
              -85.283401,
              33.689629
            ],
            [
              -85.280655,
              33.689629
            ],
            [
              -85.280655,
              33.691914
            ],
            [
              -85.283401,
              33.691914
            ]
          ]
        ]
      },
      "properties": {
        "account": "honda",
        "name": "Honda Precision Parts of Georgia (Transmission Plant) - Tallapoosa GA",
        "type": "Transmission Plant",
        "archetype": "#10",
        "archetypeName": "Ship/Rcv Separate (Gate+GS)",
        "confidence": "medium",
        "zone": "dropYard",
        "index": 1
      }
    },
    {
      "type": "Feature",
      "geometry": {
        "type": "Polygon",
        "coordinates": [
          [
            [
              -85.287247,
              33.691
            ],
            [
              -85.287247,
              33.690086
            ],
            [
              -85.283951,
              33.690086
            ],
            [
              -85.283951,
              33.691
            ],
            [
              -85.287247,
              33.691
            ]
          ]
        ]
      },
      "properties": {
        "account": "honda",
        "name": "Honda Precision Parts of Georgia (Transmission Plant) - Tallapoosa GA",
        "type": "Transmission Plant",
        "archetype": "#10",
        "archetypeName": "Ship/Rcv Separate (Gate+GS)",
        "confidence": "medium",
        "zone": "dockApron",
        "index": 1
      }
    },
    {
      "type": "Feature",
      "geometry": {
        "type": "Polygon",
        "coordinates": [
          [
            [
              -79.923092,
              34.113001
            ],
            [
              -79.923916,
              34.112092
            ],
            [
              -79.92419,
              34.1105
            ],
            [
              -79.921993,
              34.108226
            ],
            [
              -79.915951,
              34.109136
            ],
            [
              -79.914303,
              34.111637
            ],
            [
              -79.917873,
              34.113456
            ],
            [
              -79.923092,
              34.113001
            ]
          ]
        ]
      },
      "properties": {
        "account": "honda",
        "name": "Honda of South Carolina Mfg. (ATV/UTV Plant) - Timmonsville SC",
        "type": "ATV / UTV / Side-by-Side Plant",
        "archetype": "#6",
        "archetypeName": "Gate + GS (not BU sens.) + campus",
        "confidence": "high",
        "zone": "perimeter",
        "truckGate": true,
        "guardShack": true,
        "remoteGs": false,
        "fastLaneOpportunity": true,
        "backupSensitive": false,
        "dropYard": true,
        "multipleFacilities": true,
        "scale": false,
        "shipRcvSeparate": true,
        "urbanRural": "Rural",
        "dockDoors": "50+",
        "dropArea": "50+",
        "yardMetrics": {
          "dockDoorCount": 55,
          "trailersVisible": 220,
          "trailerParkingCapacity": 320,
          "truckGateCount": 1,
          "buildingCount": 4,
          "siteAreaAcres": 230,
          "railServed": false
        }
      }
    },
    {
      "type": "Feature",
      "geometry": {
        "type": "Polygon",
        "coordinates": [
          [
            [
              -79.9165,
              34.111637
            ],
            [
              -79.916775,
              34.110727
            ],
            [
              -79.915401,
              34.1105
            ],
            [
              -79.915127,
              34.11141
            ],
            [
              -79.9165,
              34.111637
            ]
          ]
        ]
      },
      "properties": {
        "account": "honda",
        "name": "Honda of South Carolina Mfg. (ATV/UTV Plant) - Timmonsville SC",
        "type": "ATV / UTV / Side-by-Side Plant",
        "archetype": "#6",
        "archetypeName": "Gate + GS (not BU sens.) + campus",
        "confidence": "high",
        "zone": "truckGate"
      }
    },
    {
      "type": "Feature",
      "geometry": {
        "type": "Polygon",
        "coordinates": [
          [
            [
              -79.922542,
              34.1105
            ],
            [
              -79.923092,
              34.108908
            ],
            [
              -79.919796,
              34.108226
            ],
            [
              -79.919247,
              34.110045
            ],
            [
              -79.922542,
              34.1105
            ]
          ]
        ]
      },
      "properties": {
        "account": "honda",
        "name": "Honda of South Carolina Mfg. (ATV/UTV Plant) - Timmonsville SC",
        "type": "ATV / UTV / Side-by-Side Plant",
        "archetype": "#6",
        "archetypeName": "Gate + GS (not BU sens.) + campus",
        "confidence": "high",
        "zone": "dropYard",
        "index": 1
      }
    },
    {
      "type": "Feature",
      "geometry": {
        "type": "Polygon",
        "coordinates": [
          [
            [
              -79.920895,
              34.111864
            ],
            [
              -79.921169,
              34.110955
            ],
            [
              -79.916775,
              34.110273
            ],
            [
              -79.9165,
              34.111182
            ],
            [
              -79.920895,
              34.111864
            ]
          ]
        ]
      },
      "properties": {
        "account": "honda",
        "name": "Honda of South Carolina Mfg. (ATV/UTV Plant) - Timmonsville SC",
        "type": "ATV / UTV / Side-by-Side Plant",
        "archetype": "#6",
        "archetypeName": "Gate + GS (not BU sens.) + campus",
        "confidence": "high",
        "zone": "dockApron",
        "index": 1
      }
    },
    {
      "type": "Feature",
      "geometry": {
        "type": "Polygon",
        "coordinates": [
          [
            [
              -79.34719,
              36.035213
            ],
            [
              -79.347327,
              36.031437
            ],
            [
              -79.341559,
              36.031215
            ],
            [
              -79.341422,
              36.034991
            ],
            [
              -79.34719,
              36.035213
            ]
          ]
        ]
      },
      "properties": {
        "account": "honda",
        "name": "Honda Power Equipment Mfg. - Swepsonville NC",
        "type": "Power Equipment / General-Purpose Engine Plant",
        "archetype": "#3",
        "archetypeName": "No Gate / No GS",
        "confidence": "high",
        "zone": "perimeter",
        "truckGate": false,
        "guardShack": false,
        "remoteGs": false,
        "fastLaneOpportunity": true,
        "backupSensitive": false,
        "dropYard": true,
        "multipleFacilities": true,
        "scale": false,
        "shipRcvSeparate": true,
        "urbanRural": "Rural",
        "dockDoors": "50+",
        "dropArea": "50+",
        "yardMetrics": {
          "dockDoorCount": 60,
          "trailersVisible": 95,
          "trailerParkingCapacity": 130,
          "truckGateCount": 1,
          "buildingCount": 4,
          "siteAreaAcres": 95,
          "railServed": false
        }
      }
    },
    {
      "type": "Feature",
      "geometry": {
        "type": "Polygon",
        "coordinates": [
          [
            [
              -79.345816,
              36.031881
            ],
            [
              -79.345954,
              36.031437
            ],
            [
              -79.34513,
              36.031326
            ],
            [
              -79.344992,
              36.03177
            ],
            [
              -79.345816,
              36.031881
            ]
          ]
        ]
      },
      "properties": {
        "account": "honda",
        "name": "Honda Power Equipment Mfg. - Swepsonville NC",
        "type": "Power Equipment / General-Purpose Engine Plant",
        "archetype": "#3",
        "archetypeName": "No Gate / No GS",
        "confidence": "high",
        "zone": "truckGate"
      }
    },
    {
      "type": "Feature",
      "geometry": {
        "type": "Polygon",
        "coordinates": [
          [
            [
              -79.345542,
              36.032325
            ],
            [
              -79.345679,
              36.031881
            ],
            [
              -79.342932,
              36.03177
            ],
            [
              -79.342795,
              36.032214
            ],
            [
              -79.345542,
              36.032325
            ]
          ]
        ]
      },
      "properties": {
        "account": "honda",
        "name": "Honda Power Equipment Mfg. - Swepsonville NC",
        "type": "Power Equipment / General-Purpose Engine Plant",
        "archetype": "#3",
        "archetypeName": "No Gate / No GS",
        "confidence": "high",
        "zone": "dockApron",
        "index": 1
      }
    },
    {
      "type": "Feature",
      "geometry": {
        "type": "Polygon",
        "coordinates": [
          [
            [
              -83.514585,
              40.283191
            ],
            [
              -83.514585,
              40.27439
            ],
            [
              -83.499753,
              40.273971
            ],
            [
              -83.499753,
              40.283191
            ],
            [
              -83.514585,
              40.283191
            ]
          ]
        ]
      },
      "properties": {
        "account": "honda",
        "name": "Honda - Marysville Motorcycle Plant (MMP) - Marysville OH",
        "type": "Motorcycle / Powersports Assembly Plant",
        "archetype": "#6",
        "archetypeName": "Gate + GS (not BU sens.) + campus",
        "confidence": "medium",
        "zone": "perimeter",
        "truckGate": true,
        "guardShack": true,
        "remoteGs": false,
        "fastLaneOpportunity": true,
        "backupSensitive": false,
        "dropYard": true,
        "multipleFacilities": true,
        "scale": false,
        "shipRcvSeparate": true,
        "urbanRural": "Rural",
        "dockDoors": "50+",
        "dropArea": "50+",
        "yardMetrics": {
          "dockDoorCount": 90,
          "trailersVisible": 320,
          "trailerParkingCapacity": 450,
          "truckGateCount": 3,
          "buildingCount": 1,
          "siteAreaAcres": 130,
          "railServed": true
        }
      }
    },
    {
      "type": "Feature",
      "geometry": {
        "type": "Polygon",
        "coordinates": [
          [
            [
              -83.5025,
              40.274809
            ],
            [
              -83.5025,
              40.273971
            ],
            [
              -83.500852,
              40.273971
            ],
            [
              -83.500852,
              40.274809
            ],
            [
              -83.5025,
              40.274809
            ]
          ]
        ]
      },
      "properties": {
        "account": "honda",
        "name": "Honda - Marysville Motorcycle Plant (MMP) - Marysville OH",
        "type": "Motorcycle / Powersports Assembly Plant",
        "archetype": "#6",
        "archetypeName": "Gate + GS (not BU sens.) + campus",
        "confidence": "medium",
        "zone": "truckGate"
      }
    },
    {
      "type": "Feature",
      "geometry": {
        "type": "Polygon",
        "coordinates": [
          [
            [
              -83.514036,
              40.280676
            ],
            [
              -83.514036,
              40.276066
            ],
            [
              -83.511289,
              40.275647
            ],
            [
              -83.511289,
              40.280676
            ],
            [
              -83.514036,
              40.280676
            ]
          ]
        ]
      },
      "properties": {
        "account": "honda",
        "name": "Honda - Marysville Motorcycle Plant (MMP) - Marysville OH",
        "type": "Motorcycle / Powersports Assembly Plant",
        "archetype": "#6",
        "archetypeName": "Gate + GS (not BU sens.) + campus",
        "confidence": "medium",
        "zone": "dropYard",
        "index": 1
      }
    },
    {
      "type": "Feature",
      "geometry": {
        "type": "Polygon",
        "coordinates": [
          [
            [
              -83.51074,
              40.277324
            ],
            [
              -83.511014,
              40.276485
            ],
            [
              -83.502775,
              40.276066
            ],
            [
              -83.5025,
              40.276905
            ],
            [
              -83.51074,
              40.277324
            ]
          ]
        ]
      },
      "properties": {
        "account": "honda",
        "name": "Honda - Marysville Motorcycle Plant (MMP) - Marysville OH",
        "type": "Motorcycle / Powersports Assembly Plant",
        "archetype": "#6",
        "archetypeName": "Gate + GS (not BU sens.) + campus",
        "confidence": "medium",
        "zone": "dockApron",
        "index": 1
      }
    },
    {
      "type": "Feature",
      "geometry": {
        "type": "Polygon",
        "coordinates": [
          [
            [
              -79.924873,
              36.104053
            ],
            [
              -79.92556,
              36.10361
            ],
            [
              -79.926109,
              36.1025
            ],
            [
              -79.925835,
              36.101058
            ],
            [
              -79.922539,
              36.101058
            ],
            [
              -79.921715,
              36.102278
            ],
            [
              -79.921852,
              36.104053
            ],
            [
              -79.924873,
              36.104053
            ]
          ]
        ]
      },
      "properties": {
        "account": "honda",
        "name": "Honda Aircraft Company (HondaJet) - Greensboro NC",
        "type": "Aircraft Assembly Plant",
        "archetype": "#6",
        "archetypeName": "Gate + GS (not BU sens.) + campus",
        "confidence": "high",
        "zone": "perimeter",
        "truckGate": true,
        "guardShack": true,
        "remoteGs": false,
        "fastLaneOpportunity": false,
        "backupSensitive": false,
        "dropYard": false,
        "multipleFacilities": true,
        "scale": false,
        "shipRcvSeparate": false,
        "urbanRural": "Rural",
        "dockDoors": "0-10",
        "dropArea": "NONE",
        "yardMetrics": {
          "dockDoorCount": 6,
          "trailersVisible": 2,
          "trailerParkingCapacity": 8,
          "truckGateCount": 1,
          "buildingCount": 3,
          "siteAreaAcres": 133,
          "railServed": false
        }
      }
    },
    {
      "type": "Feature",
      "geometry": {
        "type": "Polygon",
        "coordinates": [
          [
            [
              -79.926247,
              36.1025
            ],
            [
              -79.926384,
              36.101945
            ],
            [
              -79.925697,
              36.101834
            ],
            [
              -79.92556,
              36.102389
            ],
            [
              -79.926247,
              36.1025
            ]
          ]
        ]
      },
      "properties": {
        "account": "honda",
        "name": "Honda Aircraft Company (HondaJet) - Greensboro NC",
        "type": "Aircraft Assembly Plant",
        "archetype": "#6",
        "archetypeName": "Gate + GS (not BU sens.) + campus",
        "confidence": "high",
        "zone": "truckGate"
      }
    },
    {
      "type": "Feature",
      "geometry": {
        "type": "Polygon",
        "coordinates": [
          [
            [
              -79.925972,
              36.102944
            ],
            [
              -79.926109,
              36.1025
            ],
            [
              -79.923637,
              36.102167
            ],
            [
              -79.9235,
              36.102611
            ],
            [
              -79.925972,
              36.102944
            ]
          ]
        ]
      },
      "properties": {
        "account": "honda",
        "name": "Honda Aircraft Company (HondaJet) - Greensboro NC",
        "type": "Aircraft Assembly Plant",
        "archetype": "#6",
        "archetypeName": "Gate + GS (not BU sens.) + campus",
        "confidence": "high",
        "zone": "dockApron",
        "index": 1
      }
    },
    {
      "type": "Feature",
      "geometry": {
        "type": "Polygon",
        "coordinates": [
          [
            [
              -79.481961,
              36.047999
            ],
            [
              -79.482373,
              36.046667
            ],
            [
              -79.480725,
              36.046334
            ],
            [
              -79.480313,
              36.047777
            ],
            [
              -79.481961,
              36.047999
            ]
          ]
        ]
      },
      "properties": {
        "account": "honda",
        "name": "Honda Aero, Inc. (GE Honda HF120 engines) - Burlington NC",
        "type": "Aircraft Engine Plant",
        "archetype": "#3",
        "archetypeName": "No Gate / No GS",
        "confidence": "high",
        "zone": "perimeter",
        "truckGate": false,
        "guardShack": false,
        "remoteGs": false,
        "fastLaneOpportunity": false,
        "backupSensitive": false,
        "dropYard": false,
        "multipleFacilities": false,
        "scale": false,
        "shipRcvSeparate": false,
        "urbanRural": "Rural",
        "dockDoors": "0-10",
        "dropArea": "NONE",
        "yardMetrics": {
          "dockDoorCount": 4,
          "trailersVisible": 0,
          "trailerParkingCapacity": 4,
          "truckGateCount": 1,
          "buildingCount": 1,
          "siteAreaAcres": 14,
          "railServed": false
        }
      }
    },
    {
      "type": "Feature",
      "geometry": {
        "type": "Polygon",
        "coordinates": [
          [
            [
              -79.482236,
              36.047222
            ],
            [
              -79.482305,
              36.046944
            ],
            [
              -79.481961,
              36.046889
            ],
            [
              -79.481893,
              36.047167
            ],
            [
              -79.482236,
              36.047222
            ]
          ]
        ]
      },
      "properties": {
        "account": "honda",
        "name": "Honda Aero, Inc. (GE Honda HF120 engines) - Burlington NC",
        "type": "Aircraft Engine Plant",
        "archetype": "#3",
        "archetypeName": "No Gate / No GS",
        "confidence": "high",
        "zone": "truckGate"
      }
    },
    {
      "type": "Feature",
      "geometry": {
        "type": "Polygon",
        "coordinates": [
          [
            [
              -79.482099,
              36.047444
            ],
            [
              -79.482167,
              36.047222
            ],
            [
              -79.481069,
              36.047056
            ],
            [
              -79.481,
              36.047278
            ],
            [
              -79.482099,
              36.047444
            ]
          ]
        ]
      },
      "properties": {
        "account": "honda",
        "name": "Honda Aero, Inc. (GE Honda HF120 engines) - Burlington NC",
        "type": "Aircraft Engine Plant",
        "archetype": "#3",
        "archetypeName": "No Gate / No GS",
        "confidence": "high",
        "zone": "dockApron",
        "index": 1
      }
    },
    {
      "type": "Feature",
      "geometry": {
        "type": "Polygon",
        "coordinates": [
          [
            [
              -84.238573,
              40.050182
            ],
            [
              -84.238573,
              40.046818
            ],
            [
              -84.235003,
              40.046818
            ],
            [
              -84.235003,
              40.050182
            ],
            [
              -84.238573,
              40.050182
            ]
          ]
        ]
      },
      "properties": {
        "account": "honda",
        "name": "American Honda - Troy Parts Distribution Center - Troy OH",
        "type": "Parts Distribution Center",
        "archetype": "#6",
        "archetypeName": "Gate + GS (not BU sens.) + campus",
        "confidence": "medium",
        "zone": "perimeter",
        "truckGate": true,
        "guardShack": true,
        "remoteGs": false,
        "fastLaneOpportunity": true,
        "backupSensitive": false,
        "dropYard": true,
        "multipleFacilities": true,
        "scale": false,
        "shipRcvSeparate": false,
        "urbanRural": "Rural",
        "dockDoors": "50+",
        "dropArea": "50+",
        "yardMetrics": {
          "dockDoorCount": 55,
          "trailersVisible": 120,
          "trailerParkingCapacity": 180,
          "truckGateCount": 1,
          "buildingCount": 1,
          "siteAreaAcres": 80,
          "railServed": false
        }
      }
    },
    {
      "type": "Feature",
      "geometry": {
        "type": "Polygon",
        "coordinates": [
          [
            [
              -84.239947,
              40.050182
            ],
            [
              -84.239947,
              40.049656
            ],
            [
              -84.238573,
              40.049551
            ],
            [
              -84.238573,
              40.050077
            ],
            [
              -84.239947,
              40.050182
            ]
          ]
        ]
      },
      "properties": {
        "account": "honda",
        "name": "American Honda - Troy Parts Distribution Center - Troy OH",
        "type": "Parts Distribution Center",
        "archetype": "#6",
        "archetypeName": "Gate + GS (not BU sens.) + campus",
        "confidence": "medium",
        "zone": "truckGate"
      }
    },
    {
      "type": "Feature",
      "geometry": {
        "type": "Polygon",
        "coordinates": [
          [
            [
              -84.240221,
              40.049972
            ],
            [
              -84.240221,
              40.047238
            ],
            [
              -84.238573,
              40.047238
            ],
            [
              -84.238573,
              40.049972
            ],
            [
              -84.240221,
              40.049972
            ]
          ]
        ]
      },
      "properties": {
        "account": "honda",
        "name": "American Honda - Troy Parts Distribution Center - Troy OH",
        "type": "Parts Distribution Center",
        "archetype": "#6",
        "archetypeName": "Gate + GS (not BU sens.) + campus",
        "confidence": "medium",
        "zone": "dropYard",
        "index": 1
      }
    },
    {
      "type": "Feature",
      "geometry": {
        "type": "Polygon",
        "coordinates": [
          [
            [
              -84.238573,
              40.049761
            ],
            [
              -84.238573,
              40.047028
            ],
            [
              -84.238024,
              40.047028
            ],
            [
              -84.238024,
              40.049761
            ],
            [
              -84.238573,
              40.049761
            ]
          ]
        ]
      },
      "properties": {
        "account": "honda",
        "name": "American Honda - Troy Parts Distribution Center - Troy OH",
        "type": "Parts Distribution Center",
        "archetype": "#6",
        "archetypeName": "Gate + GS (not BU sens.) + campus",
        "confidence": "medium",
        "zone": "dockApron",
        "index": 1
      }
    },
    {
      "type": "Feature",
      "geometry": {
        "type": "Polygon",
        "coordinates": [
          [
            [
              -84.232169,
              40.043779
            ],
            [
              -84.231928,
              40.047574
            ],
            [
              -84.237085,
              40.047769
            ],
            [
              -84.237326,
              40.043974
            ],
            [
              -84.232169,
              40.043779
            ]
          ]
        ]
      },
      "properties": {
        "account": "honda",
        "name": "American Honda - Midwest Consolidation Center (MCC) - Troy OH",
        "type": "Parts Consolidation Center",
        "archetype": "#10",
        "archetypeName": "Ship/Rcv Separate (Gate+GS)",
        "confidence": "high",
        "zone": "perimeter",
        "truckGate": true,
        "guardShack": true,
        "remoteGs": false,
        "fastLaneOpportunity": true,
        "backupSensitive": false,
        "dropYard": true,
        "multipleFacilities": false,
        "scale": false,
        "shipRcvSeparate": true,
        "urbanRural": "Rural",
        "dockDoors": "50+",
        "dropArea": "50+",
        "yardMetrics": {
          "dockDoorCount": 70,
          "trailersVisible": 95,
          "trailerParkingCapacity": 180,
          "truckGateCount": 1,
          "buildingCount": 2,
          "siteAreaAcres": 58,
          "railServed": false
        }
      }
    },
    {
      "type": "Feature",
      "geometry": {
        "type": "Polygon",
        "coordinates": [
          [
            [
              -84.236921,
              40.045097
            ],
            [
              -84.236902,
              40.045387
            ],
            [
              -84.237277,
              40.045401
            ],
            [
              -84.237296,
              40.045111
            ],
            [
              -84.236921,
              40.045097
            ]
          ]
        ]
      },
      "properties": {
        "account": "honda",
        "name": "American Honda - Midwest Consolidation Center (MCC) - Troy OH",
        "type": "Parts Consolidation Center",
        "archetype": "#10",
        "archetypeName": "Ship/Rcv Separate (Gate+GS)",
        "confidence": "high",
        "zone": "truckGate"
      }
    },
    {
      "type": "Feature",
      "geometry": {
        "type": "Polygon",
        "coordinates": [
          [
            [
              -84.232587,
              40.046876
            ],
            [
              -84.232561,
              40.047282
            ],
            [
              -84.235843,
              40.047406
            ],
            [
              -84.235869,
              40.047
            ],
            [
              -84.232587,
              40.046876
            ]
          ]
        ]
      },
      "properties": {
        "account": "honda",
        "name": "American Honda - Midwest Consolidation Center (MCC) - Troy OH",
        "type": "Parts Consolidation Center",
        "archetype": "#10",
        "archetypeName": "Ship/Rcv Separate (Gate+GS)",
        "confidence": "high",
        "zone": "dropYard",
        "index": 1
      }
    },
    {
      "type": "Feature",
      "geometry": {
        "type": "Polygon",
        "coordinates": [
          [
            [
              -84.232565,
              40.046542
            ],
            [
              -84.232545,
              40.046858
            ],
            [
              -84.236413,
              40.047004
            ],
            [
              -84.236433,
              40.046688
            ],
            [
              -84.232565,
              40.046542
            ]
          ]
        ]
      },
      "properties": {
        "account": "honda",
        "name": "American Honda - Midwest Consolidation Center (MCC) - Troy OH",
        "type": "Parts Consolidation Center",
        "archetype": "#10",
        "archetypeName": "Ship/Rcv Separate (Gate+GS)",
        "confidence": "high",
        "zone": "dockApron",
        "index": 1
      }
    },
    {
      "type": "Feature",
      "geometry": {
        "type": "Polygon",
        "coordinates": [
          [
            [
              -84.233566,
              40.044101
            ],
            [
              -84.23354,
              40.044507
            ],
            [
              -84.236236,
              40.044609
            ],
            [
              -84.236262,
              40.044203
            ],
            [
              -84.233566,
              40.044101
            ]
          ]
        ]
      },
      "properties": {
        "account": "honda",
        "name": "American Honda - Midwest Consolidation Center (MCC) - Troy OH",
        "type": "Parts Consolidation Center",
        "archetype": "#10",
        "archetypeName": "Ship/Rcv Separate (Gate+GS)",
        "confidence": "high",
        "zone": "staging"
      }
    },
    {
      "type": "Feature",
      "geometry": {
        "type": "Polygon",
        "coordinates": [
          [
            [
              -117.702072,
              33.996923
            ],
            [
              -117.702072,
              33.993507
            ],
            [
              -117.698501,
              33.993507
            ],
            [
              -117.698501,
              33.996923
            ],
            [
              -117.702072,
              33.996923
            ]
          ]
        ]
      },
      "properties": {
        "account": "honda",
        "name": "American Honda - Chino Parts Distribution Center (NA Hub West) - Chino CA",
        "type": "Parts / Accessories Distribution Center",
        "archetype": "#9",
        "archetypeName": "Gate + No GS (remote check-in)",
        "confidence": "high",
        "zone": "perimeter",
        "truckGate": true,
        "guardShack": false,
        "remoteGs": true,
        "fastLaneOpportunity": false,
        "backupSensitive": false,
        "dropYard": true,
        "multipleFacilities": false,
        "scale": false,
        "shipRcvSeparate": true,
        "urbanRural": "Urban",
        "dockDoors": "50+",
        "dropArea": "50+",
        "yardMetrics": {
          "dockDoorCount": 55,
          "trailersVisible": 90,
          "trailerParkingCapacity": 120,
          "truckGateCount": 1,
          "buildingCount": 1,
          "siteAreaAcres": 30,
          "railServed": false
        }
      }
    },
    {
      "type": "Feature",
      "geometry": {
        "type": "Polygon",
        "coordinates": [
          [
            [
              -117.702072,
              33.996695
            ],
            [
              -117.702072,
              33.996411
            ],
            [
              -117.70166,
              33.996411
            ],
            [
              -117.70166,
              33.996695
            ],
            [
              -117.702072,
              33.996695
            ]
          ]
        ]
      },
      "properties": {
        "account": "honda",
        "name": "American Honda - Chino Parts Distribution Center (NA Hub West) - Chino CA",
        "type": "Parts / Accessories Distribution Center",
        "archetype": "#9",
        "archetypeName": "Gate + No GS (remote check-in)",
        "confidence": "high",
        "zone": "truckGate"
      }
    },
    {
      "type": "Feature",
      "geometry": {
        "type": "Polygon",
        "coordinates": [
          [
            [
              -117.699463,
              33.996354
            ],
            [
              -117.699463,
              33.994646
            ],
            [
              -117.698501,
              33.994646
            ],
            [
              -117.698501,
              33.996354
            ],
            [
              -117.699463,
              33.996354
            ]
          ]
        ]
      },
      "properties": {
        "account": "honda",
        "name": "American Honda - Chino Parts Distribution Center (NA Hub West) - Chino CA",
        "type": "Parts / Accessories Distribution Center",
        "archetype": "#9",
        "archetypeName": "Gate + No GS (remote check-in)",
        "confidence": "high",
        "zone": "dropYard",
        "index": 1
      }
    },
    {
      "type": "Feature",
      "geometry": {
        "type": "Polygon",
        "coordinates": [
          [
            [
              -117.699875,
              33.996468
            ],
            [
              -117.699875,
              33.994532
            ],
            [
              -117.699463,
              33.994532
            ],
            [
              -117.699463,
              33.996468
            ],
            [
              -117.699875,
              33.996468
            ]
          ]
        ]
      },
      "properties": {
        "account": "honda",
        "name": "American Honda - Chino Parts Distribution Center (NA Hub West) - Chino CA",
        "type": "Parts / Accessories Distribution Center",
        "archetype": "#9",
        "archetypeName": "Gate + No GS (remote check-in)",
        "confidence": "high",
        "zone": "dockApron",
        "index": 1
      }
    },
    {
      "type": "Feature",
      "geometry": {
        "type": "Polygon",
        "coordinates": [
          [
            [
              -97.010199,
              32.923303
            ],
            [
              -97.010199,
              32.921228
            ],
            [
              -97.008276,
              32.921228
            ],
            [
              -97.008276,
              32.923303
            ],
            [
              -97.010199,
              32.923303
            ]
          ]
        ]
      },
      "properties": {
        "account": "honda",
        "name": "American Honda - Irving Parts Distribution Center - Irving TX",
        "type": "Parts Distribution Center",
        "archetype": "#9",
        "archetypeName": "Gate + No GS (remote check-in)",
        "confidence": "high",
        "zone": "perimeter",
        "truckGate": true,
        "guardShack": false,
        "remoteGs": true,
        "fastLaneOpportunity": false,
        "backupSensitive": false,
        "dropYard": true,
        "multipleFacilities": false,
        "scale": false,
        "shipRcvSeparate": false,
        "urbanRural": "Urban",
        "dockDoors": "25-50",
        "dropArea": "10-25",
        "yardMetrics": {
          "dockDoorCount": 30,
          "trailersVisible": 35,
          "trailerParkingCapacity": 45,
          "truckGateCount": 2,
          "buildingCount": 2,
          "siteAreaAcres": 19,
          "railServed": false
        }
      }
    },
    {
      "type": "Feature",
      "geometry": {
        "type": "Polygon",
        "coordinates": [
          [
            [
              -97.010199,
              32.921689
            ],
            [
              -97.010199,
              32.921401
            ],
            [
              -97.009787,
              32.921401
            ],
            [
              -97.009787,
              32.921689
            ],
            [
              -97.010199,
              32.921689
            ]
          ]
        ]
      },
      "properties": {
        "account": "honda",
        "name": "American Honda - Irving Parts Distribution Center - Irving TX",
        "type": "Parts Distribution Center",
        "archetype": "#9",
        "archetypeName": "Gate + No GS (remote check-in)",
        "confidence": "high",
        "zone": "truckGate"
      }
    },
    {
      "type": "Feature",
      "geometry": {
        "type": "Polygon",
        "coordinates": [
          [
            [
              -97.010061,
              32.923303
            ],
            [
              -97.010061,
              32.922957
            ],
            [
              -97.008551,
              32.922957
            ],
            [
              -97.008551,
              32.923303
            ],
            [
              -97.010061,
              32.923303
            ]
          ]
        ]
      },
      "properties": {
        "account": "honda",
        "name": "American Honda - Irving Parts Distribution Center - Irving TX",
        "type": "Parts Distribution Center",
        "archetype": "#9",
        "archetypeName": "Gate + No GS (remote check-in)",
        "confidence": "high",
        "zone": "dropYard",
        "index": 1
      }
    },
    {
      "type": "Feature",
      "geometry": {
        "type": "Polygon",
        "coordinates": [
          [
            [
              -97.010061,
              32.921689
            ],
            [
              -97.010061,
              32.921401
            ],
            [
              -97.008413,
              32.921401
            ],
            [
              -97.008413,
              32.921689
            ],
            [
              -97.010061,
              32.921689
            ]
          ]
        ]
      },
      "properties": {
        "account": "honda",
        "name": "American Honda - Irving Parts Distribution Center - Irving TX",
        "type": "Parts Distribution Center",
        "archetype": "#9",
        "archetypeName": "Gate + No GS (remote check-in)",
        "confidence": "high",
        "zone": "dockApron",
        "index": 1
      }
    }
  ]
}
