{
  "type": "FeatureCollection",
  "features": [
    {
      "type": "Feature",
      "geometry": {
        "type": "Polygon",
        "coordinates": [
          [
            [
              -86.336134,
              32.285844
            ],
            [
              -86.336134,
              32.275627
            ],
            [
              -86.311415,
              32.275627
            ],
            [
              -86.311415,
              32.285844
            ],
            [
              -86.336134,
              32.285844
            ]
          ]
        ]
      },
      "properties": {
        "account": "hyundai-motor-america",
        "name": "Hyundai Motor Manufacturing Alabama (HMMA) - Montgomery AL",
        "type": "Auto Assembly Plant",
        "archetype": "#6",
        "archetypeName": "Gate + GS (not BU sens.) + campus",
        "confidence": "high",
        "zone": "perimeter",
        "truckGate": true,
        "guardShack": true,
        "remoteGs": false,
        "fastLaneOpportunity": true,
        "backupSensitive": false,
        "dropYard": true,
        "multipleFacilities": true,
        "scale": false,
        "shipRcvSeparate": true,
        "urbanRural": "Rural",
        "dockDoors": "50+",
        "dropArea": "50+",
        "yardMetrics": {
          "dockDoorCount": 90,
          "trailersVisible": 220,
          "trailerParkingCapacity": 320,
          "truckGateCount": 2,
          "buildingCount": 12,
          "siteAreaAcres": 620,
          "railServed": false
        }
      }
    },
    {
      "type": "Feature",
      "geometry": {
        "type": "Polygon",
        "coordinates": [
          [
            [
              -86.334486,
              32.284915
            ],
            [
              -86.334486,
              32.281664
            ],
            [
              -86.320753,
              32.281664
            ],
            [
              -86.320753,
              32.284915
            ],
            [
              -86.334486,
              32.284915
            ]
          ]
        ]
      },
      "properties": {
        "account": "hyundai-motor-america",
        "name": "Hyundai Motor Manufacturing Alabama (HMMA) - Montgomery AL",
        "type": "Auto Assembly Plant",
        "archetype": "#6",
        "archetypeName": "Gate + GS (not BU sens.) + campus",
        "confidence": "high",
        "zone": "dropYard",
        "index": 1
      }
    },
    {
      "type": "Feature",
      "geometry": {
        "type": "Polygon",
        "coordinates": [
          [
            [
              -86.334486,
              32.2812
            ],
            [
              -86.334486,
              32.279807
            ],
            [
              -86.320753,
              32.279807
            ],
            [
              -86.320753,
              32.2812
            ],
            [
              -86.334486,
              32.2812
            ]
          ]
        ]
      },
      "properties": {
        "account": "hyundai-motor-america",
        "name": "Hyundai Motor Manufacturing Alabama (HMMA) - Montgomery AL",
        "type": "Auto Assembly Plant",
        "archetype": "#6",
        "archetypeName": "Gate + GS (not BU sens.) + campus",
        "confidence": "high",
        "zone": "dockApron",
        "index": 1
      }
    },
    {
      "type": "Feature",
      "geometry": {
        "type": "Polygon",
        "coordinates": [
          [
            [
              -81.460634,
              32.1713
            ],
            [
              -81.461733,
              32.164325
            ],
            [
              -81.460085,
              32.150839
            ],
            [
              -81.448,
              32.148513
            ],
            [
              -81.441408,
              32.15735
            ],
            [
              -81.445253,
              32.172695
            ],
            [
              -81.460634,
              32.1713
            ]
          ]
        ]
      },
      "properties": {
        "account": "hyundai-motor-america",
        "name": "Hyundai Motor Group Metaplant America (HMGMA) - Ellabell GA",
        "type": "Auto Assembly Plant (EV)",
        "archetype": "#6",
        "archetypeName": "Gate + GS (not BU sens.) + campus",
        "confidence": "medium",
        "zone": "perimeter",
        "truckGate": true,
        "guardShack": true,
        "remoteGs": false,
        "fastLaneOpportunity": true,
        "backupSensitive": false,
        "dropYard": true,
        "multipleFacilities": true,
        "scale": false,
        "shipRcvSeparate": true,
        "urbanRural": "Rural",
        "dockDoors": "50+",
        "dropArea": "25-50",
        "yardMetrics": {
          "dockDoorCount": 70,
          "trailersVisible": 40,
          "trailerParkingCapacity": 300,
          "truckGateCount": 3,
          "buildingCount": 15,
          "siteAreaAcres": 2900,
          "railServed": true
        }
      }
    },
    {
      "type": "Feature",
      "geometry": {
        "type": "Polygon",
        "coordinates": [
          [
            [
              -81.460634,
              32.165255
            ],
            [
              -81.460085,
              32.162
            ],
            [
              -81.447451,
              32.16293
            ],
            [
              -81.448,
              32.166185
            ],
            [
              -81.460634,
              32.165255
            ]
          ]
        ]
      },
      "properties": {
        "account": "hyundai-motor-america",
        "name": "Hyundai Motor Group Metaplant America (HMGMA) - Ellabell GA",
        "type": "Auto Assembly Plant (EV)",
        "archetype": "#6",
        "archetypeName": "Gate + GS (not BU sens.) + campus",
        "confidence": "medium",
        "zone": "dockApron",
        "index": 1
      }
    },
    {
      "type": "Feature",
      "geometry": {
        "type": "Polygon",
        "coordinates": [
          [
            [
              -86.335845,
              32.286051
            ],
            [
              -86.335845,
              32.275369
            ],
            [
              -86.319915,
              32.275369
            ],
            [
              -86.319915,
              32.286051
            ],
            [
              -86.335845,
              32.286051
            ]
          ]
        ]
      },
      "properties": {
        "account": "hyundai-motor-america",
        "name": "HMMA Cylinder Head Machining Plant - Montgomery AL",
        "type": "Engine / Component Plant",
        "archetype": "#6",
        "archetypeName": "Gate + GS (not BU sens.) + campus",
        "confidence": "medium",
        "zone": "perimeter",
        "truckGate": true,
        "guardShack": true,
        "remoteGs": false,
        "fastLaneOpportunity": true,
        "backupSensitive": false,
        "dropYard": true,
        "multipleFacilities": true,
        "scale": false,
        "shipRcvSeparate": false,
        "urbanRural": "Rural",
        "dockDoors": "10-25",
        "dropArea": "0-10",
        "yardMetrics": {
          "dockDoorCount": 14,
          "trailersVisible": 22,
          "trailerParkingCapacity": 40,
          "truckGateCount": 2,
          "buildingCount": 12,
          "siteAreaAcres": 620,
          "railServed": false
        }
      }
    },
    {
      "type": "Feature",
      "geometry": {
        "type": "Polygon",
        "coordinates": [
          [
            [
              -86.334747,
              32.280478
            ],
            [
              -86.334747,
              32.27862
            ],
            [
              -86.325408,
              32.27862
            ],
            [
              -86.325408,
              32.280478
            ],
            [
              -86.334747,
              32.280478
            ]
          ]
        ]
      },
      "properties": {
        "account": "hyundai-motor-america",
        "name": "HMMA Cylinder Head Machining Plant - Montgomery AL",
        "type": "Engine / Component Plant",
        "archetype": "#6",
        "archetypeName": "Gate + GS (not BU sens.) + campus",
        "confidence": "medium",
        "zone": "dockApron",
        "index": 1
      }
    },
    {
      "type": "Feature",
      "geometry": {
        "type": "Polygon",
        "coordinates": [
          [
            [
              -117.55516,
              34.040769
            ],
            [
              -117.55516,
              34.037014
            ],
            [
              -117.55104,
              34.037014
            ],
            [
              -117.55104,
              34.040769
            ],
            [
              -117.55516,
              34.040769
            ]
          ]
        ]
      },
      "properties": {
        "account": "hyundai-motor-america",
        "name": "Mobis Parts America PDC - Ontario CA",
        "type": "Parts Distribution Center",
        "archetype": "#3",
        "archetypeName": "No Gate / No GS",
        "confidence": "high",
        "zone": "perimeter",
        "truckGate": false,
        "guardShack": false,
        "remoteGs": false,
        "fastLaneOpportunity": false,
        "backupSensitive": false,
        "dropYard": false,
        "multipleFacilities": false,
        "scale": false,
        "shipRcvSeparate": false,
        "urbanRural": "Urban",
        "dockDoors": "25-50",
        "dropArea": "10-25",
        "yardMetrics": {
          "dockDoorCount": 46,
          "trailersVisible": 38,
          "trailerParkingCapacity": 55,
          "truckGateCount": 1,
          "buildingCount": 1,
          "siteAreaAcres": 14.5,
          "railServed": false
        }
      }
    },
    {
      "type": "Feature",
      "geometry": {
        "type": "Polygon",
        "coordinates": [
          [
            [
              -117.555297,
              34.038834
            ],
            [
              -117.555297,
              34.038379
            ],
            [
              -117.554748,
              34.038379
            ],
            [
              -117.554748,
              34.038834
            ],
            [
              -117.555297,
              34.038834
            ]
          ]
        ]
      },
      "properties": {
        "account": "hyundai-motor-america",
        "name": "Mobis Parts America PDC - Ontario CA",
        "type": "Parts Distribution Center",
        "archetype": "#3",
        "archetypeName": "No Gate / No GS",
        "confidence": "high",
        "zone": "truckGate"
      }
    },
    {
      "type": "Feature",
      "geometry": {
        "type": "Polygon",
        "coordinates": [
          [
            [
              -117.555023,
              34.038493
            ],
            [
              -117.555023,
              34.037696
            ],
            [
              -117.551177,
              34.037696
            ],
            [
              -117.551177,
              34.038493
            ],
            [
              -117.555023,
              34.038493
            ]
          ]
        ]
      },
      "properties": {
        "account": "hyundai-motor-america",
        "name": "Mobis Parts America PDC - Ontario CA",
        "type": "Parts Distribution Center",
        "archetype": "#3",
        "archetypeName": "No Gate / No GS",
        "confidence": "high",
        "zone": "dropYard",
        "index": 1
      }
    },
    {
      "type": "Feature",
      "geometry": {
        "type": "Polygon",
        "coordinates": [
          [
            [
              -117.555023,
              34.038948
            ],
            [
              -117.555023,
              34.038607
            ],
            [
              -117.551177,
              34.038607
            ],
            [
              -117.551177,
              34.038948
            ],
            [
              -117.555023,
              34.038948
            ]
          ]
        ]
      },
      "properties": {
        "account": "hyundai-motor-america",
        "name": "Mobis Parts America PDC - Ontario CA",
        "type": "Parts Distribution Center",
        "archetype": "#3",
        "archetypeName": "No Gate / No GS",
        "confidence": "high",
        "zone": "dockApron",
        "index": 1
      }
    },
    {
      "type": "Feature",
      "geometry": {
        "type": "Polygon",
        "coordinates": [
          [
            [
              -88.358948,
              41.794524
            ],
            [
              -88.358948,
              41.792476
            ],
            [
              -88.356201,
              41.792476
            ],
            [
              -88.356201,
              41.794524
            ],
            [
              -88.358948,
              41.794524
            ]
          ]
        ]
      },
      "properties": {
        "account": "hyundai-motor-america",
        "name": "Mobis Parts America PDC - Aurora IL",
        "type": "Parts Distribution Center",
        "archetype": "#3",
        "archetypeName": "No Gate / No GS",
        "confidence": "high",
        "zone": "perimeter",
        "truckGate": false,
        "guardShack": false,
        "remoteGs": false,
        "fastLaneOpportunity": false,
        "backupSensitive": false,
        "dropYard": false,
        "multipleFacilities": false,
        "scale": false,
        "shipRcvSeparate": false,
        "urbanRural": "Urban",
        "dockDoors": "25-50",
        "dropArea": "10-25",
        "yardMetrics": {
          "dockDoorCount": 34,
          "trailersVisible": 24,
          "trailerParkingCapacity": 38,
          "truckGateCount": 1,
          "buildingCount": 1,
          "siteAreaAcres": 11.5,
          "railServed": false
        }
      }
    },
    {
      "type": "Feature",
      "geometry": {
        "type": "Polygon",
        "coordinates": [
          [
            [
              -88.358811,
              41.7935
            ],
            [
              -88.358811,
              41.79309
            ],
            [
              -88.356339,
              41.79309
            ],
            [
              -88.356339,
              41.7935
            ],
            [
              -88.358811,
              41.7935
            ]
          ]
        ]
      },
      "properties": {
        "account": "hyundai-motor-america",
        "name": "Mobis Parts America PDC - Aurora IL",
        "type": "Parts Distribution Center",
        "archetype": "#3",
        "archetypeName": "No Gate / No GS",
        "confidence": "high",
        "zone": "dockApron",
        "index": 1
      }
    },
    {
      "type": "Feature",
      "geometry": {
        "type": "Polygon",
        "coordinates": [
          [
            [
              -84.08957,
              33.969673
            ],
            [
              -84.089227,
              33.965117
            ],
            [
              -84.086137,
              33.965288
            ],
            [
              -84.08648,
              33.969958
            ],
            [
              -84.08957,
              33.969673
            ]
          ]
        ]
      },
      "properties": {
        "account": "hyundai-motor-america",
        "name": "Mobis Parts America PDC - Lawrenceville GA",
        "type": "Parts Distribution Center",
        "archetype": "#3",
        "archetypeName": "No Gate / No GS",
        "confidence": "high",
        "zone": "perimeter",
        "truckGate": false,
        "guardShack": false,
        "remoteGs": false,
        "fastLaneOpportunity": false,
        "backupSensitive": false,
        "dropYard": true,
        "multipleFacilities": false,
        "scale": false,
        "shipRcvSeparate": false,
        "urbanRural": "Urban",
        "dockDoors": "25-50",
        "dropArea": "10-25",
        "yardMetrics": {
          "dockDoorCount": 38,
          "trailersVisible": 16,
          "trailerParkingCapacity": 30,
          "truckGateCount": 0,
          "buildingCount": 1,
          "siteAreaAcres": 15.5,
          "railServed": false
        }
      }
    },
    {
      "type": "Feature",
      "geometry": {
        "type": "Polygon",
        "coordinates": [
          [
            [
              -84.089227,
              33.967395
            ],
            [
              -84.089089,
              33.965174
            ],
            [
              -84.087579,
              33.965288
            ],
            [
              -84.087716,
              33.967509
            ],
            [
              -84.089227,
              33.967395
            ]
          ]
        ]
      },
      "properties": {
        "account": "hyundai-motor-america",
        "name": "Mobis Parts America PDC - Lawrenceville GA",
        "type": "Parts Distribution Center",
        "archetype": "#3",
        "archetypeName": "No Gate / No GS",
        "confidence": "high",
        "zone": "dropYard",
        "index": 1
      }
    },
    {
      "type": "Feature",
      "geometry": {
        "type": "Polygon",
        "coordinates": [
          [
            [
              -84.087647,
              33.969502
            ],
            [
              -84.087373,
              33.965345
            ],
            [
              -84.086755,
              33.965402
            ],
            [
              -84.087029,
              33.969559
            ],
            [
              -84.087647,
              33.969502
            ]
          ]
        ]
      },
      "properties": {
        "account": "hyundai-motor-america",
        "name": "Mobis Parts America PDC - Lawrenceville GA",
        "type": "Parts Distribution Center",
        "archetype": "#3",
        "archetypeName": "No Gate / No GS",
        "confidence": "high",
        "zone": "dockApron",
        "index": 1
      }
    },
    {
      "type": "Feature",
      "geometry": {
        "type": "Polygon",
        "coordinates": [
          [
            [
              -96.810387,
              32.641456
            ],
            [
              -96.810387,
              32.638681
            ],
            [
              -96.808121,
              32.638681
            ],
            [
              -96.808121,
              32.641456
            ],
            [
              -96.810387,
              32.641456
            ]
          ]
        ]
      },
      "properties": {
        "account": "hyundai-motor-america",
        "name": "Mobis Parts America PDC - Lancaster TX",
        "type": "Parts Distribution Center",
        "archetype": "#9",
        "archetypeName": "Gate + No GS (remote check-in)",
        "confidence": "high",
        "zone": "perimeter",
        "truckGate": true,
        "guardShack": false,
        "remoteGs": true,
        "fastLaneOpportunity": true,
        "backupSensitive": false,
        "dropYard": true,
        "multipleFacilities": false,
        "scale": false,
        "shipRcvSeparate": true,
        "urbanRural": "Urban",
        "dockDoors": "50+",
        "dropArea": "50+",
        "yardMetrics": {
          "dockDoorCount": 90,
          "trailersVisible": 75,
          "trailerParkingCapacity": 110,
          "truckGateCount": 1,
          "buildingCount": 1,
          "siteAreaAcres": 25.6,
          "railServed": false
        }
      }
    },
    {
      "type": "Feature",
      "geometry": {
        "type": "Polygon",
        "coordinates": [
          [
            [
              -96.808876,
              32.641341
            ],
            [
              -96.808876,
              32.638854
            ],
            [
              -96.808121,
              32.638854
            ],
            [
              -96.808121,
              32.641341
            ],
            [
              -96.808876,
              32.641341
            ]
          ]
        ]
      },
      "properties": {
        "account": "hyundai-motor-america",
        "name": "Mobis Parts America PDC - Lancaster TX",
        "type": "Parts Distribution Center",
        "archetype": "#9",
        "archetypeName": "Gate + No GS (remote check-in)",
        "confidence": "high",
        "zone": "dropYard",
        "index": 1
      }
    },
    {
      "type": "Feature",
      "geometry": {
        "type": "Polygon",
        "coordinates": [
          [
            [
              -96.810318,
              32.641283
            ],
            [
              -96.810318,
              32.638912
            ],
            [
              -96.809975,
              32.638912
            ],
            [
              -96.809975,
              32.641283
            ],
            [
              -96.810318,
              32.641283
            ]
          ]
        ]
      },
      "properties": {
        "account": "hyundai-motor-america",
        "name": "Mobis Parts America PDC - Lancaster TX",
        "type": "Parts Distribution Center",
        "archetype": "#9",
        "archetypeName": "Gate + No GS (remote check-in)",
        "confidence": "high",
        "zone": "dockApron",
        "index": 1
      }
    },
    {
      "type": "Feature",
      "geometry": {
        "type": "Polygon",
        "coordinates": [
          [
            [
              -74.480675,
              40.35136
            ],
            [
              -74.478927,
              40.350706
            ],
            [
              -74.476343,
              40.354772
            ],
            [
              -74.478091,
              40.355426
            ],
            [
              -74.480675,
              40.35136
            ]
          ]
        ]
      },
      "properties": {
        "account": "hyundai-motor-america",
        "name": "Mobis Parts America PDC - Jamesburg NJ",
        "type": "Parts Distribution Center",
        "archetype": "#3",
        "archetypeName": "No Gate / No GS",
        "confidence": "high",
        "zone": "perimeter",
        "truckGate": false,
        "guardShack": false,
        "remoteGs": false,
        "fastLaneOpportunity": false,
        "backupSensitive": false,
        "dropYard": true,
        "multipleFacilities": false,
        "scale": false,
        "shipRcvSeparate": false,
        "urbanRural": "Urban",
        "dockDoors": "25-50",
        "dropArea": "25-50",
        "yardMetrics": {
          "dockDoorCount": 32,
          "trailersVisible": 34,
          "trailerParkingCapacity": 45,
          "truckGateCount": 0,
          "buildingCount": 1,
          "siteAreaAcres": 27.8,
          "railServed": false
        }
      }
    },
    {
      "type": "Feature",
      "geometry": {
        "type": "Polygon",
        "coordinates": [
          [
            [
              -74.478518,
              40.351954
            ],
            [
              -74.478041,
              40.351775
            ],
            [
              -74.476646,
              40.35397
            ],
            [
              -74.477123,
              40.354149
            ],
            [
              -74.478518,
              40.351954
            ]
          ]
        ]
      },
      "properties": {
        "account": "hyundai-motor-america",
        "name": "Mobis Parts America PDC - Jamesburg NJ",
        "type": "Parts Distribution Center",
        "archetype": "#3",
        "archetypeName": "No Gate / No GS",
        "confidence": "high",
        "zone": "dockApron",
        "index": 1
      }
    },
    {
      "type": "Feature",
      "geometry": {
        "type": "Polygon",
        "coordinates": [
          [
            [
              -72.599579,
              41.856579
            ],
            [
              -72.599373,
              41.853612
            ],
            [
              -72.59491,
              41.853868
            ],
            [
              -72.595116,
              41.856834
            ],
            [
              -72.599579,
              41.856579
            ]
          ]
        ]
      },
      "properties": {
        "account": "hyundai-motor-america",
        "name": "Mobis Parts America PDC - South Windsor CT",
        "type": "Parts Distribution Center",
        "archetype": "#3",
        "archetypeName": "No Gate / No GS",
        "confidence": "medium",
        "zone": "perimeter",
        "truckGate": false,
        "guardShack": false,
        "remoteGs": false,
        "fastLaneOpportunity": false,
        "backupSensitive": false,
        "dropYard": true,
        "multipleFacilities": false,
        "scale": false,
        "shipRcvSeparate": false,
        "urbanRural": "Urban",
        "dockDoors": "25-50",
        "dropArea": "10-25",
        "yardMetrics": {
          "dockDoorCount": 36,
          "trailersVisible": 30,
          "trailerParkingCapacity": 40,
          "truckGateCount": 1,
          "buildingCount": 1,
          "siteAreaAcres": 17.9,
          "railServed": false
        }
      }
    },
    {
      "type": "Feature",
      "geometry": {
        "type": "Polygon",
        "coordinates": [
          [
            [
              -72.598,
              41.855811
            ],
            [
              -72.597863,
              41.854635
            ],
            [
              -72.597039,
              41.854686
            ],
            [
              -72.597176,
              41.855863
            ],
            [
              -72.598,
              41.855811
            ]
          ]
        ]
      },
      "properties": {
        "account": "hyundai-motor-america",
        "name": "Mobis Parts America PDC - South Windsor CT",
        "type": "Parts Distribution Center",
        "archetype": "#3",
        "archetypeName": "No Gate / No GS",
        "confidence": "medium",
        "zone": "dockApron",
        "index": 1
      }
    },
    {
      "type": "Feature",
      "geometry": {
        "type": "Polygon",
        "coordinates": [
          [
            [
              -122.244797,
              47.235099
            ],
            [
              -122.244797,
              47.232302
            ],
            [
              -122.240403,
              47.232302
            ],
            [
              -122.240403,
              47.235099
            ],
            [
              -122.244797,
              47.235099
            ]
          ]
        ]
      },
      "properties": {
        "account": "hyundai-motor-america",
        "name": "Mobis Parts America PDC - Sumner WA",
        "type": "Parts Distribution Center",
        "archetype": "#3",
        "archetypeName": "No Gate / No GS",
        "confidence": "high",
        "zone": "perimeter",
        "truckGate": false,
        "guardShack": false,
        "remoteGs": false,
        "fastLaneOpportunity": false,
        "backupSensitive": true,
        "dropYard": true,
        "multipleFacilities": false,
        "scale": false,
        "shipRcvSeparate": true,
        "urbanRural": "Urban",
        "dockDoors": "50+",
        "dropArea": "10-25",
        "yardMetrics": {
          "dockDoorCount": 70,
          "trailersVisible": 28,
          "trailerParkingCapacity": 35,
          "truckGateCount": 0,
          "buildingCount": 1,
          "siteAreaAcres": 16.2,
          "railServed": false
        }
      }
    },
    {
      "type": "Feature",
      "geometry": {
        "type": "Polygon",
        "coordinates": [
          [
            [
              -122.24466,
              47.233841
            ],
            [
              -122.24466,
              47.233654
            ],
            [
              -122.240677,
              47.233654
            ],
            [
              -122.240677,
              47.233841
            ],
            [
              -122.24466,
              47.233841
            ]
          ]
        ]
      },
      "properties": {
        "account": "hyundai-motor-america",
        "name": "Mobis Parts America PDC - Sumner WA",
        "type": "Parts Distribution Center",
        "archetype": "#3",
        "archetypeName": "No Gate / No GS",
        "confidence": "high",
        "zone": "dockApron",
        "index": 1
      }
    },
    {
      "type": "Feature",
      "geometry": {
        "type": "Polygon",
        "coordinates": [
          [
            [
              -85.137542,
              32.919917
            ],
            [
              -85.134247,
              32.90493
            ],
            [
              -85.11914,
              32.908388
            ],
            [
              -85.121887,
              32.923375
            ],
            [
              -85.137542,
              32.919917
            ]
          ]
        ]
      },
      "properties": {
        "account": "hyundai-motor-america",
        "name": "Glovis America Vehicle Processing Center - West Point GA",
        "type": "Vehicle Processing Center",
        "archetype": "#9",
        "archetypeName": "Gate + No GS (remote check-in)",
        "confidence": "medium",
        "zone": "perimeter",
        "truckGate": true,
        "guardShack": false,
        "remoteGs": true,
        "fastLaneOpportunity": true,
        "backupSensitive": false,
        "dropYard": true,
        "multipleFacilities": true,
        "scale": false,
        "shipRcvSeparate": false,
        "urbanRural": "Rural",
        "dockDoors": "NONE",
        "dropArea": "50+",
        "yardMetrics": {
          "dockDoorCount": 0,
          "trailersVisible": 0,
          "trailerParkingCapacity": 0,
          "truckGateCount": 1,
          "buildingCount": 6,
          "siteAreaAcres": 385,
          "railServed": true
        }
      }
    },
    {
      "type": "Feature",
      "geometry": {
        "type": "Polygon",
        "coordinates": [
          [
            [
              -85.136993,
              32.917611
            ],
            [
              -85.135071,
              32.906544
            ],
            [
              -85.128204,
              32.908388
            ],
            [
              -85.130127,
              32.918995
            ],
            [
              -85.136993,
              32.917611
            ]
          ]
        ]
      },
      "properties": {
        "account": "hyundai-motor-america",
        "name": "Glovis America Vehicle Processing Center - West Point GA",
        "type": "Vehicle Processing Center",
        "archetype": "#9",
        "archetypeName": "Gate + No GS (remote check-in)",
        "confidence": "medium",
        "zone": "dropYard",
        "index": 1
      }
    },
    {
      "type": "Feature",
      "geometry": {
        "type": "Polygon",
        "coordinates": [
          [
            [
              -93.92624,
              32.432671
            ],
            [
              -93.925691,
              32.419224
            ],
            [
              -93.911958,
              32.41992
            ],
            [
              -93.912507,
              32.433366
            ],
            [
              -93.92624,
              32.432671
            ]
          ]
        ]
      },
      "properties": {
        "account": "hyundai-motor-america",
        "name": "Glovis America Vehicle Processing Center - Shreveport LA",
        "type": "Vehicle Processing Center",
        "archetype": "#9",
        "archetypeName": "Gate + No GS (remote check-in)",
        "confidence": "medium",
        "zone": "perimeter",
        "truckGate": true,
        "guardShack": false,
        "remoteGs": true,
        "fastLaneOpportunity": true,
        "backupSensitive": false,
        "dropYard": true,
        "multipleFacilities": true,
        "scale": false,
        "shipRcvSeparate": false,
        "urbanRural": "Rural",
        "dockDoors": "10-25",
        "dropArea": "10-25",
        "yardMetrics": {
          "dockDoorCount": 12,
          "trailersVisible": 0,
          "trailerParkingCapacity": 30,
          "truckGateCount": 1,
          "buildingCount": 8,
          "siteAreaAcres": 730,
          "railServed": true
        }
      }
    },
    {
      "type": "Feature",
      "geometry": {
        "type": "Polygon",
        "coordinates": [
          [
            [
              -93.919374,
              32.431512
            ],
            [
              -93.919099,
              32.42757
            ],
            [
              -93.912233,
              32.428034
            ],
            [
              -93.912507,
              32.431975
            ],
            [
              -93.919374,
              32.431512
            ]
          ]
        ]
      },
      "properties": {
        "account": "hyundai-motor-america",
        "name": "Glovis America Vehicle Processing Center - Shreveport LA",
        "type": "Vehicle Processing Center",
        "archetype": "#9",
        "archetypeName": "Gate + No GS (remote check-in)",
        "confidence": "medium",
        "zone": "dropYard",
        "index": 1
      }
    },
    {
      "type": "Feature",
      "geometry": {
        "type": "Polygon",
        "coordinates": [
          [
            [
              -81.533632,
              31.119636
            ],
            [
              -81.535529,
              31.13602
            ],
            [
              -81.549312,
              31.134834
            ],
            [
              -81.547415,
              31.11845
            ],
            [
              -81.533632,
              31.119636
            ]
          ]
        ]
      },
      "properties": {
        "account": "hyundai-motor-america",
        "name": "Glovis America Port Vehicle Processing - Brunswick GA",
        "type": "Port / Vehicle Import Processing Center",
        "archetype": "#6",
        "archetypeName": "Gate + GS (not BU sens.) + campus",
        "confidence": "medium",
        "zone": "perimeter",
        "truckGate": true,
        "guardShack": true,
        "remoteGs": false,
        "fastLaneOpportunity": true,
        "backupSensitive": true,
        "dropYard": true,
        "multipleFacilities": true,
        "scale": false,
        "shipRcvSeparate": false,
        "urbanRural": "Rural",
        "dockDoors": "NONE",
        "dropArea": "50+",
        "yardMetrics": {
          "dockDoorCount": 0,
          "trailersVisible": 6,
          "trailerParkingCapacity": 40,
          "truckGateCount": 1,
          "buildingCount": 8,
          "siteAreaAcres": 1627,
          "railServed": true
        }
      }
    },
    {
      "type": "Feature",
      "geometry": {
        "type": "Polygon",
        "coordinates": [
          [
            [
              -81.53716,
              31.126003
            ],
            [
              -81.537608,
              31.129874
            ],
            [
              -81.543038,
              31.129407
            ],
            [
              -81.54259,
              31.125536
            ],
            [
              -81.53716,
              31.126003
            ]
          ]
        ]
      },
      "properties": {
        "account": "hyundai-motor-america",
        "name": "Glovis America Port Vehicle Processing - Brunswick GA",
        "type": "Port / Vehicle Import Processing Center",
        "archetype": "#6",
        "archetypeName": "Gate + GS (not BU sens.) + campus",
        "confidence": "medium",
        "zone": "dropYard",
        "index": 1
      }
    },
    {
      "type": "Feature",
      "geometry": {
        "type": "Polygon",
        "coordinates": [
          [
            [
              -74.138429,
              40.692288
            ],
            [
              -74.133489,
              40.690529
            ],
            [
              -74.129433,
              40.69717
            ],
            [
              -74.134373,
              40.698929
            ],
            [
              -74.138429,
              40.692288
            ]
          ]
        ]
      },
      "properties": {
        "account": "hyundai-motor-america",
        "name": "Glovis America Port Vehicle Processing - Newark/Elizabeth NJ",
        "type": "Port / Vehicle Import Processing Center",
        "archetype": "#6",
        "archetypeName": "Gate + GS (not BU sens.) + campus",
        "confidence": "medium",
        "zone": "perimeter",
        "truckGate": true,
        "guardShack": true,
        "remoteGs": false,
        "fastLaneOpportunity": false,
        "backupSensitive": true,
        "dropYard": true,
        "multipleFacilities": true,
        "scale": false,
        "shipRcvSeparate": false,
        "urbanRural": "Urban",
        "dockDoors": "NONE",
        "dropArea": "50+",
        "yardMetrics": {
          "dockDoorCount": 0,
          "trailersVisible": 8,
          "trailerParkingCapacity": 35,
          "truckGateCount": 1,
          "buildingCount": 7,
          "siteAreaAcres": 270,
          "railServed": true
        }
      }
    },
    {
      "type": "Feature",
      "geometry": {
        "type": "Polygon",
        "coordinates": [
          [
            [
              -74.136336,
              40.692358
            ],
            [
              -74.133866,
              40.691479
            ],
            [
              -74.132214,
              40.694184
            ],
            [
              -74.134684,
              40.695063
            ],
            [
              -74.136336,
              40.692358
            ]
          ]
        ]
      },
      "properties": {
        "account": "hyundai-motor-america",
        "name": "Glovis America Port Vehicle Processing - Newark/Elizabeth NJ",
        "type": "Port / Vehicle Import Processing Center",
        "archetype": "#6",
        "archetypeName": "Gate + GS (not BU sens.) + campus",
        "confidence": "medium",
        "zone": "dropYard",
        "index": 1
      }
    },
    {
      "type": "Feature",
      "geometry": {
        "type": "Polygon",
        "coordinates": [
          [
            [
              -122.37824,
              47.26596
            ],
            [
              -122.376317,
              47.256081
            ],
            [
              -122.366704,
              47.257572
            ],
            [
              -122.368627,
              47.267264
            ],
            [
              -122.37824,
              47.26596
            ]
          ]
        ]
      },
      "properties": {
        "account": "hyundai-motor-america",
        "name": "Glovis America Vehicle Processing Center - Tacoma WA (Hyundai)",
        "type": "Port / Vehicle Import Processing Center",
        "archetype": "#7",
        "archetypeName": "Gate + GS (not BU sens.) + fast lane opp",
        "confidence": "medium",
        "zone": "perimeter",
        "truckGate": true,
        "guardShack": true,
        "remoteGs": false,
        "fastLaneOpportunity": true,
        "backupSensitive": false,
        "dropYard": true,
        "multipleFacilities": false,
        "scale": false,
        "shipRcvSeparate": false,
        "urbanRural": "Urban",
        "dockDoors": "NONE",
        "dropArea": "50+",
        "yardMetrics": {
          "dockDoorCount": 0,
          "trailersVisible": 30,
          "trailerParkingCapacity": 8000,
          "truckGateCount": 1,
          "buildingCount": 4,
          "siteAreaAcres": 110,
          "railServed": true
        }
      }
    },
    {
      "type": "Feature",
      "geometry": {
        "type": "Polygon",
        "coordinates": [
          [
            [
              -122.377141,
              47.264096
            ],
            [
              -122.375493,
              47.257572
            ],
            [
              -122.368627,
              47.259063
            ],
            [
              -122.37,
              47.265401
            ],
            [
              -122.377141,
              47.264096
            ]
          ]
        ]
      },
      "properties": {
        "account": "hyundai-motor-america",
        "name": "Glovis America Vehicle Processing Center - Tacoma WA (Hyundai)",
        "type": "Port / Vehicle Import Processing Center",
        "archetype": "#7",
        "archetypeName": "Gate + GS (not BU sens.) + fast lane opp",
        "confidence": "medium",
        "zone": "dropYard",
        "index": 1
      }
    },
    {
      "type": "Feature",
      "geometry": {
        "type": "Polygon",
        "coordinates": [
          [
            [
              -81.629395,
              30.349792
            ],
            [
              -81.62912,
              30.34363
            ],
            [
              -81.621979,
              30.344222
            ],
            [
              -81.621979,
              30.35074
            ],
            [
              -81.629395,
              30.349792
            ]
          ]
        ]
      },
      "properties": {
        "account": "hyundai-motor-america",
        "name": "Glovis America Port Vehicle Processing - Jacksonville FL",
        "type": "Port / Vehicle Import Processing Center",
        "archetype": "#7",
        "archetypeName": "Gate + GS (not BU sens.) + fast lane opp",
        "confidence": "medium",
        "zone": "perimeter",
        "truckGate": true,
        "guardShack": true,
        "remoteGs": false,
        "fastLaneOpportunity": true,
        "backupSensitive": false,
        "dropYard": true,
        "multipleFacilities": false,
        "scale": false,
        "shipRcvSeparate": false,
        "urbanRural": "Urban",
        "dockDoors": "10-25",
        "dropArea": "50+",
        "yardMetrics": {
          "dockDoorCount": 16,
          "trailersVisible": 25,
          "trailerParkingCapacity": 6000,
          "truckGateCount": 1,
          "buildingCount": 6,
          "siteAreaAcres": 70,
          "railServed": false
        }
      }
    },
    {
      "type": "Feature",
      "geometry": {
        "type": "Polygon",
        "coordinates": [
          [
            [
              -81.628845,
              30.348607
            ],
            [
              -81.628571,
              30.346119
            ],
            [
              -81.625412,
              30.346593
            ],
            [
              -81.625687,
              30.349081
            ],
            [
              -81.628845,
              30.348607
            ]
          ]
        ]
      },
      "properties": {
        "account": "hyundai-motor-america",
        "name": "Glovis America Port Vehicle Processing - Jacksonville FL",
        "type": "Port / Vehicle Import Processing Center",
        "archetype": "#7",
        "archetypeName": "Gate + GS (not BU sens.) + fast lane opp",
        "confidence": "medium",
        "zone": "dropYard",
        "index": 1
      }
    },
    {
      "type": "Feature",
      "geometry": {
        "type": "Polygon",
        "coordinates": [
          [
            [
              -81.263308,
              32.088687
            ],
            [
              -81.263308,
              32.087989
            ],
            [
              -81.262484,
              32.087989
            ],
            [
              -81.262484,
              32.088687
            ],
            [
              -81.263308,
              32.088687
            ]
          ]
        ]
      },
      "properties": {
        "account": "hyundai-motor-america",
        "name": "Glovis EV Logistics America - Savannah Integrated Warehouse (Pooler GA)",
        "type": "Distribution Warehouse / Logistics Hub",
        "archetype": "#3",
        "archetypeName": "No Gate / No GS",
        "confidence": "low",
        "zone": "perimeter",
        "truckGate": false,
        "guardShack": false,
        "remoteGs": false,
        "fastLaneOpportunity": false,
        "backupSensitive": false,
        "dropYard": false,
        "multipleFacilities": false,
        "scale": false,
        "shipRcvSeparate": false,
        "urbanRural": "Rural",
        "dockDoors": "NONE",
        "dropArea": "NONE",
        "yardMetrics": {
          "dockDoorCount": 0,
          "trailersVisible": 0,
          "trailerParkingCapacity": 0,
          "truckGateCount": 1,
          "buildingCount": 1,
          "siteAreaAcres": 0,
          "railServed": false
        }
      }
    }
  ]
}
