{
  "type": "FeatureCollection",
  "features": [
    {
      "type": "Feature",
      "geometry": {
        "type": "Polygon",
        "coordinates": [
          [
            [
              -92.420791,
              35.073842
            ],
            [
              -92.420379,
              35.070526
            ],
            [
              -92.416809,
              35.071145
            ],
            [
              -92.417358,
              35.074348
            ],
            [
              -92.420791,
              35.073842
            ]
          ]
        ]
      },
      "properties": {
        "account": "westrock-coffee",
        "name": "Westrock Coffee - Conway AR Roast-to-RTD Plant",
        "type": "Manufacturing Plant (roast-to-ready-to-drink)",
        "archetype": "#9",
        "archetypeName": "Gate + No GS (remote check-in)",
        "confidence": "medium",
        "zone": "perimeter",
        "truckGate": true,
        "guardShack": false,
        "remoteGs": true,
        "fastLaneOpportunity": true,
        "backupSensitive": false,
        "dropYard": true,
        "multipleFacilities": true,
        "scale": false,
        "shipRcvSeparate": false,
        "urbanRural": "Urban",
        "dockDoors": "25-50",
        "dropArea": "50+",
        "yardMetrics": {
          "dockDoorCount": 40,
          "trailersVisible": 85,
          "trailerParkingCapacity": 110,
          "truckGateCount": 2,
          "buildingCount": 4,
          "siteAreaAcres": 47,
          "railServed": true
        }
      }
    },
    {
      "type": "Feature",
      "geometry": {
        "type": "Polygon",
        "coordinates": [
          [
            [
              -92.420929,
              35.071875
            ],
            [
              -92.420791,
              35.071369
            ],
            [
              -92.420311,
              35.071482
            ],
            [
              -92.420448,
              35.071988
            ],
            [
              -92.420929,
              35.071875
            ]
          ]
        ]
      },
      "properties": {
        "account": "westrock-coffee",
        "name": "Westrock Coffee - Conway AR Roast-to-RTD Plant",
        "type": "Manufacturing Plant (roast-to-ready-to-drink)",
        "archetype": "#9",
        "archetypeName": "Gate + No GS (remote check-in)",
        "confidence": "medium",
        "zone": "truckGate"
      }
    },
    {
      "type": "Feature",
      "geometry": {
        "type": "Polygon",
        "coordinates": [
          [
            [
              -92.419418,
              35.074011
            ],
            [
              -92.419281,
              35.073449
            ],
            [
              -92.417152,
              35.073674
            ],
            [
              -92.417289,
              35.074235
            ],
            [
              -92.419418,
              35.074011
            ]
          ]
        ]
      },
      "properties": {
        "account": "westrock-coffee",
        "name": "Westrock Coffee - Conway AR Roast-to-RTD Plant",
        "type": "Manufacturing Plant (roast-to-ready-to-drink)",
        "archetype": "#9",
        "archetypeName": "Gate + No GS (remote check-in)",
        "confidence": "medium",
        "zone": "dropYard",
        "index": 1
      }
    },
    {
      "type": "Feature",
      "geometry": {
        "type": "Polygon",
        "coordinates": [
          [
            [
              -92.419761,
              35.07373
            ],
            [
              -92.419665,
              35.073224
            ],
            [
              -92.417262,
              35.073505
            ],
            [
              -92.417358,
              35.074011
            ],
            [
              -92.419761,
              35.07373
            ]
          ]
        ]
      },
      "properties": {
        "account": "westrock-coffee",
        "name": "Westrock Coffee - Conway AR Roast-to-RTD Plant",
        "type": "Manufacturing Plant (roast-to-ready-to-drink)",
        "archetype": "#9",
        "archetypeName": "Gate + No GS (remote check-in)",
        "confidence": "medium",
        "zone": "dockApron",
        "index": 1
      }
    },
    {
      "type": "Feature",
      "geometry": {
        "type": "Polygon",
        "coordinates": [
          [
            [
              -92.420448,
              35.072999
            ],
            [
              -92.420311,
              35.072235
            ],
            [
              -92.419624,
              35.072325
            ],
            [
              -92.419761,
              35.073089
            ],
            [
              -92.420448,
              35.072999
            ]
          ]
        ]
      },
      "properties": {
        "account": "westrock-coffee",
        "name": "Westrock Coffee - Conway AR Roast-to-RTD Plant",
        "type": "Manufacturing Plant (roast-to-ready-to-drink)",
        "archetype": "#9",
        "archetypeName": "Gate + No GS (remote check-in)",
        "confidence": "medium",
        "zone": "staging"
      }
    },
    {
      "type": "Feature",
      "geometry": {
        "type": "Polygon",
        "coordinates": [
          [
            [
              -92.408073,
              35.06188
            ],
            [
              -92.407867,
              35.060644
            ],
            [
              -92.404915,
              35.060756
            ],
            [
              -92.405052,
              35.061965
            ],
            [
              -92.408073,
              35.06188
            ]
          ]
        ]
      },
      "properties": {
        "account": "westrock-coffee",
        "name": "Westrock Coffee - Conway AR Distribution Center",
        "type": "Distribution Center",
        "archetype": "#9",
        "archetypeName": "Gate + No GS (remote check-in)",
        "confidence": "high",
        "zone": "perimeter",
        "truckGate": true,
        "guardShack": false,
        "remoteGs": true,
        "fastLaneOpportunity": true,
        "backupSensitive": false,
        "dropYard": true,
        "multipleFacilities": false,
        "scale": false,
        "shipRcvSeparate": false,
        "urbanRural": "Urban",
        "dockDoors": "50+",
        "dropArea": "25-50",
        "yardMetrics": {
          "dockDoorCount": 72,
          "trailersVisible": 55,
          "trailerParkingCapacity": 90,
          "truckGateCount": 1,
          "buildingCount": 1,
          "siteAreaAcres": 30,
          "railServed": false
        }
      }
    },
    {
      "type": "Feature",
      "geometry": {
        "type": "Polygon",
        "coordinates": [
          [
            [
              -92.408073,
              35.061796
            ],
            [
              -92.408039,
              35.061543
            ],
            [
              -92.40773,
              35.061571
            ],
            [
              -92.407764,
              35.061824
            ],
            [
              -92.408073,
              35.061796
            ]
          ]
        ]
      },
      "properties": {
        "account": "westrock-coffee",
        "name": "Westrock Coffee - Conway AR Distribution Center",
        "type": "Distribution Center",
        "archetype": "#9",
        "archetypeName": "Gate + No GS (remote check-in)",
        "confidence": "high",
        "zone": "truckGate"
      }
    },
    {
      "type": "Feature",
      "geometry": {
        "type": "Polygon",
        "coordinates": [
          [
            [
              -92.407867,
              35.060953
            ],
            [
              -92.407812,
              35.060616
            ],
            [
              -92.405546,
              35.060756
            ],
            [
              -92.405601,
              35.061093
            ],
            [
              -92.407867,
              35.060953
            ]
          ]
        ]
      },
      "properties": {
        "account": "westrock-coffee",
        "name": "Westrock Coffee - Conway AR Distribution Center",
        "type": "Distribution Center",
        "archetype": "#9",
        "archetypeName": "Gate + No GS (remote check-in)",
        "confidence": "high",
        "zone": "dockApron",
        "index": 1
      }
    },
    {
      "type": "Feature",
      "geometry": {
        "type": "Polygon",
        "coordinates": [
          [
            [
              -92.407764,
              35.059182
            ],
            [
              -92.40773,
              35.058873
            ],
            [
              -92.405292,
              35.05893
            ],
            [
              -92.405327,
              35.059239
            ],
            [
              -92.407764,
              35.059182
            ]
          ]
        ]
      },
      "properties": {
        "account": "westrock-coffee",
        "name": "Westrock Coffee - Conway AR Distribution Center",
        "type": "Distribution Center",
        "archetype": "#9",
        "archetypeName": "Gate + No GS (remote check-in)",
        "confidence": "high",
        "zone": "staging"
      }
    },
    {
      "type": "Feature",
      "geometry": {
        "type": "Polygon",
        "coordinates": [
          [
            [
              -92.407918,
              35.05835
            ],
            [
              -92.40785,
              35.056607
            ],
            [
              -92.403421,
              35.056523
            ],
            [
              -92.403421,
              35.058293
            ],
            [
              -92.407918,
              35.05835
            ]
          ]
        ]
      },
      "properties": {
        "account": "westrock-coffee",
        "name": "Westrock Coffee - Conway AR Single-Serve \"Clark\" Plant",
        "type": "Manufacturing Plant (single-serve / K-cup pods)",
        "archetype": "#9",
        "archetypeName": "Gate + No GS (remote check-in)",
        "confidence": "medium",
        "zone": "perimeter",
        "truckGate": true,
        "guardShack": false,
        "remoteGs": true,
        "fastLaneOpportunity": true,
        "backupSensitive": false,
        "dropYard": true,
        "multipleFacilities": false,
        "scale": false,
        "shipRcvSeparate": true,
        "urbanRural": "Urban",
        "dockDoors": "50+",
        "dropArea": "50+",
        "yardMetrics": {
          "dockDoorCount": 60,
          "trailersVisible": 70,
          "trailerParkingCapacity": 95,
          "truckGateCount": 1,
          "buildingCount": 1,
          "siteAreaAcres": 28,
          "railServed": false
        }
      }
    },
    {
      "type": "Feature",
      "geometry": {
        "type": "Polygon",
        "coordinates": [
          [
            [
              -92.408021,
              35.058181
            ],
            [
              -92.407987,
              35.0579
            ],
            [
              -92.407747,
              35.057928
            ],
            [
              -92.407781,
              35.058209
            ],
            [
              -92.408021,
              35.058181
            ]
          ]
        ]
      },
      "properties": {
        "account": "westrock-coffee",
        "name": "Westrock Coffee - Conway AR Single-Serve \"Clark\" Plant",
        "type": "Manufacturing Plant (single-serve / K-cup pods)",
        "archetype": "#9",
        "archetypeName": "Gate + No GS (remote check-in)",
        "confidence": "medium",
        "zone": "truckGate"
      }
    },
    {
      "type": "Feature",
      "geometry": {
        "type": "Polygon",
        "coordinates": [
          [
            [
              -92.407678,
              35.058181
            ],
            [
              -92.407678,
              35.058012
            ],
            [
              -92.403489,
              35.057956
            ],
            [
              -92.403489,
              35.058125
            ],
            [
              -92.407678,
              35.058181
            ]
          ]
        ]
      },
      "properties": {
        "account": "westrock-coffee",
        "name": "Westrock Coffee - Conway AR Single-Serve \"Clark\" Plant",
        "type": "Manufacturing Plant (single-serve / K-cup pods)",
        "archetype": "#9",
        "archetypeName": "Gate + No GS (remote check-in)",
        "confidence": "medium",
        "zone": "dropYard",
        "index": 1
      }
    },
    {
      "type": "Feature",
      "geometry": {
        "type": "Polygon",
        "coordinates": [
          [
            [
              -92.407678,
              35.056832
            ],
            [
              -92.407678,
              35.056663
            ],
            [
              -92.403489,
              35.056607
            ],
            [
              -92.403489,
              35.056776
            ],
            [
              -92.407678,
              35.056832
            ]
          ]
        ]
      },
      "properties": {
        "account": "westrock-coffee",
        "name": "Westrock Coffee - Conway AR Single-Serve \"Clark\" Plant",
        "type": "Manufacturing Plant (single-serve / K-cup pods)",
        "archetype": "#9",
        "archetypeName": "Gate + No GS (remote check-in)",
        "confidence": "medium",
        "zone": "dropYard",
        "index": 2
      }
    },
    {
      "type": "Feature",
      "geometry": {
        "type": "Polygon",
        "coordinates": [
          [
            [
              -92.407644,
              35.057956
            ],
            [
              -92.407644,
              35.057816
            ],
            [
              -92.403524,
              35.057759
            ],
            [
              -92.403524,
              35.0579
            ],
            [
              -92.407644,
              35.057956
            ]
          ]
        ]
      },
      "properties": {
        "account": "westrock-coffee",
        "name": "Westrock Coffee - Conway AR Single-Serve \"Clark\" Plant",
        "type": "Manufacturing Plant (single-serve / K-cup pods)",
        "archetype": "#9",
        "archetypeName": "Gate + No GS (remote check-in)",
        "confidence": "medium",
        "zone": "dockApron",
        "index": 1
      }
    },
    {
      "type": "Feature",
      "geometry": {
        "type": "Polygon",
        "coordinates": [
          [
            [
              -92.407644,
              35.057001
            ],
            [
              -92.407644,
              35.05686
            ],
            [
              -92.403524,
              35.056804
            ],
            [
              -92.403524,
              35.056944
            ],
            [
              -92.407644,
              35.057001
            ]
          ]
        ]
      },
      "properties": {
        "account": "westrock-coffee",
        "name": "Westrock Coffee - Conway AR Single-Serve \"Clark\" Plant",
        "type": "Manufacturing Plant (single-serve / K-cup pods)",
        "archetype": "#9",
        "archetypeName": "Gate + No GS (remote check-in)",
        "confidence": "medium",
        "zone": "dockApron",
        "index": 2
      }
    },
    {
      "type": "Feature",
      "geometry": {
        "type": "Polygon",
        "coordinates": [
          [
            [
              -92.389715,
              34.831217
            ],
            [
              -92.38968,
              34.830316
            ],
            [
              -92.388616,
              34.830316
            ],
            [
              -92.38865,
              34.831217
            ],
            [
              -92.389715,
              34.831217
            ]
          ]
        ]
      },
      "properties": {
        "account": "westrock-coffee",
        "name": "Westrock Coffee - North Little Rock AR Roasting & Manufacturing",
        "type": "Roasting Plant / Private-Label Manufacturing",
        "archetype": "#3",
        "archetypeName": "No Gate / No GS",
        "confidence": "medium",
        "zone": "perimeter",
        "truckGate": false,
        "guardShack": false,
        "remoteGs": false,
        "fastLaneOpportunity": false,
        "backupSensitive": false,
        "dropYard": false,
        "multipleFacilities": false,
        "scale": false,
        "shipRcvSeparate": false,
        "urbanRural": "Rural",
        "dockDoors": "0-10",
        "dropArea": "0-10",
        "yardMetrics": {
          "dockDoorCount": 8,
          "trailersVisible": 4,
          "trailerParkingCapacity": 6,
          "truckGateCount": 0,
          "buildingCount": 1,
          "siteAreaAcres": 4.5,
          "railServed": false
        }
      }
    },
    {
      "type": "Feature",
      "geometry": {
        "type": "Polygon",
        "coordinates": [
          [
            [
              -92.389715,
              34.830738
            ],
            [
              -92.389694,
              34.830513
            ],
            [
              -92.389488,
              34.830513
            ],
            [
              -92.389509,
              34.830738
            ],
            [
              -92.389715,
              34.830738
            ]
          ]
        ]
      },
      "properties": {
        "account": "westrock-coffee",
        "name": "Westrock Coffee - North Little Rock AR Roasting & Manufacturing",
        "type": "Roasting Plant / Private-Label Manufacturing",
        "archetype": "#3",
        "archetypeName": "No Gate / No GS",
        "confidence": "medium",
        "zone": "truckGate"
      }
    },
    {
      "type": "Feature",
      "geometry": {
        "type": "Polygon",
        "coordinates": [
          [
            [
              -92.389646,
              34.831076
            ],
            [
              -92.389625,
              34.830851
            ],
            [
              -92.388664,
              34.830851
            ],
            [
              -92.388685,
              34.831076
            ],
            [
              -92.389646,
              34.831076
            ]
          ]
        ]
      },
      "properties": {
        "account": "westrock-coffee",
        "name": "Westrock Coffee - North Little Rock AR Roasting & Manufacturing",
        "type": "Roasting Plant / Private-Label Manufacturing",
        "archetype": "#3",
        "archetypeName": "No Gate / No GS",
        "confidence": "medium",
        "zone": "dockApron",
        "index": 1
      }
    },
    {
      "type": "Feature",
      "geometry": {
        "type": "Polygon",
        "coordinates": [
          [
            [
              -92.389646,
              34.830597
            ],
            [
              -92.389625,
              34.830344
            ],
            [
              -92.389042,
              34.830344
            ],
            [
              -92.389062,
              34.830597
            ],
            [
              -92.389646,
              34.830597
            ]
          ]
        ]
      },
      "properties": {
        "account": "westrock-coffee",
        "name": "Westrock Coffee - North Little Rock AR Roasting & Manufacturing",
        "type": "Roasting Plant / Private-Label Manufacturing",
        "archetype": "#3",
        "archetypeName": "No Gate / No GS",
        "confidence": "medium",
        "zone": "staging"
      }
    },
    {
      "type": "Feature",
      "geometry": {
        "type": "Polygon",
        "coordinates": [
          [
            [
              -80.615891,
              35.397558
            ],
            [
              -80.615719,
              35.395655
            ],
            [
              -80.613899,
              35.395795
            ],
            [
              -80.614071,
              35.39767
            ],
            [
              -80.615891,
              35.397558
            ]
          ]
        ]
      },
      "properties": {
        "account": "westrock-coffee",
        "name": "Westrock Coffee - Concord NC Roasting & Extract Campus (S&D legacy)",
        "type": "Roasting Plant / Extract Manufacturing",
        "archetype": "#3",
        "archetypeName": "No Gate / No GS",
        "confidence": "medium",
        "zone": "perimeter",
        "truckGate": false,
        "guardShack": false,
        "remoteGs": false,
        "fastLaneOpportunity": true,
        "backupSensitive": false,
        "dropYard": true,
        "multipleFacilities": true,
        "scale": false,
        "shipRcvSeparate": false,
        "urbanRural": "Urban",
        "dockDoors": "10-25",
        "dropArea": "10-25",
        "yardMetrics": {
          "dockDoorCount": 22,
          "trailersVisible": 24,
          "trailerParkingCapacity": 30,
          "truckGateCount": 1,
          "buildingCount": 4,
          "siteAreaAcres": 23,
          "railServed": false
        }
      }
    },
    {
      "type": "Feature",
      "geometry": {
        "type": "Polygon",
        "coordinates": [
          [
            [
              -80.615959,
              35.395935
            ],
            [
              -80.615911,
              35.395683
            ],
            [
              -80.615637,
              35.395711
            ],
            [
              -80.615685,
              35.395963
            ],
            [
              -80.615959,
              35.395935
            ]
          ]
        ]
      },
      "properties": {
        "account": "westrock-coffee",
        "name": "Westrock Coffee - Concord NC Roasting & Extract Campus (S&D legacy)",
        "type": "Roasting Plant / Extract Manufacturing",
        "archetype": "#3",
        "archetypeName": "No Gate / No GS",
        "confidence": "medium",
        "zone": "truckGate"
      }
    },
    {
      "type": "Feature",
      "geometry": {
        "type": "Polygon",
        "coordinates": [
          [
            [
              -80.615444,
              35.397558
            ],
            [
              -80.61541,
              35.397306
            ],
            [
              -80.614105,
              35.39739
            ],
            [
              -80.61414,
              35.397642
            ],
            [
              -80.615444,
              35.397558
            ]
          ]
        ]
      },
      "properties": {
        "account": "westrock-coffee",
        "name": "Westrock Coffee - Concord NC Roasting & Extract Campus (S&D legacy)",
        "type": "Roasting Plant / Extract Manufacturing",
        "archetype": "#3",
        "archetypeName": "No Gate / No GS",
        "confidence": "medium",
        "zone": "dropYard",
        "index": 1
      }
    },
    {
      "type": "Feature",
      "geometry": {
        "type": "Polygon",
        "coordinates": [
          [
            [
              -80.615616,
              35.39739
            ],
            [
              -80.615582,
              35.39715
            ],
            [
              -80.61414,
              35.397251
            ],
            [
              -80.614174,
              35.397491
            ],
            [
              -80.615616,
              35.39739
            ]
          ]
        ]
      },
      "properties": {
        "account": "westrock-coffee",
        "name": "Westrock Coffee - Concord NC Roasting & Extract Campus (S&D legacy)",
        "type": "Roasting Plant / Extract Manufacturing",
        "archetype": "#3",
        "archetypeName": "No Gate / No GS",
        "confidence": "medium",
        "zone": "dockApron",
        "index": 1
      }
    },
    {
      "type": "Feature",
      "geometry": {
        "type": "Polygon",
        "coordinates": [
          [
            [
              -80.616612,
              35.397334
            ],
            [
              -80.616577,
              35.397094
            ],
            [
              -80.615891,
              35.397139
            ],
            [
              -80.615925,
              35.397379
            ],
            [
              -80.616612,
              35.397334
            ]
          ]
        ]
      },
      "properties": {
        "account": "westrock-coffee",
        "name": "Westrock Coffee - Concord NC Roasting & Extract Campus (S&D legacy)",
        "type": "Roasting Plant / Extract Manufacturing",
        "archetype": "#3",
        "archetypeName": "No Gate / No GS",
        "confidence": "medium",
        "zone": "staging"
      }
    },
    {
      "type": "Feature",
      "geometry": {
        "type": "Polygon",
        "coordinates": [
          [
            [
              -80.616409,
              35.393685
            ],
            [
              -80.617233,
              35.393293
            ],
            [
              -80.61737,
              35.392733
            ],
            [
              -80.616821,
              35.391949
            ],
            [
              -80.616409,
              35.392285
            ],
            [
              -80.61586,
              35.392957
            ],
            [
              -80.616409,
              35.393685
            ]
          ]
        ]
      },
      "properties": {
        "account": "westrock-coffee",
        "name": "Westrock Coffee - Concord NC Commercial Park Extract & Tea Facility",
        "type": "Extract & Tea Manufacturing",
        "archetype": "#3",
        "archetypeName": "No Gate / No GS",
        "confidence": "medium",
        "zone": "perimeter",
        "truckGate": false,
        "guardShack": false,
        "remoteGs": false,
        "fastLaneOpportunity": false,
        "backupSensitive": false,
        "dropYard": false,
        "multipleFacilities": false,
        "scale": false,
        "shipRcvSeparate": false,
        "urbanRural": "Urban",
        "dockDoors": "0-10",
        "dropArea": "0-10",
        "yardMetrics": {
          "dockDoorCount": 9,
          "trailersVisible": 6,
          "trailerParkingCapacity": 8,
          "truckGateCount": 0,
          "buildingCount": 1,
          "siteAreaAcres": 6,
          "railServed": false
        }
      }
    },
    {
      "type": "Feature",
      "geometry": {
        "type": "Polygon",
        "coordinates": [
          [
            [
              -80.617679,
              35.393377
            ],
            [
              -80.617597,
              35.393125
            ],
            [
              -80.617322,
              35.393181
            ],
            [
              -80.617405,
              35.393433
            ],
            [
              -80.617679,
              35.393377
            ]
          ]
        ]
      },
      "properties": {
        "account": "westrock-coffee",
        "name": "Westrock Coffee - Concord NC Commercial Park Extract & Tea Facility",
        "type": "Extract & Tea Manufacturing",
        "archetype": "#3",
        "archetypeName": "No Gate / No GS",
        "confidence": "medium",
        "zone": "truckGate"
      }
    },
    {
      "type": "Feature",
      "geometry": {
        "type": "Polygon",
        "coordinates": [
          [
            [
              -80.617473,
              35.392481
            ],
            [
              -80.617391,
              35.392224
            ],
            [
              -80.616636,
              35.39238
            ],
            [
              -80.616718,
              35.392638
            ],
            [
              -80.617473,
              35.392481
            ]
          ]
        ]
      },
      "properties": {
        "account": "westrock-coffee",
        "name": "Westrock Coffee - Concord NC Commercial Park Extract & Tea Facility",
        "type": "Extract & Tea Manufacturing",
        "archetype": "#3",
        "archetypeName": "No Gate / No GS",
        "confidence": "medium",
        "zone": "dropYard",
        "index": 1
      }
    },
    {
      "type": "Feature",
      "geometry": {
        "type": "Polygon",
        "coordinates": [
          [
            [
              -80.61737,
              35.392677
            ],
            [
              -80.617288,
              35.392425
            ],
            [
              -80.616636,
              35.392565
            ],
            [
              -80.616718,
              35.392817
            ],
            [
              -80.61737,
              35.392677
            ]
          ]
        ]
      },
      "properties": {
        "account": "westrock-coffee",
        "name": "Westrock Coffee - Concord NC Commercial Park Extract & Tea Facility",
        "type": "Extract & Tea Manufacturing",
        "archetype": "#3",
        "archetypeName": "No Gate / No GS",
        "confidence": "medium",
        "zone": "dockApron",
        "index": 1
      }
    }
  ]
}
