{
  "type": "FeatureCollection",
  "features": [
    {
      "type": "Feature",
      "geometry": {
        "type": "Polygon",
        "coordinates": [
          [
            [
              -83.912473,
              39.679786
            ],
            [
              -83.911718,
              39.679522
            ],
            [
              -83.909795,
              39.679469
            ],
            [
              -83.909658,
              39.68005
            ],
            [
              -83.911169,
              39.680896
            ],
            [
              -83.912473,
              39.679786
            ]
          ]
        ]
      },
      "properties": {
        "account": "bob-evans-farms",
        "name": "Bob Evans Farms - Xenia OH Plant",
        "type": "Manufacturing plant (fresh pork sausage rolls & links)",
        "archetype": "#3",
        "archetypeName": "No Gate / No GS",
        "confidence": "high",
        "zone": "perimeter",
        "truckGate": false,
        "guardShack": false,
        "remoteGs": false,
        "fastLaneOpportunity": false,
        "backupSensitive": false,
        "dropYard": false,
        "multipleFacilities": false,
        "scale": false,
        "shipRcvSeparate": false,
        "urbanRural": "Rural",
        "dockDoors": "0-10",
        "dropArea": "NONE",
        "yardMetrics": {
          "dockDoorCount": 6,
          "trailersVisible": 1,
          "trailerParkingCapacity": 8,
          "truckGateCount": 2,
          "buildingCount": 4,
          "siteAreaAcres": 10.1,
          "railServed": false
        }
      }
    },
    {
      "type": "Feature",
      "geometry": {
        "type": "Polygon",
        "coordinates": [
          [
            [
              -83.912542,
              39.679733
            ],
            [
              -83.912473,
              39.679522
            ],
            [
              -83.912199,
              39.679574
            ],
            [
              -83.912267,
              39.679786
            ],
            [
              -83.912542,
              39.679733
            ]
          ]
        ]
      },
      "properties": {
        "account": "bob-evans-farms",
        "name": "Bob Evans Farms - Xenia OH Plant",
        "type": "Manufacturing plant (fresh pork sausage rolls & links)",
        "archetype": "#3",
        "archetypeName": "No Gate / No GS",
        "confidence": "high",
        "zone": "truckGate"
      }
    },
    {
      "type": "Feature",
      "geometry": {
        "type": "Polygon",
        "coordinates": [
          [
            [
              -83.912817,
              39.68042
            ],
            [
              -83.912748,
              39.68005
            ],
            [
              -83.911581,
              39.680209
            ],
            [
              -83.911649,
              39.680578
            ],
            [
              -83.912817,
              39.68042
            ]
          ]
        ]
      },
      "properties": {
        "account": "bob-evans-farms",
        "name": "Bob Evans Farms - Xenia OH Plant",
        "type": "Manufacturing plant (fresh pork sausage rolls & links)",
        "archetype": "#3",
        "archetypeName": "No Gate / No GS",
        "confidence": "high",
        "zone": "dropYard",
        "index": 1
      }
    },
    {
      "type": "Feature",
      "geometry": {
        "type": "Polygon",
        "coordinates": [
          [
            [
              -83.911581,
              39.680156
            ],
            [
              -83.911649,
              39.679891
            ],
            [
              -83.91007,
              39.679786
            ],
            [
              -83.910001,
              39.68005
            ],
            [
              -83.911581,
              39.680156
            ]
          ]
        ]
      },
      "properties": {
        "account": "bob-evans-farms",
        "name": "Bob Evans Farms - Xenia OH Plant",
        "type": "Manufacturing plant (fresh pork sausage rolls & links)",
        "archetype": "#3",
        "archetypeName": "No Gate / No GS",
        "confidence": "high",
        "zone": "dockApron",
        "index": 1
      }
    },
    {
      "type": "Feature",
      "geometry": {
        "type": "Polygon",
        "coordinates": [
          [
            [
              -83.912817,
              39.68042
            ],
            [
              -83.912748,
              39.679944
            ],
            [
              -83.911581,
              39.68005
            ],
            [
              -83.911649,
              39.680578
            ],
            [
              -83.912817,
              39.68042
            ]
          ]
        ]
      },
      "properties": {
        "account": "bob-evans-farms",
        "name": "Bob Evans Farms - Xenia OH Plant",
        "type": "Manufacturing plant (fresh pork sausage rolls & links)",
        "archetype": "#3",
        "archetypeName": "No Gate / No GS",
        "confidence": "high",
        "zone": "staging"
      }
    },
    {
      "type": "Feature",
      "geometry": {
        "type": "Polygon",
        "coordinates": [
          [
            [
              -84.096879,
              40.697893
            ],
            [
              -84.097017,
              40.69706
            ],
            [
              -84.096742,
              40.695186
            ],
            [
              -84.095094,
              40.695082
            ],
            [
              -84.094407,
              40.695915
            ],
            [
              -84.094545,
              40.697997
            ],
            [
              -84.096879,
              40.697893
            ]
          ]
        ]
      },
      "properties": {
        "account": "bob-evans-farms",
        "name": "Bob Evans Farms - Lima OH Plant",
        "type": "Manufacturing plant (refrigerated sides - mashed potatoes & macaroni & cheese; former Kettle Creations facility)",
        "archetype": "#9",
        "archetypeName": "Gate + No GS (remote check-in)",
        "confidence": "high",
        "zone": "perimeter",
        "truckGate": true,
        "guardShack": false,
        "remoteGs": true,
        "fastLaneOpportunity": false,
        "backupSensitive": false,
        "dropYard": true,
        "multipleFacilities": false,
        "scale": false,
        "shipRcvSeparate": false,
        "urbanRural": "Rural",
        "dockDoors": "25-50",
        "dropArea": "50+",
        "yardMetrics": {
          "dockDoorCount": 28,
          "trailersVisible": 55,
          "trailerParkingCapacity": 70,
          "truckGateCount": 1,
          "buildingCount": 1,
          "siteAreaAcres": 23.5,
          "railServed": false
        }
      }
    },
    {
      "type": "Feature",
      "geometry": {
        "type": "Polygon",
        "coordinates": [
          [
            [
              -84.096673,
              40.697841
            ],
            [
              -84.096536,
              40.697529
            ],
            [
              -84.095849,
              40.697633
            ],
            [
              -84.095987,
              40.697945
            ],
            [
              -84.096673,
              40.697841
            ]
          ]
        ]
      },
      "properties": {
        "account": "bob-evans-farms",
        "name": "Bob Evans Farms - Lima OH Plant",
        "type": "Manufacturing plant (refrigerated sides - mashed potatoes & macaroni & cheese; former Kettle Creations facility)",
        "archetype": "#9",
        "archetypeName": "Gate + No GS (remote check-in)",
        "confidence": "high",
        "zone": "truckGate"
      }
    },
    {
      "type": "Feature",
      "geometry": {
        "type": "Polygon",
        "coordinates": [
          [
            [
              -84.096673,
              40.695967
            ],
            [
              -84.096536,
              40.695238
            ],
            [
              -84.095163,
              40.695342
            ],
            [
              -84.0953,
              40.696071
            ],
            [
              -84.096673,
              40.695967
            ]
          ]
        ]
      },
      "properties": {
        "account": "bob-evans-farms",
        "name": "Bob Evans Farms - Lima OH Plant",
        "type": "Manufacturing plant (refrigerated sides - mashed potatoes & macaroni & cheese; former Kettle Creations facility)",
        "archetype": "#9",
        "archetypeName": "Gate + No GS (remote check-in)",
        "confidence": "high",
        "zone": "dropYard",
        "index": 1
      }
    },
    {
      "type": "Feature",
      "geometry": {
        "type": "Polygon",
        "coordinates": [
          [
            [
              -84.096673,
              40.6968
            ],
            [
              -84.096536,
              40.696175
            ],
            [
              -84.095025,
              40.696279
            ],
            [
              -84.095163,
              40.696904
            ],
            [
              -84.096673,
              40.6968
            ]
          ]
        ]
      },
      "properties": {
        "account": "bob-evans-farms",
        "name": "Bob Evans Farms - Lima OH Plant",
        "type": "Manufacturing plant (refrigerated sides - mashed potatoes & macaroni & cheese; former Kettle Creations facility)",
        "archetype": "#9",
        "archetypeName": "Gate + No GS (remote check-in)",
        "confidence": "high",
        "zone": "dockApron",
        "index": 1
      }
    },
    {
      "type": "Feature",
      "geometry": {
        "type": "Polygon",
        "coordinates": [
          [
            [
              -84.096673,
              40.696071
            ],
            [
              -84.096536,
              40.695238
            ],
            [
              -84.095025,
              40.695342
            ],
            [
              -84.095163,
              40.696175
            ],
            [
              -84.096673,
              40.696071
            ]
          ]
        ]
      },
      "properties": {
        "account": "bob-evans-farms",
        "name": "Bob Evans Farms - Lima OH Plant",
        "type": "Manufacturing plant (refrigerated sides - mashed potatoes & macaroni & cheese; former Kettle Creations facility)",
        "archetype": "#9",
        "archetypeName": "Gate + No GS (remote check-in)",
        "confidence": "high",
        "zone": "staging"
      }
    },
    {
      "type": "Feature",
      "geometry": {
        "type": "Polygon",
        "coordinates": [
          [
            [
              -84.617085,
              41.922417
            ],
            [
              -84.617154,
              41.921702
            ],
            [
              -84.616811,
              41.920783
            ],
            [
              -84.614201,
              41.920987
            ],
            [
              -84.613995,
              41.921958
            ],
            [
              -84.614476,
              41.922826
            ],
            [
              -84.617085,
              41.922417
            ]
          ]
        ]
      },
      "properties": {
        "account": "bob-evans-farms",
        "name": "Bob Evans Farms - Hillsdale MI Plant",
        "type": "Manufacturing plant (fresh pork sausage rolls & patties; USDA FSIS inspected)",
        "archetype": "#3",
        "archetypeName": "No Gate / No GS",
        "confidence": "high",
        "zone": "perimeter",
        "truckGate": false,
        "guardShack": false,
        "remoteGs": false,
        "fastLaneOpportunity": false,
        "backupSensitive": false,
        "dropYard": true,
        "multipleFacilities": true,
        "scale": false,
        "shipRcvSeparate": false,
        "urbanRural": "Rural",
        "dockDoors": "10-25",
        "dropArea": "10-25",
        "yardMetrics": {
          "dockDoorCount": 16,
          "trailersVisible": 14,
          "trailerParkingCapacity": 25,
          "truckGateCount": 1,
          "buildingCount": 5,
          "siteAreaAcres": 18.7,
          "railServed": false
        }
      }
    },
    {
      "type": "Feature",
      "geometry": {
        "type": "Polygon",
        "coordinates": [
          [
            [
              -84.617017,
              41.920118
            ],
            [
              -84.616948,
              41.919914
            ],
            [
              -84.616605,
              41.919965
            ],
            [
              -84.616673,
              41.920169
            ],
            [
              -84.617017,
              41.920118
            ]
          ]
        ]
      },
      "properties": {
        "account": "bob-evans-farms",
        "name": "Bob Evans Farms - Hillsdale MI Plant",
        "type": "Manufacturing plant (fresh pork sausage rolls & patties; USDA FSIS inspected)",
        "archetype": "#3",
        "archetypeName": "No Gate / No GS",
        "confidence": "high",
        "zone": "truckGate"
      }
    },
    {
      "type": "Feature",
      "geometry": {
        "type": "Polygon",
        "coordinates": [
          [
            [
              -84.6153,
              41.922213
            ],
            [
              -84.615231,
              41.921855
            ],
            [
              -84.614339,
              41.921958
            ],
            [
              -84.614407,
              41.922315
            ],
            [
              -84.6153,
              41.922213
            ]
          ]
        ]
      },
      "properties": {
        "account": "bob-evans-farms",
        "name": "Bob Evans Farms - Hillsdale MI Plant",
        "type": "Manufacturing plant (fresh pork sausage rolls & patties; USDA FSIS inspected)",
        "archetype": "#3",
        "archetypeName": "No Gate / No GS",
        "confidence": "high",
        "zone": "dropYard",
        "index": 1
      }
    },
    {
      "type": "Feature",
      "geometry": {
        "type": "Polygon",
        "coordinates": [
          [
            [
              -84.616879,
              41.922111
            ],
            [
              -84.616811,
              41.921804
            ],
            [
              -84.615712,
              41.921958
            ],
            [
              -84.615781,
              41.922264
            ],
            [
              -84.616879,
              41.922111
            ]
          ]
        ]
      },
      "properties": {
        "account": "bob-evans-farms",
        "name": "Bob Evans Farms - Hillsdale MI Plant",
        "type": "Manufacturing plant (fresh pork sausage rolls & patties; USDA FSIS inspected)",
        "archetype": "#3",
        "archetypeName": "No Gate / No GS",
        "confidence": "high",
        "zone": "dropYard",
        "index": 2
      }
    },
    {
      "type": "Feature",
      "geometry": {
        "type": "Polygon",
        "coordinates": [
          [
            [
              -84.615712,
              41.921804
            ],
            [
              -84.615643,
              41.921447
            ],
            [
              -84.614407,
              41.921549
            ],
            [
              -84.614476,
              41.921907
            ],
            [
              -84.615712,
              41.921804
            ]
          ]
        ]
      },
      "properties": {
        "account": "bob-evans-farms",
        "name": "Bob Evans Farms - Hillsdale MI Plant",
        "type": "Manufacturing plant (fresh pork sausage rolls & patties; USDA FSIS inspected)",
        "archetype": "#3",
        "archetypeName": "No Gate / No GS",
        "confidence": "high",
        "zone": "dockApron",
        "index": 1
      }
    },
    {
      "type": "Feature",
      "geometry": {
        "type": "Polygon",
        "coordinates": [
          [
            [
              -84.616879,
              41.921345
            ],
            [
              -84.616811,
              41.920987
            ],
            [
              -84.615575,
              41.921089
            ],
            [
              -84.615643,
              41.921447
            ],
            [
              -84.616879,
              41.921345
            ]
          ]
        ]
      },
      "properties": {
        "account": "bob-evans-farms",
        "name": "Bob Evans Farms - Hillsdale MI Plant",
        "type": "Manufacturing plant (fresh pork sausage rolls & patties; USDA FSIS inspected)",
        "archetype": "#3",
        "archetypeName": "No Gate / No GS",
        "confidence": "high",
        "zone": "staging"
      }
    },
    {
      "type": "Feature",
      "geometry": {
        "type": "Polygon",
        "coordinates": [
          [
            [
              -95.582523,
              33.13065
            ],
            [
              -95.582797,
              33.129788
            ],
            [
              -95.582111,
              33.128637
            ],
            [
              -95.579913,
              33.12858
            ],
            [
              -95.579501,
              33.129788
            ],
            [
              -95.580257,
              33.130823
            ],
            [
              -95.582523,
              33.13065
            ]
          ]
        ]
      },
      "properties": {
        "account": "bob-evans-farms",
        "name": "Bob Evans Farms - Sulphur Springs TX Plant",
        "type": "Manufacturing plant (refrigerated sides, including Bob Evans Macaroni & Cheese)",
        "archetype": "#3",
        "archetypeName": "No Gate / No GS",
        "confidence": "high",
        "zone": "perimeter",
        "truckGate": false,
        "guardShack": false,
        "remoteGs": false,
        "fastLaneOpportunity": false,
        "backupSensitive": false,
        "dropYard": false,
        "multipleFacilities": false,
        "scale": false,
        "shipRcvSeparate": false,
        "urbanRural": "Rural",
        "dockDoors": "10-25",
        "dropArea": "0-10",
        "yardMetrics": {
          "dockDoorCount": 12,
          "trailersVisible": 6,
          "trailerParkingCapacity": 15,
          "truckGateCount": 2,
          "buildingCount": 2,
          "siteAreaAcres": 14.2,
          "railServed": false
        }
      }
    },
    {
      "type": "Feature",
      "geometry": {
        "type": "Polygon",
        "coordinates": [
          [
            [
              -95.579776,
              33.130823
            ],
            [
              -95.579845,
              33.130593
            ],
            [
              -95.579501,
              33.130535
            ],
            [
              -95.579433,
              33.130765
            ],
            [
              -95.579776,
              33.130823
            ]
          ]
        ]
      },
      "properties": {
        "account": "bob-evans-farms",
        "name": "Bob Evans Farms - Sulphur Springs TX Plant",
        "type": "Manufacturing plant (refrigerated sides, including Bob Evans Macaroni & Cheese)",
        "archetype": "#3",
        "archetypeName": "No Gate / No GS",
        "confidence": "high",
        "zone": "truckGate"
      }
    },
    {
      "type": "Feature",
      "geometry": {
        "type": "Polygon",
        "coordinates": [
          [
            [
              -95.581081,
              33.12881
            ],
            [
              -95.581012,
              33.12835
            ],
            [
              -95.580394,
              33.128407
            ],
            [
              -95.580463,
              33.128867
            ],
            [
              -95.581081,
              33.12881
            ]
          ]
        ]
      },
      "properties": {
        "account": "bob-evans-farms",
        "name": "Bob Evans Farms - Sulphur Springs TX Plant",
        "type": "Manufacturing plant (refrigerated sides, including Bob Evans Macaroni & Cheese)",
        "archetype": "#3",
        "archetypeName": "No Gate / No GS",
        "confidence": "high",
        "zone": "dropYard",
        "index": 1
      }
    },
    {
      "type": "Feature",
      "geometry": {
        "type": "Polygon",
        "coordinates": [
          [
            [
              -95.582111,
              33.130018
            ],
            [
              -95.582042,
              33.129673
            ],
            [
              -95.580188,
              33.129788
            ],
            [
              -95.580257,
              33.130133
            ],
            [
              -95.582111,
              33.130018
            ]
          ]
        ]
      },
      "properties": {
        "account": "bob-evans-farms",
        "name": "Bob Evans Farms - Sulphur Springs TX Plant",
        "type": "Manufacturing plant (refrigerated sides, including Bob Evans Macaroni & Cheese)",
        "archetype": "#3",
        "archetypeName": "No Gate / No GS",
        "confidence": "high",
        "zone": "dockApron",
        "index": 1
      }
    },
    {
      "type": "Feature",
      "geometry": {
        "type": "Polygon",
        "coordinates": [
          [
            [
              -95.581287,
              33.128867
            ],
            [
              -95.581218,
              33.128292
            ],
            [
              -95.580257,
              33.12835
            ],
            [
              -95.580325,
              33.128925
            ],
            [
              -95.581287,
              33.128867
            ]
          ]
        ]
      },
      "properties": {
        "account": "bob-evans-farms",
        "name": "Bob Evans Farms - Sulphur Springs TX Plant",
        "type": "Manufacturing plant (refrigerated sides, including Bob Evans Macaroni & Cheese)",
        "archetype": "#3",
        "archetypeName": "No Gate / No GS",
        "confidence": "high",
        "zone": "staging"
      }
    },
    {
      "type": "Feature",
      "geometry": {
        "type": "Polygon",
        "coordinates": [
          [
            [
              -111.902597,
              43.684397
            ],
            [
              -111.902597,
              43.681914
            ],
            [
              -111.898752,
              43.682013
            ],
            [
              -111.898752,
              43.684397
            ],
            [
              -111.902597,
              43.684397
            ]
          ]
        ]
      },
      "properties": {
        "account": "bob-evans-farms",
        "name": "Bob Evans Farms - Rigby ID Plant",
        "type": "Manufacturing plant (refrigerated and frozen potato products; Potato Products of Idaho facility absorbed under Post Holdings)",
        "archetype": "#3",
        "archetypeName": "No Gate / No GS",
        "confidence": "high",
        "zone": "perimeter",
        "truckGate": false,
        "guardShack": false,
        "remoteGs": false,
        "fastLaneOpportunity": false,
        "backupSensitive": false,
        "dropYard": true,
        "multipleFacilities": true,
        "scale": false,
        "shipRcvSeparate": false,
        "urbanRural": "Rural",
        "dockDoors": "0-10",
        "dropArea": "0-10",
        "yardMetrics": {
          "dockDoorCount": 10,
          "trailersVisible": 3,
          "trailerParkingCapacity": 20,
          "truckGateCount": 2,
          "buildingCount": 4,
          "siteAreaAcres": 22,
          "railServed": false
        }
      }
    },
    {
      "type": "Feature",
      "geometry": {
        "type": "Polygon",
        "coordinates": [
          [
            [
              -111.902941,
              43.684148
            ],
            [
              -111.902872,
              43.68395
            ],
            [
              -111.902529,
              43.683999
            ],
            [
              -111.902597,
              43.684198
            ],
            [
              -111.902941,
              43.684148
            ]
          ]
        ]
      },
      "properties": {
        "account": "bob-evans-farms",
        "name": "Bob Evans Farms - Rigby ID Plant",
        "type": "Manufacturing plant (refrigerated and frozen potato products; Potato Products of Idaho facility absorbed under Post Holdings)",
        "archetype": "#3",
        "archetypeName": "No Gate / No GS",
        "confidence": "high",
        "zone": "truckGate"
      }
    },
    {
      "type": "Feature",
      "geometry": {
        "type": "Polygon",
        "coordinates": [
          [
            [
              -111.900881,
              43.684099
            ],
            [
              -111.900812,
              43.683602
            ],
            [
              -111.899713,
              43.683652
            ],
            [
              -111.899782,
              43.684148
            ],
            [
              -111.900881,
              43.684099
            ]
          ]
        ]
      },
      "properties": {
        "account": "bob-evans-farms",
        "name": "Bob Evans Farms - Rigby ID Plant",
        "type": "Manufacturing plant (refrigerated and frozen potato products; Potato Products of Idaho facility absorbed under Post Holdings)",
        "archetype": "#3",
        "archetypeName": "No Gate / No GS",
        "confidence": "high",
        "zone": "dropYard",
        "index": 1
      }
    },
    {
      "type": "Feature",
      "geometry": {
        "type": "Polygon",
        "coordinates": [
          [
            [
              -111.902117,
              43.682907
            ],
            [
              -111.902048,
              43.682311
            ],
            [
              -111.900743,
              43.68241
            ],
            [
              -111.900812,
              43.682957
            ],
            [
              -111.902117,
              43.682907
            ]
          ]
        ]
      },
      "properties": {
        "account": "bob-evans-farms",
        "name": "Bob Evans Farms - Rigby ID Plant",
        "type": "Manufacturing plant (refrigerated and frozen potato products; Potato Products of Idaho facility absorbed under Post Holdings)",
        "archetype": "#3",
        "archetypeName": "No Gate / No GS",
        "confidence": "high",
        "zone": "dropYard",
        "index": 2
      }
    },
    {
      "type": "Feature",
      "geometry": {
        "type": "Polygon",
        "coordinates": [
          [
            [
              -111.901087,
              43.684248
            ],
            [
              -111.901018,
              43.68395
            ],
            [
              -111.898958,
              43.683999
            ],
            [
              -111.899027,
              43.684297
            ],
            [
              -111.901087,
              43.684248
            ]
          ]
        ]
      },
      "properties": {
        "account": "bob-evans-farms",
        "name": "Bob Evans Farms - Rigby ID Plant",
        "type": "Manufacturing plant (refrigerated and frozen potato products; Potato Products of Idaho facility absorbed under Post Holdings)",
        "archetype": "#3",
        "archetypeName": "No Gate / No GS",
        "confidence": "high",
        "zone": "dockApron",
        "index": 1
      }
    },
    {
      "type": "Feature",
      "geometry": {
        "type": "Polygon",
        "coordinates": [
          [
            [
              -111.900881,
              43.684099
            ],
            [
              -111.900812,
              43.683503
            ],
            [
              -111.899645,
              43.683552
            ],
            [
              -111.899713,
              43.684148
            ],
            [
              -111.900881,
              43.684099
            ]
          ]
        ]
      },
      "properties": {
        "account": "bob-evans-farms",
        "name": "Bob Evans Farms - Rigby ID Plant",
        "type": "Manufacturing plant (refrigerated and frozen potato products; Potato Products of Idaho facility absorbed under Post Holdings)",
        "archetype": "#3",
        "archetypeName": "No Gate / No GS",
        "confidence": "high",
        "zone": "staging"
      }
    },
    {
      "type": "Feature",
      "geometry": {
        "type": "Polygon",
        "coordinates": [
          [
            [
              -83.858985,
              39.840109
            ],
            [
              -83.859535,
              39.837736
            ],
            [
              -83.858573,
              39.836102
            ],
            [
              -83.856513,
              39.836524
            ],
            [
              -83.856376,
              39.838422
            ],
            [
              -83.857543,
              39.840425
            ],
            [
              -83.858985,
              39.840109
            ]
          ]
        ]
      },
      "properties": {
        "account": "bob-evans-farms",
        "name": "Bob Evans Farms - Springfield OH Transportation Hub",
        "type": "Distribution / transportation hub (private fleet terminal - Bob Evans Transportation Company LLC, USDOT 911163; ~100 tractor-trailers)",
        "archetype": "#9",
        "archetypeName": "Gate + No GS (remote check-in)",
        "confidence": "medium",
        "zone": "perimeter",
        "truckGate": true,
        "guardShack": false,
        "remoteGs": true,
        "fastLaneOpportunity": false,
        "backupSensitive": false,
        "dropYard": true,
        "multipleFacilities": false,
        "scale": false,
        "shipRcvSeparate": false,
        "urbanRural": "Rural",
        "dockDoors": "0-10",
        "dropArea": "50+",
        "yardMetrics": {
          "dockDoorCount": 4,
          "trailersVisible": 120,
          "trailerParkingCapacity": 160,
          "truckGateCount": 1,
          "buildingCount": 2,
          "siteAreaAcres": 26,
          "railServed": false
        }
      }
    },
    {
      "type": "Feature",
      "geometry": {
        "type": "Polygon",
        "coordinates": [
          [
            [
              -83.858779,
              39.83626
            ],
            [
              -83.858711,
              39.835996
            ],
            [
              -83.858367,
              39.836049
            ],
            [
              -83.858436,
              39.836313
            ],
            [
              -83.858779,
              39.83626
            ]
          ]
        ]
      },
      "properties": {
        "account": "bob-evans-farms",
        "name": "Bob Evans Farms - Springfield OH Transportation Hub",
        "type": "Distribution / transportation hub (private fleet terminal - Bob Evans Transportation Company LLC, USDOT 911163; ~100 tractor-trailers)",
        "archetype": "#9",
        "archetypeName": "Gate + No GS (remote check-in)",
        "confidence": "medium",
        "zone": "truckGate"
      }
    },
    {
      "type": "Feature",
      "geometry": {
        "type": "Polygon",
        "coordinates": [
          [
            [
              -83.858367,
              39.839371
            ],
            [
              -83.85823,
              39.838633
            ],
            [
              -83.856719,
              39.838844
            ],
            [
              -83.856857,
              39.839582
            ],
            [
              -83.858367,
              39.839371
            ]
          ]
        ]
      },
      "properties": {
        "account": "bob-evans-farms",
        "name": "Bob Evans Farms - Springfield OH Transportation Hub",
        "type": "Distribution / transportation hub (private fleet terminal - Bob Evans Transportation Company LLC, USDOT 911163; ~100 tractor-trailers)",
        "archetype": "#9",
        "archetypeName": "Gate + No GS (remote check-in)",
        "confidence": "medium",
        "zone": "dropYard",
        "index": 1
      }
    },
    {
      "type": "Feature",
      "geometry": {
        "type": "Polygon",
        "coordinates": [
          [
            [
              -83.858573,
              39.838422
            ],
            [
              -83.858505,
              39.837842
            ],
            [
              -83.857131,
              39.838
            ],
            [
              -83.8572,
              39.83858
            ],
            [
              -83.858573,
              39.838422
            ]
          ]
        ]
      },
      "properties": {
        "account": "bob-evans-farms",
        "name": "Bob Evans Farms - Springfield OH Transportation Hub",
        "type": "Distribution / transportation hub (private fleet terminal - Bob Evans Transportation Company LLC, USDOT 911163; ~100 tractor-trailers)",
        "archetype": "#9",
        "archetypeName": "Gate + No GS (remote check-in)",
        "confidence": "medium",
        "zone": "dropYard",
        "index": 2
      }
    },
    {
      "type": "Feature",
      "geometry": {
        "type": "Polygon",
        "coordinates": [
          [
            [
              -83.858573,
              39.837736
            ],
            [
              -83.858505,
              39.837051
            ],
            [
              -83.857269,
              39.837209
            ],
            [
              -83.857337,
              39.837895
            ],
            [
              -83.858573,
              39.837736
            ]
          ]
        ]
      },
      "properties": {
        "account": "bob-evans-farms",
        "name": "Bob Evans Farms - Springfield OH Transportation Hub",
        "type": "Distribution / transportation hub (private fleet terminal - Bob Evans Transportation Company LLC, USDOT 911163; ~100 tractor-trailers)",
        "archetype": "#9",
        "archetypeName": "Gate + No GS (remote check-in)",
        "confidence": "medium",
        "zone": "dropYard",
        "index": 3
      }
    },
    {
      "type": "Feature",
      "geometry": {
        "type": "Polygon",
        "coordinates": [
          [
            [
              -83.858367,
              39.838158
            ],
            [
              -83.858299,
              39.837789
            ],
            [
              -83.857475,
              39.837895
            ],
            [
              -83.857543,
              39.838264
            ],
            [
              -83.858367,
              39.838158
            ]
          ]
        ]
      },
      "properties": {
        "account": "bob-evans-farms",
        "name": "Bob Evans Farms - Springfield OH Transportation Hub",
        "type": "Distribution / transportation hub (private fleet terminal - Bob Evans Transportation Company LLC, USDOT 911163; ~100 tractor-trailers)",
        "archetype": "#9",
        "archetypeName": "Gate + No GS (remote check-in)",
        "confidence": "medium",
        "zone": "dockApron",
        "index": 1
      }
    },
    {
      "type": "Feature",
      "geometry": {
        "type": "Polygon",
        "coordinates": [
          [
            [
              -83.858779,
              39.837051
            ],
            [
              -83.858711,
              39.836735
            ],
            [
              -83.857131,
              39.836893
            ],
            [
              -83.8572,
              39.837209
            ],
            [
              -83.858779,
              39.837051
            ]
          ]
        ]
      },
      "properties": {
        "account": "bob-evans-farms",
        "name": "Bob Evans Farms - Springfield OH Transportation Hub",
        "type": "Distribution / transportation hub (private fleet terminal - Bob Evans Transportation Company LLC, USDOT 911163; ~100 tractor-trailers)",
        "archetype": "#9",
        "archetypeName": "Gate + No GS (remote check-in)",
        "confidence": "medium",
        "zone": "dockApron",
        "index": 2
      }
    },
    {
      "type": "Feature",
      "geometry": {
        "type": "Polygon",
        "coordinates": [
          [
            [
              -83.858573,
              39.838422
            ],
            [
              -83.858505,
              39.837051
            ],
            [
              -83.857063,
              39.837156
            ],
            [
              -83.857131,
              39.83858
            ],
            [
              -83.858573,
              39.838422
            ]
          ]
        ]
      },
      "properties": {
        "account": "bob-evans-farms",
        "name": "Bob Evans Farms - Springfield OH Transportation Hub",
        "type": "Distribution / transportation hub (private fleet terminal - Bob Evans Transportation Company LLC, USDOT 911163; ~100 tractor-trailers)",
        "archetype": "#9",
        "archetypeName": "Gate + No GS (remote check-in)",
        "confidence": "medium",
        "zone": "staging"
      }
    }
  ]
}
