{
  "type": "FeatureCollection",
  "features": [
    {
      "type": "Feature",
      "geometry": {
        "type": "Polygon",
        "coordinates": [
          [
            [
              -83.170042,
              42.314831
            ],
            [
              -83.172789,
              42.302847
            ],
            [
              -83.157408,
              42.302847
            ],
            [
              -83.157408,
              42.314831
            ],
            [
              -83.170042,
              42.314831
            ]
          ]
        ]
      },
      "properties": {
        "account": "ford",
        "name": "Ford - Dearborn Truck Plant, Dearborn MI",
        "type": "Vehicle Assembly Plant",
        "archetype": "#6",
        "archetypeName": "Gate + GS (not BU sens.) + campus",
        "confidence": "high",
        "zone": "perimeter",
        "truckGate": true,
        "guardShack": true,
        "remoteGs": false,
        "fastLaneOpportunity": true,
        "backupSensitive": false,
        "dropYard": true,
        "multipleFacilities": true,
        "scale": false,
        "shipRcvSeparate": true,
        "urbanRural": "Urban",
        "dockDoors": "25-50",
        "dropArea": "25-50",
        "yardMetrics": {
          "dockDoorCount": 40,
          "trailersVisible": 35,
          "trailerParkingCapacity": 80,
          "truckGateCount": 2,
          "buildingCount": 6,
          "siteAreaAcres": 285.3,
          "railServed": true
        }
      }
    },
    {
      "type": "Feature",
      "geometry": {
        "type": "Polygon",
        "coordinates": [
          [
            [
              -83.165923,
              42.314628
            ],
            [
              -83.165923,
              42.312394
            ],
            [
              -83.162352,
              42.312394
            ],
            [
              -83.162352,
              42.314628
            ],
            [
              -83.165923,
              42.314628
            ]
          ]
        ]
      },
      "properties": {
        "account": "ford",
        "name": "Ford - Dearborn Truck Plant, Dearborn MI",
        "type": "Vehicle Assembly Plant",
        "archetype": "#6",
        "archetypeName": "Gate + GS (not BU sens.) + campus",
        "confidence": "high",
        "zone": "dropYard",
        "index": 1
      }
    },
    {
      "type": "Feature",
      "geometry": {
        "type": "Polygon",
        "coordinates": [
          [
            [
              -83.160704,
              42.310363
            ],
            [
              -83.160704,
              42.3063
            ],
            [
              -83.158781,
              42.3063
            ],
            [
              -83.158781,
              42.310363
            ],
            [
              -83.160704,
              42.310363
            ]
          ]
        ]
      },
      "properties": {
        "account": "ford",
        "name": "Ford - Dearborn Truck Plant, Dearborn MI",
        "type": "Vehicle Assembly Plant",
        "archetype": "#6",
        "archetypeName": "Gate + GS (not BU sens.) + campus",
        "confidence": "high",
        "zone": "dockApron",
        "index": 1
      }
    },
    {
      "type": "Feature",
      "geometry": {
        "type": "Polygon",
        "coordinates": [
          [
            [
              -85.539595,
              38.289179
            ],
            [
              -85.527594,
              38.289676
            ],
            [
              -85.528229,
              38.299253
            ],
            [
              -85.54023,
              38.298756
            ],
            [
              -85.539595,
              38.289179
            ]
          ]
        ]
      },
      "properties": {
        "account": "ford",
        "name": "Ford - Kentucky Truck Plant, Louisville KY",
        "type": "Vehicle Assembly Plant",
        "archetype": "#6",
        "archetypeName": "Gate + GS (not BU sens.) + campus",
        "confidence": "high",
        "zone": "perimeter",
        "truckGate": true,
        "guardShack": true,
        "remoteGs": false,
        "fastLaneOpportunity": true,
        "backupSensitive": false,
        "dropYard": true,
        "multipleFacilities": true,
        "scale": false,
        "shipRcvSeparate": true,
        "urbanRural": "Rural",
        "dockDoors": "50+",
        "dropArea": "50+",
        "yardMetrics": {
          "dockDoorCount": 55,
          "trailersVisible": 70,
          "trailerParkingCapacity": 150,
          "truckGateCount": 2,
          "buildingCount": 8,
          "siteAreaAcres": 343.7,
          "railServed": true
        }
      }
    },
    {
      "type": "Feature",
      "geometry": {
        "type": "Polygon",
        "coordinates": [
          [
            [
              -85.537565,
              38.290915
            ],
            [
              -85.537532,
              38.290418
            ],
            [
              -85.532731,
              38.290617
            ],
            [
              -85.532764,
              38.291114
            ],
            [
              -85.537565,
              38.290915
            ]
          ]
        ]
      },
      "properties": {
        "account": "ford",
        "name": "Ford - Kentucky Truck Plant, Louisville KY",
        "type": "Vehicle Assembly Plant",
        "archetype": "#6",
        "archetypeName": "Gate + GS (not BU sens.) + campus",
        "confidence": "high",
        "zone": "dockApron",
        "index": 1
      }
    },
    {
      "type": "Feature",
      "geometry": {
        "type": "Polygon",
        "coordinates": [
          [
            [
              -94.474197,
              39.200219
            ],
            [
              -94.473016,
              39.205339
            ],
            [
              -94.484197,
              39.206909
            ],
            [
              -94.485378,
              39.201789
            ],
            [
              -94.474197,
              39.200219
            ]
          ]
        ]
      },
      "properties": {
        "account": "ford",
        "name": "Ford - Kansas City Assembly Plant, Claycomo MO",
        "type": "Vehicle Assembly Plant",
        "archetype": "#6",
        "archetypeName": "Gate + GS (not BU sens.) + campus",
        "confidence": "high",
        "zone": "perimeter",
        "truckGate": true,
        "guardShack": true,
        "remoteGs": false,
        "fastLaneOpportunity": true,
        "backupSensitive": false,
        "dropYard": true,
        "multipleFacilities": true,
        "scale": false,
        "shipRcvSeparate": true,
        "urbanRural": "Rural",
        "dockDoors": "50+",
        "dropArea": "50+",
        "yardMetrics": {
          "dockDoorCount": 50,
          "trailersVisible": 60,
          "trailerParkingCapacity": 130,
          "truckGateCount": 2,
          "buildingCount": 6,
          "siteAreaAcres": 564.8,
          "railServed": true
        }
      }
    },
    {
      "type": "Feature",
      "geometry": {
        "type": "Polygon",
        "coordinates": [
          [
            [
              -94.472415,
              39.200641
            ],
            [
              -94.472202,
              39.200476
            ],
            [
              -94.472055,
              39.20059
            ],
            [
              -94.472268,
              39.200755
            ],
            [
              -94.472415,
              39.200641
            ]
          ]
        ]
      },
      "properties": {
        "account": "ford",
        "name": "Ford - Kansas City Assembly Plant, Claycomo MO",
        "type": "Vehicle Assembly Plant",
        "archetype": "#6",
        "archetypeName": "Gate + GS (not BU sens.) + campus",
        "confidence": "high",
        "zone": "truckGate"
      }
    },
    {
      "type": "Feature",
      "geometry": {
        "type": "Polygon",
        "coordinates": [
          [
            [
              -94.475764,
              39.204177
            ],
            [
              -94.475497,
              39.205334
            ],
            [
              -94.478236,
              39.205719
            ],
            [
              -94.478503,
              39.204562
            ],
            [
              -94.475764,
              39.204177
            ]
          ]
        ]
      },
      "properties": {
        "account": "ford",
        "name": "Ford - Kansas City Assembly Plant, Claycomo MO",
        "type": "Vehicle Assembly Plant",
        "archetype": "#6",
        "archetypeName": "Gate + GS (not BU sens.) + campus",
        "confidence": "high",
        "zone": "dropYard",
        "index": 1
      }
    },
    {
      "type": "Feature",
      "geometry": {
        "type": "Polygon",
        "coordinates": [
          [
            [
              -94.477428,
              39.201414
            ],
            [
              -94.477315,
              39.201904
            ],
            [
              -94.480966,
              39.202416
            ],
            [
              -94.481079,
              39.201926
            ],
            [
              -94.477428,
              39.201414
            ]
          ]
        ]
      },
      "properties": {
        "account": "ford",
        "name": "Ford - Kansas City Assembly Plant, Claycomo MO",
        "type": "Vehicle Assembly Plant",
        "archetype": "#6",
        "archetypeName": "Gate + GS (not BU sens.) + campus",
        "confidence": "high",
        "zone": "dockApron",
        "index": 1
      }
    },
    {
      "type": "Feature",
      "geometry": {
        "type": "Polygon",
        "coordinates": [
          [
            [
              -85.733444,
              38.157292
            ],
            [
              -85.733444,
              38.152972
            ],
            [
              -85.72081,
              38.152972
            ],
            [
              -85.72081,
              38.157292
            ],
            [
              -85.733444,
              38.157292
            ]
          ]
        ]
      },
      "properties": {
        "account": "ford",
        "name": "Ford - Louisville Assembly Plant, Louisville KY",
        "type": "Vehicle Assembly Plant",
        "archetype": "#6",
        "archetypeName": "Gate + GS (not BU sens.) + campus",
        "confidence": "high",
        "zone": "perimeter",
        "truckGate": true,
        "guardShack": true,
        "remoteGs": false,
        "fastLaneOpportunity": true,
        "backupSensitive": false,
        "dropYard": true,
        "multipleFacilities": true,
        "scale": false,
        "shipRcvSeparate": true,
        "urbanRural": "Urban",
        "dockDoors": "25-50",
        "dropArea": "50+",
        "yardMetrics": {
          "dockDoorCount": 45,
          "trailersVisible": 90,
          "trailerParkingCapacity": 160,
          "truckGateCount": 2,
          "buildingCount": 6,
          "siteAreaAcres": 277,
          "railServed": true
        }
      }
    },
    {
      "type": "Feature",
      "geometry": {
        "type": "Polygon",
        "coordinates": [
          [
            [
              -85.73356,
              38.15312
            ],
            [
              -85.73316,
              38.15296
            ],
            [
              -85.73298,
              38.15321
            ],
            [
              -85.73338,
              38.15337
            ],
            [
              -85.73356,
              38.15312
            ]
          ]
        ]
      },
      "properties": {
        "account": "ford",
        "name": "Ford - Louisville Assembly Plant, Louisville KY",
        "type": "Vehicle Assembly Plant",
        "archetype": "#6",
        "archetypeName": "Gate + GS (not BU sens.) + campus",
        "confidence": "high",
        "zone": "truckGate"
      }
    },
    {
      "type": "Feature",
      "geometry": {
        "type": "Polygon",
        "coordinates": [
          [
            [
              -85.73295,
              38.1546
            ],
            [
              -85.73295,
              38.15355
            ],
            [
              -85.73185,
              38.15355
            ],
            [
              -85.73185,
              38.1546
            ],
            [
              -85.73295,
              38.1546
            ]
          ]
        ]
      },
      "properties": {
        "account": "ford",
        "name": "Ford - Louisville Assembly Plant, Louisville KY",
        "type": "Vehicle Assembly Plant",
        "archetype": "#6",
        "archetypeName": "Gate + GS (not BU sens.) + campus",
        "confidence": "high",
        "zone": "dropYard",
        "index": 1
      }
    },
    {
      "type": "Feature",
      "geometry": {
        "type": "Polygon",
        "coordinates": [
          [
            [
              -85.732345,
              38.154268
            ],
            [
              -85.732345,
              38.153188
            ],
            [
              -85.726303,
              38.153188
            ],
            [
              -85.726303,
              38.154268
            ],
            [
              -85.732345,
              38.154268
            ]
          ]
        ]
      },
      "properties": {
        "account": "ford",
        "name": "Ford - Louisville Assembly Plant, Louisville KY",
        "type": "Vehicle Assembly Plant",
        "archetype": "#6",
        "archetypeName": "Gate + GS (not BU sens.) + campus",
        "confidence": "high",
        "zone": "dockApron",
        "index": 1
      }
    },
    {
      "type": "Feature",
      "geometry": {
        "type": "Polygon",
        "coordinates": [
          [
            [
              -83.42129,
              42.278432
            ],
            [
              -83.420192,
              42.273148
            ],
            [
              -83.403163,
              42.273961
            ],
            [
              -83.403712,
              42.279245
            ],
            [
              -83.42129,
              42.278432
            ]
          ]
        ]
      },
      "properties": {
        "account": "ford",
        "name": "Ford - Michigan Assembly Plant, Wayne MI",
        "type": "Vehicle Assembly Plant",
        "archetype": "#6",
        "archetypeName": "Gate + GS (not BU sens.) + campus",
        "confidence": "high",
        "zone": "perimeter",
        "truckGate": true,
        "guardShack": true,
        "remoteGs": false,
        "fastLaneOpportunity": true,
        "backupSensitive": false,
        "dropYard": true,
        "multipleFacilities": true,
        "scale": false,
        "shipRcvSeparate": true,
        "urbanRural": "Urban",
        "dockDoors": "25-50",
        "dropArea": "50+",
        "yardMetrics": {
          "dockDoorCount": 40,
          "trailersVisible": 75,
          "trailerParkingCapacity": 150,
          "truckGateCount": 2,
          "buildingCount": 5,
          "siteAreaAcres": 369,
          "railServed": true
        }
      }
    },
    {
      "type": "Feature",
      "geometry": {
        "type": "Polygon",
        "coordinates": [
          [
            [
              -83.40591,
              42.279245
            ],
            [
              -83.405635,
              42.27701
            ],
            [
              -83.40179,
              42.277213
            ],
            [
              -83.402064,
              42.279448
            ],
            [
              -83.40591,
              42.279245
            ]
          ]
        ]
      },
      "properties": {
        "account": "ford",
        "name": "Ford - Michigan Assembly Plant, Wayne MI",
        "type": "Vehicle Assembly Plant",
        "archetype": "#6",
        "archetypeName": "Gate + GS (not BU sens.) + campus",
        "confidence": "high",
        "zone": "dropYard",
        "index": 1
      }
    },
    {
      "type": "Feature",
      "geometry": {
        "type": "Polygon",
        "coordinates": [
          [
            [
              -87.567392,
              41.66662
            ],
            [
              -87.567942,
              41.658412
            ],
            [
              -87.557505,
              41.658002
            ],
            [
              -87.558329,
              41.66662
            ],
            [
              -87.567392,
              41.66662
            ]
          ]
        ]
      },
      "properties": {
        "account": "ford",
        "name": "Ford - Chicago Assembly Plant, Chicago IL",
        "type": "Vehicle Assembly Plant",
        "archetype": "#6",
        "archetypeName": "Gate + GS (not BU sens.) + campus",
        "confidence": "high",
        "zone": "perimeter",
        "truckGate": true,
        "guardShack": true,
        "remoteGs": false,
        "fastLaneOpportunity": true,
        "backupSensitive": false,
        "dropYard": true,
        "multipleFacilities": true,
        "scale": false,
        "shipRcvSeparate": true,
        "urbanRural": "Urban",
        "dockDoors": "25-50",
        "dropArea": "50+",
        "yardMetrics": {
          "dockDoorCount": 45,
          "trailersVisible": 70,
          "trailerParkingCapacity": 110,
          "truckGateCount": 1,
          "buildingCount": 6,
          "siteAreaAcres": 130,
          "railServed": true
        }
      }
    },
    {
      "type": "Feature",
      "geometry": {
        "type": "Polygon",
        "coordinates": [
          [
            [
              -87.55955,
              41.6615
            ],
            [
              -87.55955,
              41.66122
            ],
            [
              -87.55905,
              41.66122
            ],
            [
              -87.55905,
              41.6615
            ],
            [
              -87.55955,
              41.6615
            ]
          ]
        ]
      },
      "properties": {
        "account": "ford",
        "name": "Ford - Chicago Assembly Plant, Chicago IL",
        "type": "Vehicle Assembly Plant",
        "archetype": "#6",
        "archetypeName": "Gate + GS (not BU sens.) + campus",
        "confidence": "high",
        "zone": "truckGate"
      }
    },
    {
      "type": "Feature",
      "geometry": {
        "type": "Polygon",
        "coordinates": [
          [
            [
              -87.564646,
              41.66662
            ],
            [
              -87.564646,
              41.663337
            ],
            [
              -87.560801,
              41.663337
            ],
            [
              -87.560801,
              41.66662
            ],
            [
              -87.564646,
              41.66662
            ]
          ]
        ]
      },
      "properties": {
        "account": "ford",
        "name": "Ford - Chicago Assembly Plant, Chicago IL",
        "type": "Vehicle Assembly Plant",
        "archetype": "#6",
        "archetypeName": "Gate + GS (not BU sens.) + campus",
        "confidence": "high",
        "zone": "dropYard",
        "index": 1
      }
    },
    {
      "type": "Feature",
      "geometry": {
        "type": "Polygon",
        "coordinates": [
          [
            [
              -87.561087,
              41.66127
            ],
            [
              -87.5611,
              41.66105
            ],
            [
              -87.5599,
              41.66099
            ],
            [
              -87.559885,
              41.66121
            ],
            [
              -87.561087,
              41.66127
            ]
          ]
        ]
      },
      "properties": {
        "account": "ford",
        "name": "Ford - Chicago Assembly Plant, Chicago IL",
        "type": "Vehicle Assembly Plant",
        "archetype": "#6",
        "archetypeName": "Gate + GS (not BU sens.) + campus",
        "confidence": "high",
        "zone": "dockApron",
        "index": 1
      }
    },
    {
      "type": "Feature",
      "geometry": {
        "type": "Polygon",
        "coordinates": [
          [
            [
              -82.070993,
              41.491315
            ],
            [
              -82.071542,
              41.482673
            ],
            [
              -82.062204,
              41.482673
            ],
            [
              -82.062204,
              41.490903
            ],
            [
              -82.070993,
              41.491315
            ]
          ]
        ]
      },
      "properties": {
        "account": "ford",
        "name": "Ford - Ohio Assembly Plant, Avon Lake OH",
        "type": "Vehicle Assembly Plant",
        "archetype": "#6",
        "archetypeName": "Gate + GS (not BU sens.) + campus",
        "confidence": "high",
        "zone": "perimeter",
        "truckGate": true,
        "guardShack": true,
        "remoteGs": false,
        "fastLaneOpportunity": true,
        "backupSensitive": false,
        "dropYard": true,
        "multipleFacilities": true,
        "scale": false,
        "shipRcvSeparate": true,
        "urbanRural": "Rural",
        "dockDoors": "25-50",
        "dropArea": "50+",
        "yardMetrics": {
          "dockDoorCount": 45,
          "trailersVisible": 80,
          "trailerParkingCapacity": 170,
          "truckGateCount": 2,
          "buildingCount": 6,
          "siteAreaAcres": 419,
          "railServed": true
        }
      }
    },
    {
      "type": "Feature",
      "geometry": {
        "type": "Polygon",
        "coordinates": [
          [
            [
              -82.07137,
              41.48628
            ],
            [
              -82.07134,
              41.48591
            ],
            [
              -82.07092,
              41.48589
            ],
            [
              -82.07095,
              41.48626
            ],
            [
              -82.07137,
              41.48628
            ]
          ]
        ]
      },
      "properties": {
        "account": "ford",
        "name": "Ford - Ohio Assembly Plant, Avon Lake OH",
        "type": "Vehicle Assembly Plant",
        "archetype": "#6",
        "archetypeName": "Gate + GS (not BU sens.) + campus",
        "confidence": "high",
        "zone": "truckGate"
      }
    },
    {
      "type": "Feature",
      "geometry": {
        "type": "Polygon",
        "coordinates": [
          [
            [
              -82.076486,
              41.481439
            ],
            [
              -82.076486,
              41.479381
            ],
            [
              -82.070993,
              41.479381
            ],
            [
              -82.070993,
              41.481439
            ],
            [
              -82.076486,
              41.481439
            ]
          ]
        ]
      },
      "properties": {
        "account": "ford",
        "name": "Ford - Ohio Assembly Plant, Avon Lake OH",
        "type": "Vehicle Assembly Plant",
        "archetype": "#6",
        "archetypeName": "Gate + GS (not BU sens.) + campus",
        "confidence": "high",
        "zone": "dropYard",
        "index": 1
      }
    },
    {
      "type": "Feature",
      "geometry": {
        "type": "Polygon",
        "coordinates": [
          [
            [
              -82.06998,
              41.48652
            ],
            [
              -82.06998,
              41.48638
            ],
            [
              -82.06948,
              41.48636
            ],
            [
              -82.06948,
              41.4865
            ],
            [
              -82.06998,
              41.48652
            ]
          ]
        ]
      },
      "properties": {
        "account": "ford",
        "name": "Ford - Ohio Assembly Plant, Avon Lake OH",
        "type": "Vehicle Assembly Plant",
        "archetype": "#6",
        "archetypeName": "Gate + GS (not BU sens.) + campus",
        "confidence": "high",
        "zone": "dockApron",
        "index": 1
      }
    },
    {
      "type": "Feature",
      "geometry": {
        "type": "Polygon",
        "coordinates": [
          [
            [
              -83.253693,
              42.10886
            ],
            [
              -83.253693,
              42.101117
            ],
            [
              -83.24408,
              42.101117
            ],
            [
              -83.24408,
              42.10886
            ],
            [
              -83.253693,
              42.10886
            ]
          ]
        ]
      },
      "properties": {
        "account": "ford",
        "name": "Ford - Flat Rock Assembly Plant, Flat Rock MI",
        "type": "Vehicle Assembly Plant",
        "archetype": "#6",
        "archetypeName": "Gate + GS (not BU sens.) + campus",
        "confidence": "high",
        "zone": "perimeter",
        "truckGate": true,
        "guardShack": true,
        "remoteGs": false,
        "fastLaneOpportunity": true,
        "backupSensitive": false,
        "dropYard": true,
        "multipleFacilities": true,
        "scale": false,
        "shipRcvSeparate": true,
        "urbanRural": "Rural",
        "dockDoors": "25-50",
        "dropArea": "50+",
        "yardMetrics": {
          "dockDoorCount": 40,
          "trailersVisible": 220,
          "trailerParkingCapacity": 350,
          "truckGateCount": 2,
          "buildingCount": 5,
          "siteAreaAcres": 400,
          "railServed": true
        }
      }
    },
    {
      "type": "Feature",
      "geometry": {
        "type": "Polygon",
        "coordinates": [
          [
            [
              -83.2519,
              42.1071
            ],
            [
              -83.2519,
              42.10682
            ],
            [
              -83.2514,
              42.10682
            ],
            [
              -83.2514,
              42.1071
            ],
            [
              -83.2519,
              42.1071
            ]
          ]
        ]
      },
      "properties": {
        "account": "ford",
        "name": "Ford - Flat Rock Assembly Plant, Flat Rock MI",
        "type": "Vehicle Assembly Plant",
        "archetype": "#6",
        "archetypeName": "Gate + GS (not BU sens.) + campus",
        "confidence": "high",
        "zone": "truckGate"
      }
    },
    {
      "type": "Feature",
      "geometry": {
        "type": "Polygon",
        "coordinates": [
          [
            [
              -83.254242,
              42.104785
            ],
            [
              -83.254242,
              42.103155
            ],
            [
              -83.249848,
              42.103155
            ],
            [
              -83.249848,
              42.104785
            ],
            [
              -83.254242,
              42.104785
            ]
          ]
        ]
      },
      "properties": {
        "account": "ford",
        "name": "Ford - Flat Rock Assembly Plant, Flat Rock MI",
        "type": "Vehicle Assembly Plant",
        "archetype": "#6",
        "archetypeName": "Gate + GS (not BU sens.) + campus",
        "confidence": "high",
        "zone": "dropYard",
        "index": 1
      }
    },
    {
      "type": "Feature",
      "geometry": {
        "type": "Polygon",
        "coordinates": [
          [
            [
              -83.2517,
              42.10595
            ],
            [
              -83.25192,
              42.10595
            ],
            [
              -83.25192,
              42.10435
            ],
            [
              -83.2517,
              42.10435
            ],
            [
              -83.2517,
              42.10595
            ]
          ]
        ]
      },
      "properties": {
        "account": "ford",
        "name": "Ford - Flat Rock Assembly Plant, Flat Rock MI",
        "type": "Vehicle Assembly Plant",
        "archetype": "#6",
        "archetypeName": "Gate + GS (not BU sens.) + campus",
        "confidence": "high",
        "zone": "dockApron",
        "index": 1
      }
    },
    {
      "type": "Feature",
      "geometry": {
        "type": "Polygon",
        "coordinates": [
          [
            [
              -89.433381,
              35.423581
            ],
            [
              -89.433381,
              35.413733
            ],
            [
              -89.408112,
              35.413733
            ],
            [
              -89.408112,
              35.423581
            ],
            [
              -89.433381,
              35.423581
            ]
          ]
        ]
      },
      "properties": {
        "account": "ford",
        "name": "Ford - BlueOval City / Tennessee Electric Vehicle Center, Stanton TN",
        "type": "Vehicle Assembly Plant (greenfield, ramp-up)",
        "archetype": "#6",
        "archetypeName": "Gate + GS (not BU sens.) + campus",
        "confidence": "medium",
        "zone": "perimeter",
        "truckGate": true,
        "guardShack": true,
        "remoteGs": false,
        "fastLaneOpportunity": true,
        "backupSensitive": false,
        "dropYard": true,
        "multipleFacilities": true,
        "scale": false,
        "shipRcvSeparate": true,
        "urbanRural": "Rural",
        "dockDoors": "25-50",
        "dropArea": "25-50",
        "yardMetrics": {
          "dockDoorCount": 35,
          "trailersVisible": 60,
          "trailerParkingCapacity": 200,
          "truckGateCount": 2,
          "buildingCount": 12,
          "siteAreaAcres": 950,
          "railServed": true
        }
      }
    },
    {
      "type": "Feature",
      "geometry": {
        "type": "Polygon",
        "coordinates": [
          [
            [
              -85.890986,
              37.593835
            ],
            [
              -85.890986,
              37.575552
            ],
            [
              -85.873408,
              37.575552
            ],
            [
              -85.873408,
              37.593835
            ],
            [
              -85.890986,
              37.593835
            ]
          ]
        ]
      },
      "properties": {
        "account": "ford",
        "name": "Ford - BlueOval SK Battery Park, Glendale KY",
        "type": "Battery Manufacturing Plant (JV with SK On)",
        "archetype": "#6",
        "archetypeName": "Gate + GS (not BU sens.) + campus",
        "confidence": "low",
        "zone": "perimeter",
        "truckGate": true,
        "guardShack": true,
        "remoteGs": false,
        "fastLaneOpportunity": true,
        "backupSensitive": false,
        "dropYard": true,
        "multipleFacilities": true,
        "scale": false,
        "shipRcvSeparate": true,
        "urbanRural": "Rural",
        "dockDoors": "25-50",
        "dropArea": "10-25",
        "yardMetrics": {
          "dockDoorCount": 30,
          "trailersVisible": 8,
          "trailerParkingCapacity": 40,
          "truckGateCount": 1,
          "buildingCount": 6,
          "siteAreaAcres": 740,
          "railServed": false
        }
      }
    },
    {
      "type": "Feature",
      "geometry": {
        "type": "Polygon",
        "coordinates": [
          [
            [
              -83.166268,
              42.311472
            ],
            [
              -83.166817,
              42.306292
            ],
            [
              -83.158852,
              42.305581
            ],
            [
              -83.157753,
              42.311472
            ],
            [
              -83.166268,
              42.311472
            ]
          ]
        ]
      },
      "properties": {
        "account": "ford",
        "name": "Ford - Dearborn Stamping Plant, Dearborn MI",
        "type": "Stamping Plant",
        "archetype": "#6",
        "archetypeName": "Gate + GS (not BU sens.) + campus",
        "confidence": "medium",
        "zone": "perimeter",
        "truckGate": true,
        "guardShack": true,
        "remoteGs": false,
        "fastLaneOpportunity": false,
        "backupSensitive": false,
        "dropYard": false,
        "multipleFacilities": true,
        "scale": false,
        "shipRcvSeparate": false,
        "urbanRural": "Urban",
        "dockDoors": "0-10",
        "dropArea": "NONE",
        "yardMetrics": {
          "dockDoorCount": 8,
          "trailersVisible": 4,
          "trailerParkingCapacity": 15,
          "truckGateCount": 1,
          "buildingCount": 1,
          "siteAreaAcres": 35,
          "railServed": true
        }
      }
    },
    {
      "type": "Feature",
      "geometry": {
        "type": "Polygon",
        "coordinates": [
          [
            [
              -83.165719,
              42.310253
            ],
            [
              -83.165993,
              42.309034
            ],
            [
              -83.161873,
              42.308831
            ],
            [
              -83.161599,
              42.31005
            ],
            [
              -83.165719,
              42.310253
            ]
          ]
        ]
      },
      "properties": {
        "account": "ford",
        "name": "Ford - Dearborn Stamping Plant, Dearborn MI",
        "type": "Stamping Plant",
        "archetype": "#6",
        "archetypeName": "Gate + GS (not BU sens.) + campus",
        "confidence": "medium",
        "zone": "dockApron",
        "index": 1
      }
    },
    {
      "type": "Feature",
      "geometry": {
        "type": "Polygon",
        "coordinates": [
          [
            [
              -83.165666,
              42.314831
            ],
            [
              -83.165666,
              42.307722
            ],
            [
              -83.160723,
              42.307722
            ],
            [
              -83.160585,
              42.312292
            ],
            [
              -83.161547,
              42.314729
            ],
            [
              -83.165666,
              42.314831
            ]
          ]
        ]
      },
      "properties": {
        "account": "ford",
        "name": "Ford - Dearborn Engine Plant, Dearborn MI",
        "type": "Engine Plant",
        "archetype": "#6",
        "archetypeName": "Gate + GS (not BU sens.) + campus",
        "confidence": "medium",
        "zone": "perimeter",
        "truckGate": true,
        "guardShack": true,
        "remoteGs": false,
        "fastLaneOpportunity": false,
        "backupSensitive": false,
        "dropYard": false,
        "multipleFacilities": true,
        "scale": false,
        "shipRcvSeparate": false,
        "urbanRural": "Urban",
        "dockDoors": "0-10",
        "dropArea": "NONE",
        "yardMetrics": {
          "dockDoorCount": 7,
          "trailersVisible": 3,
          "trailerParkingCapacity": 12,
          "truckGateCount": 1,
          "buildingCount": 1,
          "siteAreaAcres": 31,
          "railServed": true
        }
      }
    },
    {
      "type": "Feature",
      "geometry": {
        "type": "Polygon",
        "coordinates": [
          [
            [
              -81.824921,
              41.41851
            ],
            [
              -81.824921,
              41.413566
            ],
            [
              -81.819703,
              41.413566
            ],
            [
              -81.819703,
              41.41851
            ],
            [
              -81.824921,
              41.41851
            ]
          ]
        ]
      },
      "properties": {
        "account": "ford",
        "name": "Ford - Cleveland Engine Plant, Brook Park OH",
        "type": "Engine Plant",
        "archetype": "#7",
        "archetypeName": "Gate + GS (not BU sens.) + fast lane opp",
        "confidence": "medium",
        "zone": "perimeter",
        "truckGate": true,
        "guardShack": true,
        "remoteGs": false,
        "fastLaneOpportunity": true,
        "backupSensitive": false,
        "dropYard": true,
        "multipleFacilities": false,
        "scale": false,
        "shipRcvSeparate": false,
        "urbanRural": "Urban",
        "dockDoors": "10-25",
        "dropArea": "10-25",
        "yardMetrics": {
          "dockDoorCount": 18,
          "trailersVisible": 19,
          "trailerParkingCapacity": 35,
          "truckGateCount": 1,
          "buildingCount": 2,
          "siteAreaAcres": 95,
          "railServed": true
        }
      }
    },
    {
      "type": "Feature",
      "geometry": {
        "type": "Polygon",
        "coordinates": [
          [
            [
              -84.09012,
              40.779996
            ],
            [
              -84.09012,
              40.774172
            ],
            [
              -84.082704,
              40.774172
            ],
            [
              -84.082704,
              40.779996
            ],
            [
              -84.09012,
              40.779996
            ]
          ]
        ]
      },
      "properties": {
        "account": "ford",
        "name": "Ford - Lima Engine Plant, Lima OH",
        "type": "Engine Plant",
        "archetype": "#7",
        "archetypeName": "Gate + GS (not BU sens.) + fast lane opp",
        "confidence": "medium",
        "zone": "perimeter",
        "truckGate": true,
        "guardShack": true,
        "remoteGs": false,
        "fastLaneOpportunity": true,
        "backupSensitive": false,
        "dropYard": true,
        "multipleFacilities": false,
        "scale": false,
        "shipRcvSeparate": false,
        "urbanRural": "Rural",
        "dockDoors": "10-25",
        "dropArea": "25-50",
        "yardMetrics": {
          "dockDoorCount": 20,
          "trailersVisible": 30,
          "trailerParkingCapacity": 50,
          "truckGateCount": 1,
          "buildingCount": 1,
          "siteAreaAcres": 219,
          "railServed": true
        }
      }
    },
    {
      "type": "Feature",
      "geometry": {
        "type": "Polygon",
        "coordinates": [
          [
            [
              -83.401845,
              42.374341
            ],
            [
              -83.401845,
              42.367442
            ],
            [
              -83.392507,
              42.367442
            ],
            [
              -83.392507,
              42.374341
            ],
            [
              -83.401845,
              42.374341
            ]
          ]
        ]
      },
      "properties": {
        "account": "ford",
        "name": "Ford - Livonia Transmission Plant, Livonia MI",
        "type": "Transmission Plant",
        "archetype": "#6",
        "archetypeName": "Gate + GS (not BU sens.) + campus",
        "confidence": "medium",
        "zone": "perimeter",
        "truckGate": true,
        "guardShack": true,
        "remoteGs": false,
        "fastLaneOpportunity": false,
        "backupSensitive": false,
        "dropYard": true,
        "multipleFacilities": true,
        "scale": false,
        "shipRcvSeparate": true,
        "urbanRural": "Urban",
        "dockDoors": "10-25",
        "dropArea": "10-25",
        "yardMetrics": {
          "dockDoorCount": 22,
          "trailersVisible": 14,
          "trailerParkingCapacity": 30,
          "truckGateCount": 2,
          "buildingCount": 3,
          "siteAreaAcres": 190,
          "railServed": true
        }
      }
    },
    {
      "type": "Feature",
      "geometry": {
        "type": "Polygon",
        "coordinates": [
          [
            [
              -84.430743,
              39.275267
            ],
            [
              -84.430743,
              39.268888
            ],
            [
              -84.421405,
              39.268888
            ],
            [
              -84.421954,
              39.275267
            ],
            [
              -84.430743,
              39.275267
            ]
          ]
        ]
      },
      "properties": {
        "account": "ford",
        "name": "Ford - Sharonville Transmission Plant, Sharonville OH",
        "type": "Transmission Plant",
        "archetype": "#9",
        "archetypeName": "Gate + No GS (remote check-in)",
        "confidence": "high",
        "zone": "perimeter",
        "truckGate": true,
        "guardShack": false,
        "remoteGs": true,
        "fastLaneOpportunity": true,
        "backupSensitive": false,
        "dropYard": true,
        "multipleFacilities": false,
        "scale": false,
        "shipRcvSeparate": true,
        "urbanRural": "Urban",
        "dockDoors": "25-50",
        "dropArea": "50+",
        "yardMetrics": {
          "dockDoorCount": 30,
          "trailersVisible": 95,
          "trailerParkingCapacity": 130,
          "truckGateCount": 2,
          "buildingCount": 1,
          "siteAreaAcres": 168,
          "railServed": true
        }
      }
    },
    {
      "type": "Feature",
      "geometry": {
        "type": "Polygon",
        "coordinates": [
          [
            [
              -84.430743,
              39.271014
            ],
            [
              -84.430743,
              39.268888
            ],
            [
              -84.421954,
              39.268888
            ],
            [
              -84.421954,
              39.271014
            ],
            [
              -84.430743,
              39.271014
            ]
          ]
        ]
      },
      "properties": {
        "account": "ford",
        "name": "Ford - Sharonville Transmission Plant, Sharonville OH",
        "type": "Transmission Plant",
        "archetype": "#9",
        "archetypeName": "Gate + No GS (remote check-in)",
        "confidence": "high",
        "zone": "dropYard",
        "index": 1
      }
    },
    {
      "type": "Feature",
      "geometry": {
        "type": "Polygon",
        "coordinates": [
          [
            [
              -83.039345,
              42.60063
            ],
            [
              -83.039345,
              42.594969
            ],
            [
              -83.031655,
              42.594969
            ],
            [
              -83.031655,
              42.60063
            ],
            [
              -83.039345,
              42.60063
            ]
          ]
        ]
      },
      "properties": {
        "account": "ford",
        "name": "Ford - Van Dyke Electric Powertrain Center, Sterling Heights MI",
        "type": "Powertrain / Transmission Plant",
        "archetype": "#7",
        "archetypeName": "Gate + GS (not BU sens.) + fast lane opp",
        "confidence": "medium",
        "zone": "perimeter",
        "truckGate": true,
        "guardShack": true,
        "remoteGs": false,
        "fastLaneOpportunity": true,
        "backupSensitive": false,
        "dropYard": true,
        "multipleFacilities": false,
        "scale": false,
        "shipRcvSeparate": false,
        "urbanRural": "Urban",
        "dockDoors": "10-25",
        "dropArea": "10-25",
        "yardMetrics": {
          "dockDoorCount": 20,
          "trailersVisible": 12,
          "trailerParkingCapacity": 30,
          "truckGateCount": 2,
          "buildingCount": 2,
          "siteAreaAcres": 166,
          "railServed": true
        }
      }
    },
    {
      "type": "Feature",
      "geometry": {
        "type": "Polygon",
        "coordinates": [
          [
            [
              -83.050463,
              42.586411
            ],
            [
              -83.050463,
              42.579535
            ],
            [
              -83.042223,
              42.579535
            ],
            [
              -83.042223,
              42.586411
            ],
            [
              -83.050463,
              42.586411
            ]
          ]
        ]
      },
      "properties": {
        "account": "ford",
        "name": "Ford - Sterling Axle Plant, Sterling Heights MI",
        "type": "Axle / Components Plant",
        "archetype": "#1",
        "archetypeName": "Gate + GS (not BU sens.)",
        "confidence": "medium",
        "zone": "perimeter",
        "truckGate": true,
        "guardShack": true,
        "remoteGs": false,
        "fastLaneOpportunity": false,
        "backupSensitive": false,
        "dropYard": true,
        "multipleFacilities": false,
        "scale": false,
        "shipRcvSeparate": false,
        "urbanRural": "Urban",
        "dockDoors": "10-25",
        "dropArea": "10-25",
        "yardMetrics": {
          "dockDoorCount": 22,
          "trailersVisible": 18,
          "trailerParkingCapacity": 40,
          "truckGateCount": 1,
          "buildingCount": 1,
          "siteAreaAcres": 162,
          "railServed": true
        }
      }
    },
    {
      "type": "Feature",
      "geometry": {
        "type": "Polygon",
        "coordinates": [
          [
            [
              -83.559197,
              42.202862
            ],
            [
              -83.559197,
              42.19513
            ],
            [
              -83.552605,
              42.19513
            ],
            [
              -83.552605,
              42.202862
            ],
            [
              -83.559197,
              42.202862
            ]
          ]
        ]
      },
      "properties": {
        "account": "ford",
        "name": "Ford - Rawsonville Components Plant, Ypsilanti MI",
        "type": "Components / Battery Plant",
        "archetype": "#9",
        "archetypeName": "Gate + No GS (remote check-in)",
        "confidence": "high",
        "zone": "perimeter",
        "truckGate": true,
        "guardShack": false,
        "remoteGs": true,
        "fastLaneOpportunity": true,
        "backupSensitive": false,
        "dropYard": true,
        "multipleFacilities": false,
        "scale": false,
        "shipRcvSeparate": true,
        "urbanRural": "Rural",
        "dockDoors": "25-50",
        "dropArea": "25-50",
        "yardMetrics": {
          "dockDoorCount": 35,
          "trailersVisible": 30,
          "trailerParkingCapacity": 70,
          "truckGateCount": 2,
          "buildingCount": 2,
          "siteAreaAcres": 145,
          "railServed": false
        }
      }
    },
    {
      "type": "Feature",
      "geometry": {
        "type": "Polygon",
        "coordinates": [
          [
            [
              -78.848842,
              42.789322
            ],
            [
              -78.849392,
              42.783678
            ],
            [
              -78.840603,
              42.783678
            ],
            [
              -78.840053,
              42.789322
            ],
            [
              -78.848842,
              42.789322
            ]
          ]
        ]
      },
      "properties": {
        "account": "ford",
        "name": "Ford - Buffalo Stamping Plant, Hamburg NY",
        "type": "Stamping Plant",
        "archetype": "#9",
        "archetypeName": "Gate + No GS (remote check-in)",
        "confidence": "medium",
        "zone": "perimeter",
        "truckGate": true,
        "guardShack": false,
        "remoteGs": true,
        "fastLaneOpportunity": true,
        "backupSensitive": false,
        "dropYard": false,
        "multipleFacilities": false,
        "scale": false,
        "shipRcvSeparate": false,
        "urbanRural": "Urban",
        "dockDoors": "25-50",
        "dropArea": "0-10",
        "yardMetrics": {
          "dockDoorCount": 25,
          "trailersVisible": 8,
          "trailerParkingCapacity": 30,
          "truckGateCount": 1,
          "buildingCount": 1,
          "siteAreaAcres": 165,
          "railServed": true
        }
      }
    },
    {
      "type": "Feature",
      "geometry": {
        "type": "Polygon",
        "coordinates": [
          [
            [
              -87.606695,
              41.505618
            ],
            [
              -87.606695,
              41.499859
            ],
            [
              -87.599004,
              41.499859
            ],
            [
              -87.599004,
              41.505618
            ],
            [
              -87.606695,
              41.505618
            ]
          ]
        ]
      },
      "properties": {
        "account": "ford",
        "name": "Ford - Chicago Stamping Plant, Chicago Heights IL",
        "type": "Stamping Plant",
        "archetype": "#4",
        "archetypeName": "Gate + GS (BU sens.)",
        "confidence": "high",
        "zone": "perimeter",
        "truckGate": true,
        "guardShack": true,
        "remoteGs": false,
        "fastLaneOpportunity": false,
        "backupSensitive": true,
        "dropYard": true,
        "multipleFacilities": false,
        "scale": false,
        "shipRcvSeparate": true,
        "urbanRural": "Urban",
        "dockDoors": "25-50",
        "dropArea": "50+",
        "yardMetrics": {
          "dockDoorCount": 45,
          "trailersVisible": 70,
          "trailerParkingCapacity": 110,
          "truckGateCount": 1,
          "buildingCount": 2,
          "siteAreaAcres": 154,
          "railServed": true
        }
      }
    },
    {
      "type": "Feature",
      "geometry": {
        "type": "Polygon",
        "coordinates": [
          [
            [
              -87.606145,
              41.504796
            ],
            [
              -87.606145,
              41.501093
            ],
            [
              -87.603399,
              41.501093
            ],
            [
              -87.603399,
              41.504796
            ],
            [
              -87.606145,
              41.504796
            ]
          ]
        ]
      },
      "properties": {
        "account": "ford",
        "name": "Ford - Chicago Stamping Plant, Chicago Heights IL",
        "type": "Stamping Plant",
        "archetype": "#4",
        "archetypeName": "Gate + GS (BU sens.)",
        "confidence": "high",
        "zone": "dropYard",
        "index": 1
      }
    },
    {
      "type": "Feature",
      "geometry": {
        "type": "Polygon",
        "coordinates": [
          [
            [
              -83.338747,
              42.375235
            ],
            [
              -83.338747,
              42.369148
            ],
            [
              -83.333253,
              42.369148
            ],
            [
              -83.333253,
              42.375235
            ],
            [
              -83.338747,
              42.375235
            ]
          ]
        ]
      },
      "properties": {
        "account": "ford",
        "name": "Ford - National Parts Distribution Center, Livonia MI",
        "type": "Parts Distribution Center",
        "archetype": "#9",
        "archetypeName": "Gate + No GS (remote check-in)",
        "confidence": "high",
        "zone": "perimeter",
        "truckGate": true,
        "guardShack": false,
        "remoteGs": true,
        "fastLaneOpportunity": true,
        "backupSensitive": false,
        "dropYard": true,
        "multipleFacilities": true,
        "scale": false,
        "shipRcvSeparate": false,
        "urbanRural": "Urban",
        "dockDoors": "50+",
        "dropArea": "50+",
        "yardMetrics": {
          "dockDoorCount": 70,
          "trailersVisible": 90,
          "trailerParkingCapacity": 160,
          "truckGateCount": 1,
          "buildingCount": 2,
          "siteAreaAcres": 100,
          "railServed": true
        }
      }
    },
    {
      "type": "Feature",
      "geometry": {
        "type": "Polygon",
        "coordinates": [
          [
            [
              -83.333253,
              42.37352
            ],
            [
              -83.33372,
              42.37352
            ],
            [
              -83.33372,
              42.37305
            ],
            [
              -83.333253,
              42.37305
            ],
            [
              -83.333253,
              42.37352
            ]
          ]
        ]
      },
      "properties": {
        "account": "ford",
        "name": "Ford - National Parts Distribution Center, Livonia MI",
        "type": "Parts Distribution Center",
        "archetype": "#9",
        "archetypeName": "Gate + No GS (remote check-in)",
        "confidence": "high",
        "zone": "truckGate"
      }
    },
    {
      "type": "Feature",
      "geometry": {
        "type": "Polygon",
        "coordinates": [
          [
            [
              -83.3385,
              42.3752
            ],
            [
              -83.3385,
              42.37425
            ],
            [
              -83.3342,
              42.37425
            ],
            [
              -83.3342,
              42.3752
            ],
            [
              -83.3385,
              42.3752
            ]
          ]
        ]
      },
      "properties": {
        "account": "ford",
        "name": "Ford - National Parts Distribution Center, Livonia MI",
        "type": "Parts Distribution Center",
        "archetype": "#9",
        "archetypeName": "Gate + No GS (remote check-in)",
        "confidence": "high",
        "zone": "dropYard",
        "index": 1
      }
    },
    {
      "type": "Feature",
      "geometry": {
        "type": "Polygon",
        "coordinates": [
          [
            [
              -83.338747,
              42.374423
            ],
            [
              -83.338747,
              42.369959
            ],
            [
              -83.337099,
              42.369959
            ],
            [
              -83.337099,
              42.374423
            ],
            [
              -83.338747,
              42.374423
            ]
          ]
        ]
      },
      "properties": {
        "account": "ford",
        "name": "Ford - National Parts Distribution Center, Livonia MI",
        "type": "Parts Distribution Center",
        "archetype": "#9",
        "archetypeName": "Gate + No GS (remote check-in)",
        "confidence": "high",
        "zone": "dockApron",
        "index": 1
      }
    },
    {
      "type": "Feature",
      "geometry": {
        "type": "Polygon",
        "coordinates": [
          [
            [
              -83.286693,
              42.178435
            ],
            [
              -83.286693,
              42.172736
            ],
            [
              -83.277904,
              42.172736
            ],
            [
              -83.278453,
              42.178435
            ],
            [
              -83.286693,
              42.178435
            ]
          ]
        ]
      },
      "properties": {
        "account": "ford",
        "name": "Ford - Parts Redistribution Center, Brownstown Township MI",
        "type": "Parts Distribution / Redistribution Center",
        "archetype": "#9",
        "archetypeName": "Gate + No GS (remote check-in)",
        "confidence": "high",
        "zone": "perimeter",
        "truckGate": true,
        "guardShack": false,
        "remoteGs": true,
        "fastLaneOpportunity": true,
        "backupSensitive": false,
        "dropYard": true,
        "multipleFacilities": false,
        "scale": false,
        "shipRcvSeparate": true,
        "urbanRural": "Rural",
        "dockDoors": "50+",
        "dropArea": "50+",
        "yardMetrics": {
          "dockDoorCount": 90,
          "trailersVisible": 200,
          "trailerParkingCapacity": 350,
          "truckGateCount": 1,
          "buildingCount": 1,
          "siteAreaAcres": 200,
          "railServed": false
        }
      }
    },
    {
      "type": "Feature",
      "geometry": {
        "type": "Polygon",
        "coordinates": [
          [
            [
              -83.2862,
              42.17436
            ],
            [
              -83.2862,
              42.1741
            ],
            [
              -83.28555,
              42.1741
            ],
            [
              -83.28555,
              42.17436
            ],
            [
              -83.2862,
              42.17436
            ]
          ]
        ]
      },
      "properties": {
        "account": "ford",
        "name": "Ford - Parts Redistribution Center, Brownstown Township MI",
        "type": "Parts Distribution / Redistribution Center",
        "archetype": "#9",
        "archetypeName": "Gate + No GS (remote check-in)",
        "confidence": "high",
        "zone": "truckGate"
      }
    },
    {
      "type": "Feature",
      "geometry": {
        "type": "Polygon",
        "coordinates": [
          [
            [
              -83.286693,
              42.173957
            ],
            [
              -83.286693,
              42.171922
            ],
            [
              -83.278453,
              42.171922
            ],
            [
              -83.278453,
              42.173957
            ],
            [
              -83.286693,
              42.173957
            ]
          ]
        ]
      },
      "properties": {
        "account": "ford",
        "name": "Ford - Parts Redistribution Center, Brownstown Township MI",
        "type": "Parts Distribution / Redistribution Center",
        "archetype": "#9",
        "archetypeName": "Gate + No GS (remote check-in)",
        "confidence": "high",
        "zone": "dropYard",
        "index": 1
      }
    },
    {
      "type": "Feature",
      "geometry": {
        "type": "Polygon",
        "coordinates": [
          [
            [
              -83.2849,
              42.17908
            ],
            [
              -83.2849,
              42.17888
            ],
            [
              -83.2796,
              42.17888
            ],
            [
              -83.2796,
              42.17908
            ],
            [
              -83.2849,
              42.17908
            ]
          ]
        ]
      },
      "properties": {
        "account": "ford",
        "name": "Ford - Parts Redistribution Center, Brownstown Township MI",
        "type": "Parts Distribution / Redistribution Center",
        "archetype": "#9",
        "archetypeName": "Gate + No GS (remote check-in)",
        "confidence": "high",
        "zone": "dockApron",
        "index": 1
      }
    },
    {
      "type": "Feature",
      "geometry": {
        "type": "Polygon",
        "coordinates": [
          [
            [
              -117.555247,
              34.103311
            ],
            [
              -117.555247,
              34.099218
            ],
            [
              -117.550303,
              34.099218
            ],
            [
              -117.550303,
              34.103311
            ],
            [
              -117.555247,
              34.103311
            ]
          ]
        ]
      },
      "properties": {
        "account": "ford",
        "name": "Ford - Parts Distribution Center, Rancho Cucamonga CA",
        "type": "Parts Distribution Center",
        "archetype": "#9",
        "archetypeName": "Gate + No GS (remote check-in)",
        "confidence": "high",
        "zone": "perimeter",
        "truckGate": true,
        "guardShack": false,
        "remoteGs": true,
        "fastLaneOpportunity": true,
        "backupSensitive": false,
        "dropYard": true,
        "multipleFacilities": false,
        "scale": false,
        "shipRcvSeparate": true,
        "urbanRural": "Urban",
        "dockDoors": "50+",
        "dropArea": "25-50",
        "yardMetrics": {
          "dockDoorCount": 70,
          "trailersVisible": 55,
          "trailerParkingCapacity": 90,
          "truckGateCount": 2,
          "buildingCount": 1,
          "siteAreaAcres": 28,
          "railServed": false
        }
      }
    },
    {
      "type": "Feature",
      "geometry": {
        "type": "Polygon",
        "coordinates": [
          [
            [
              -117.55418,
              34.09963
            ],
            [
              -117.55418,
              34.09938
            ],
            [
              -117.55402,
              34.09938
            ],
            [
              -117.55402,
              34.09963
            ],
            [
              -117.55418,
              34.09963
            ]
          ]
        ]
      },
      "properties": {
        "account": "ford",
        "name": "Ford - Parts Distribution Center, Rancho Cucamonga CA",
        "type": "Parts Distribution Center",
        "archetype": "#9",
        "archetypeName": "Gate + No GS (remote check-in)",
        "confidence": "high",
        "zone": "truckGate"
      }
    },
    {
      "type": "Feature",
      "geometry": {
        "type": "Polygon",
        "coordinates": [
          [
            [
              -117.5549,
              34.09972
            ],
            [
              -117.5549,
              34.09948
            ],
            [
              -117.55075,
              34.09948
            ],
            [
              -117.55075,
              34.09972
            ],
            [
              -117.5549,
              34.09972
            ]
          ]
        ]
      },
      "properties": {
        "account": "ford",
        "name": "Ford - Parts Distribution Center, Rancho Cucamonga CA",
        "type": "Parts Distribution Center",
        "archetype": "#9",
        "archetypeName": "Gate + No GS (remote check-in)",
        "confidence": "high",
        "zone": "dropYard",
        "index": 1
      }
    },
    {
      "type": "Feature",
      "geometry": {
        "type": "Polygon",
        "coordinates": [
          [
            [
              -117.555247,
              34.100696
            ],
            [
              -117.555247,
              34.099673
            ],
            [
              -117.550852,
              34.099673
            ],
            [
              -117.550852,
              34.100696
            ],
            [
              -117.555247,
              34.100696
            ]
          ]
        ]
      },
      "properties": {
        "account": "ford",
        "name": "Ford - Parts Distribution Center, Rancho Cucamonga CA",
        "type": "Parts Distribution Center",
        "archetype": "#9",
        "archetypeName": "Gate + No GS (remote check-in)",
        "confidence": "high",
        "zone": "dockApron",
        "index": 1
      }
    }
  ]
}
