{
  "type": "FeatureCollection",
  "features": [
    {
      "type": "Feature",
      "geometry": {
        "type": "Polygon",
        "coordinates": [
          [
            [
              -80.698965,
              35.733784
            ],
            [
              -80.699789,
              35.730885
            ],
            [
              -80.694021,
              35.728433
            ],
            [
              -80.685781,
              35.72977
            ],
            [
              -80.686605,
              35.733115
            ],
            [
              -80.698965,
              35.733784
            ]
          ]
        ]
      },
      "properties": {
        "account": "daimler-truck-north-america",
        "name": "Cleveland Truck Manufacturing Plant - Cleveland NC",
        "type": "Truck assembly plant",
        "archetype": "#9",
        "archetypeName": "Gate + No GS (remote check-in)",
        "confidence": "high",
        "zone": "perimeter",
        "truckGate": true,
        "guardShack": false,
        "remoteGs": true,
        "fastLaneOpportunity": true,
        "backupSensitive": false,
        "dropYard": true,
        "multipleFacilities": true,
        "scale": false,
        "shipRcvSeparate": true,
        "urbanRural": "Rural",
        "dockDoors": "50+",
        "dropArea": "50+",
        "yardMetrics": {
          "dockDoorCount": 60,
          "trailersVisible": 320,
          "trailerParkingCapacity": 450,
          "truckGateCount": 1,
          "buildingCount": 6,
          "siteAreaAcres": 200,
          "railServed": true
        }
      }
    },
    {
      "type": "Feature",
      "geometry": {
        "type": "Polygon",
        "coordinates": [
          [
            [
              -80.693747,
              35.729102
            ],
            [
              -80.693747,
              35.72821
            ],
            [
              -80.692099,
              35.72821
            ],
            [
              -80.692099,
              35.729102
            ],
            [
              -80.693747,
              35.729102
            ]
          ]
        ]
      },
      "properties": {
        "account": "daimler-truck-north-america",
        "name": "Cleveland Truck Manufacturing Plant - Cleveland NC",
        "type": "Truck assembly plant",
        "archetype": "#9",
        "archetypeName": "Gate + No GS (remote check-in)",
        "confidence": "high",
        "zone": "truckGate"
      }
    },
    {
      "type": "Feature",
      "geometry": {
        "type": "Polygon",
        "coordinates": [
          [
            [
              -80.693197,
              35.730885
            ],
            [
              -80.693197,
              35.730216
            ],
            [
              -80.686605,
              35.729993
            ],
            [
              -80.686605,
              35.730662
            ],
            [
              -80.693197,
              35.730885
            ]
          ]
        ]
      },
      "properties": {
        "account": "daimler-truck-north-america",
        "name": "Cleveland Truck Manufacturing Plant - Cleveland NC",
        "type": "Truck assembly plant",
        "archetype": "#9",
        "archetypeName": "Gate + No GS (remote check-in)",
        "confidence": "high",
        "zone": "dropYard",
        "index": 1
      }
    },
    {
      "type": "Feature",
      "geometry": {
        "type": "Polygon",
        "coordinates": [
          [
            [
              -80.693747,
              35.73122
            ],
            [
              -80.693747,
              35.730997
            ],
            [
              -80.68688,
              35.730774
            ],
            [
              -80.68688,
              35.730997
            ],
            [
              -80.693747,
              35.73122
            ]
          ]
        ]
      },
      "properties": {
        "account": "daimler-truck-north-america",
        "name": "Cleveland Truck Manufacturing Plant - Cleveland NC",
        "type": "Truck assembly plant",
        "archetype": "#9",
        "archetypeName": "Gate + No GS (remote check-in)",
        "confidence": "high",
        "zone": "dockApron",
        "index": 1
      }
    },
    {
      "type": "Feature",
      "geometry": {
        "type": "Polygon",
        "coordinates": [
          [
            [
              -81.006993,
              35.325241
            ],
            [
              -81.006993,
              35.322552
            ],
            [
              -81.000951,
              35.321655
            ],
            [
              -80.997105,
              35.322552
            ],
            [
              -80.995458,
              35.325241
            ],
            [
              -80.998204,
              35.329274
            ],
            [
              -81.002873,
              35.328826
            ],
            [
              -81.006993,
              35.325241
            ]
          ]
        ]
      },
      "properties": {
        "account": "daimler-truck-north-america",
        "name": "Mount Holly Truck Manufacturing Plant - Mount Holly NC",
        "type": "Truck assembly plant",
        "archetype": "#9",
        "archetypeName": "Gate + No GS (remote check-in)",
        "confidence": "medium",
        "zone": "perimeter",
        "truckGate": true,
        "guardShack": false,
        "remoteGs": true,
        "fastLaneOpportunity": false,
        "backupSensitive": false,
        "dropYard": true,
        "multipleFacilities": true,
        "scale": false,
        "shipRcvSeparate": true,
        "urbanRural": "Urban",
        "dockDoors": "25-50",
        "dropArea": "50+",
        "yardMetrics": {
          "dockDoorCount": 35,
          "trailersVisible": 130,
          "trailerParkingCapacity": 200,
          "truckGateCount": 1,
          "buildingCount": 4,
          "siteAreaAcres": 130,
          "railServed": true
        }
      }
    },
    {
      "type": "Feature",
      "geometry": {
        "type": "Polygon",
        "coordinates": [
          [
            [
              -81.000127,
              35.327482
            ],
            [
              -80.999303,
              35.326585
            ],
            [
              -80.997655,
              35.327258
            ],
            [
              -80.998479,
              35.328154
            ],
            [
              -81.000127,
              35.327482
            ]
          ]
        ]
      },
      "properties": {
        "account": "daimler-truck-north-america",
        "name": "Mount Holly Truck Manufacturing Plant - Mount Holly NC",
        "type": "Truck assembly plant",
        "archetype": "#9",
        "archetypeName": "Gate + No GS (remote check-in)",
        "confidence": "medium",
        "zone": "truckGate"
      }
    },
    {
      "type": "Feature",
      "geometry": {
        "type": "Polygon",
        "coordinates": [
          [
            [
              -80.999303,
              35.328378
            ],
            [
              -81.000401,
              35.327034
            ],
            [
              -80.997105,
              35.325241
            ],
            [
              -80.996007,
              35.326585
            ],
            [
              -80.999303,
              35.328378
            ]
          ]
        ]
      },
      "properties": {
        "account": "daimler-truck-north-america",
        "name": "Mount Holly Truck Manufacturing Plant - Mount Holly NC",
        "type": "Truck assembly plant",
        "archetype": "#9",
        "archetypeName": "Gate + No GS (remote check-in)",
        "confidence": "medium",
        "zone": "dropYard",
        "index": 1
      }
    },
    {
      "type": "Feature",
      "geometry": {
        "type": "Polygon",
        "coordinates": [
          [
            [
              -81.004247,
              35.324569
            ],
            [
              -81.004796,
              35.323896
            ],
            [
              -81.0015,
              35.322552
            ],
            [
              -81.000951,
              35.323224
            ],
            [
              -81.004247,
              35.324569
            ]
          ]
        ]
      },
      "properties": {
        "account": "daimler-truck-north-america",
        "name": "Mount Holly Truck Manufacturing Plant - Mount Holly NC",
        "type": "Truck assembly plant",
        "archetype": "#9",
        "archetypeName": "Gate + No GS (remote check-in)",
        "confidence": "medium",
        "zone": "dockApron",
        "index": 1
      }
    },
    {
      "type": "Feature",
      "geometry": {
        "type": "Polygon",
        "coordinates": [
          [
            [
              -122.718289,
              45.574254
            ],
            [
              -122.719525,
              45.5731
            ],
            [
              -122.718015,
              45.570985
            ],
            [
              -122.712796,
              45.572139
            ],
            [
              -122.713071,
              45.574638
            ],
            [
              -122.718289,
              45.574254
            ]
          ]
        ]
      },
      "properties": {
        "account": "daimler-truck-north-america",
        "name": "Portland Truck Manufacturing Plant - Portland OR",
        "type": "Truck assembly plant (battery-electric)",
        "archetype": "#3",
        "archetypeName": "No Gate / No GS",
        "confidence": "medium",
        "zone": "perimeter",
        "truckGate": false,
        "guardShack": false,
        "remoteGs": false,
        "fastLaneOpportunity": false,
        "backupSensitive": true,
        "dropYard": false,
        "multipleFacilities": true,
        "scale": false,
        "shipRcvSeparate": true,
        "urbanRural": "Urban",
        "dockDoors": "25-50",
        "dropArea": "10-25",
        "yardMetrics": {
          "dockDoorCount": 45,
          "trailersVisible": 90,
          "trailerParkingCapacity": 130,
          "truckGateCount": 0,
          "buildingCount": 5,
          "siteAreaAcres": 72,
          "railServed": true
        }
      }
    },
    {
      "type": "Feature",
      "geometry": {
        "type": "Polygon",
        "coordinates": [
          [
            [
              -122.719525,
              45.573388
            ],
            [
              -122.719251,
              45.572908
            ],
            [
              -122.718564,
              45.5731
            ],
            [
              -122.718839,
              45.573581
            ],
            [
              -122.719525,
              45.573388
            ]
          ]
        ]
      },
      "properties": {
        "account": "daimler-truck-north-america",
        "name": "Portland Truck Manufacturing Plant - Portland OR",
        "type": "Truck assembly plant (battery-electric)",
        "archetype": "#3",
        "archetypeName": "No Gate / No GS",
        "confidence": "medium",
        "zone": "truckGate"
      }
    },
    {
      "type": "Feature",
      "geometry": {
        "type": "Polygon",
        "coordinates": [
          [
            [
              -122.712247,
              45.574638
            ],
            [
              -122.712247,
              45.5731
            ],
            [
              -122.7095,
              45.5731
            ],
            [
              -122.7095,
              45.574638
            ],
            [
              -122.712247,
              45.574638
            ]
          ]
        ]
      },
      "properties": {
        "account": "daimler-truck-north-america",
        "name": "Portland Truck Manufacturing Plant - Portland OR",
        "type": "Truck assembly plant (battery-electric)",
        "archetype": "#3",
        "archetypeName": "No Gate / No GS",
        "confidence": "medium",
        "zone": "dropYard",
        "index": 1
      }
    },
    {
      "type": "Feature",
      "geometry": {
        "type": "Polygon",
        "coordinates": [
          [
            [
              -122.718289,
              45.574254
            ],
            [
              -122.718289,
              45.573773
            ],
            [
              -122.713345,
              45.574061
            ],
            [
              -122.713345,
              45.574542
            ],
            [
              -122.718289,
              45.574254
            ]
          ]
        ]
      },
      "properties": {
        "account": "daimler-truck-north-america",
        "name": "Portland Truck Manufacturing Plant - Portland OR",
        "type": "Truck assembly plant (battery-electric)",
        "archetype": "#3",
        "archetypeName": "No Gate / No GS",
        "confidence": "medium",
        "zone": "dockApron",
        "index": 1
      }
    },
    {
      "type": "Feature",
      "geometry": {
        "type": "Polygon",
        "coordinates": [
          [
            [
              -80.025097,
              35.943868
            ],
            [
              -80.025235,
              35.942979
            ],
            [
              -80.023449,
              35.942312
            ],
            [
              -80.019055,
              35.944758
            ],
            [
              -80.020428,
              35.946314
            ],
            [
              -80.025097,
              35.943868
            ]
          ]
        ]
      },
      "properties": {
        "account": "daimler-truck-north-america",
        "name": "Thomas Built Buses Manufacturing Plant - High Point NC",
        "type": "Bus assembly plant",
        "archetype": "#3",
        "archetypeName": "No Gate / No GS",
        "confidence": "medium",
        "zone": "perimeter",
        "truckGate": false,
        "guardShack": false,
        "remoteGs": false,
        "fastLaneOpportunity": false,
        "backupSensitive": true,
        "dropYard": false,
        "multipleFacilities": true,
        "scale": false,
        "shipRcvSeparate": true,
        "urbanRural": "Urban",
        "dockDoors": "25-50",
        "dropArea": "10-25",
        "yardMetrics": {
          "dockDoorCount": 25,
          "trailersVisible": 50,
          "trailerParkingCapacity": 80,
          "truckGateCount": 0,
          "buildingCount": 8,
          "siteAreaAcres": 80,
          "railServed": true
        }
      }
    },
    {
      "type": "Feature",
      "geometry": {
        "type": "Polygon",
        "coordinates": [
          [
            [
              -80.024823,
              35.943424
            ],
            [
              -80.024273,
              35.942868
            ],
            [
              -80.022625,
              35.943868
            ],
            [
              -80.023175,
              35.944424
            ],
            [
              -80.024823,
              35.943424
            ]
          ]
        ]
      },
      "properties": {
        "account": "daimler-truck-north-america",
        "name": "Thomas Built Buses Manufacturing Plant - High Point NC",
        "type": "Bus assembly plant",
        "archetype": "#3",
        "archetypeName": "No Gate / No GS",
        "confidence": "medium",
        "zone": "dropYard",
        "index": 1
      }
    },
    {
      "type": "Feature",
      "geometry": {
        "type": "Polygon",
        "coordinates": [
          [
            [
              -80.024823,
              35.944091
            ],
            [
              -80.024411,
              35.943646
            ],
            [
              -80.020291,
              35.945758
            ],
            [
              -80.020703,
              35.946203
            ],
            [
              -80.024823,
              35.944091
            ]
          ]
        ]
      },
      "properties": {
        "account": "daimler-truck-north-america",
        "name": "Thomas Built Buses Manufacturing Plant - High Point NC",
        "type": "Bus assembly plant",
        "archetype": "#3",
        "archetypeName": "No Gate / No GS",
        "confidence": "medium",
        "zone": "dockApron",
        "index": 1
      }
    },
    {
      "type": "Feature",
      "geometry": {
        "type": "Polygon",
        "coordinates": [
          [
            [
              -81.68512,
              35.074438
            ],
            [
              -81.684708,
              35.073651
            ],
            [
              -81.681687,
              35.073202
            ],
            [
              -81.679901,
              35.074438
            ],
            [
              -81.680176,
              35.077248
            ],
            [
              -81.682373,
              35.077473
            ],
            [
              -81.68512,
              35.074438
            ]
          ]
        ]
      },
      "properties": {
        "account": "daimler-truck-north-america",
        "name": "Freightliner Custom Chassis Manufacturing Plant - Gaffney SC",
        "type": "Custom chassis assembly plant",
        "archetype": "#6",
        "archetypeName": "Gate + GS (not BU sens.) + campus",
        "confidence": "medium",
        "zone": "perimeter",
        "truckGate": true,
        "guardShack": true,
        "remoteGs": false,
        "fastLaneOpportunity": false,
        "backupSensitive": false,
        "dropYard": true,
        "multipleFacilities": true,
        "scale": false,
        "shipRcvSeparate": true,
        "urbanRural": "Rural",
        "dockDoors": "10-25",
        "dropArea": "50+",
        "yardMetrics": {
          "dockDoorCount": 22,
          "trailersVisible": 70,
          "trailerParkingCapacity": 250,
          "truckGateCount": 1,
          "buildingCount": 5,
          "siteAreaAcres": 120,
          "railServed": true
        }
      }
    },
    {
      "type": "Feature",
      "geometry": {
        "type": "Polygon",
        "coordinates": [
          [
            [
              -81.68512,
              35.074101
            ],
            [
              -81.684845,
              35.073539
            ],
            [
              -81.684021,
              35.073764
            ],
            [
              -81.684296,
              35.074326
            ],
            [
              -81.68512,
              35.074101
            ]
          ]
        ]
      },
      "properties": {
        "account": "daimler-truck-north-america",
        "name": "Freightliner Custom Chassis Manufacturing Plant - Gaffney SC",
        "type": "Custom chassis assembly plant",
        "archetype": "#6",
        "archetypeName": "Gate + GS (not BU sens.) + campus",
        "confidence": "medium",
        "zone": "truckGate"
      }
    },
    {
      "type": "Feature",
      "geometry": {
        "type": "Polygon",
        "coordinates": [
          [
            [
              -81.682923,
              35.077023
            ],
            [
              -81.68306,
              35.076124
            ],
            [
              -81.680863,
              35.075899
            ],
            [
              -81.680725,
              35.076798
            ],
            [
              -81.682923,
              35.077023
            ]
          ]
        ]
      },
      "properties": {
        "account": "daimler-truck-north-america",
        "name": "Freightliner Custom Chassis Manufacturing Plant - Gaffney SC",
        "type": "Custom chassis assembly plant",
        "archetype": "#6",
        "archetypeName": "Gate + GS (not BU sens.) + campus",
        "confidence": "medium",
        "zone": "dropYard",
        "index": 1
      }
    },
    {
      "type": "Feature",
      "geometry": {
        "type": "Polygon",
        "coordinates": [
          [
            [
              -81.684571,
              35.074326
            ],
            [
              -81.684571,
              35.073876
            ],
            [
              -81.681687,
              35.073764
            ],
            [
              -81.681687,
              35.074213
            ],
            [
              -81.684571,
              35.074326
            ]
          ]
        ]
      },
      "properties": {
        "account": "daimler-truck-north-america",
        "name": "Freightliner Custom Chassis Manufacturing Plant - Gaffney SC",
        "type": "Custom chassis assembly plant",
        "archetype": "#6",
        "archetypeName": "Gate + GS (not BU sens.) + campus",
        "confidence": "medium",
        "zone": "dockApron",
        "index": 1
      }
    },
    {
      "type": "Feature",
      "geometry": {
        "type": "Polygon",
        "coordinates": [
          [
            [
              -83.276289,
              42.378262
            ],
            [
              -83.27574,
              42.374204
            ],
            [
              -83.264753,
              42.374204
            ],
            [
              -83.265852,
              42.378262
            ],
            [
              -83.276289,
              42.378262
            ]
          ]
        ]
      },
      "properties": {
        "account": "daimler-truck-north-america",
        "name": "Detroit Diesel Corporation Engine Plant - Redford MI",
        "type": "Engine / powertrain plant",
        "archetype": "#6",
        "archetypeName": "Gate + GS (not BU sens.) + campus",
        "confidence": "high",
        "zone": "perimeter",
        "truckGate": true,
        "guardShack": true,
        "remoteGs": false,
        "fastLaneOpportunity": true,
        "backupSensitive": false,
        "dropYard": true,
        "multipleFacilities": true,
        "scale": false,
        "shipRcvSeparate": true,
        "urbanRural": "Urban",
        "dockDoors": "25-50",
        "dropArea": "50+",
        "yardMetrics": {
          "dockDoorCount": 40,
          "trailersVisible": 120,
          "trailerParkingCapacity": 180,
          "truckGateCount": 1,
          "buildingCount": 4,
          "siteAreaAcres": 138,
          "railServed": true
        }
      }
    },
    {
      "type": "Feature",
      "geometry": {
        "type": "Polygon",
        "coordinates": [
          [
            [
              -83.2675,
              42.377856
            ],
            [
              -83.2675,
              42.375015
            ],
            [
              -83.264753,
              42.375015
            ],
            [
              -83.264753,
              42.377856
            ],
            [
              -83.2675,
              42.377856
            ]
          ]
        ]
      },
      "properties": {
        "account": "daimler-truck-north-america",
        "name": "Detroit Diesel Corporation Engine Plant - Redford MI",
        "type": "Engine / powertrain plant",
        "archetype": "#6",
        "archetypeName": "Gate + GS (not BU sens.) + campus",
        "confidence": "high",
        "zone": "dropYard",
        "index": 1
      }
    },
    {
      "type": "Feature",
      "geometry": {
        "type": "Polygon",
        "coordinates": [
          [
            [
              -83.27574,
              42.375015
            ],
            [
              -83.27574,
              42.374406
            ],
            [
              -83.2675,
              42.374406
            ],
            [
              -83.2675,
              42.375015
            ],
            [
              -83.27574,
              42.375015
            ]
          ]
        ]
      },
      "properties": {
        "account": "daimler-truck-north-america",
        "name": "Detroit Diesel Corporation Engine Plant - Redford MI",
        "type": "Engine / powertrain plant",
        "archetype": "#6",
        "archetypeName": "Gate + GS (not BU sens.) + campus",
        "confidence": "high",
        "zone": "dockApron",
        "index": 1
      }
    },
    {
      "type": "Feature",
      "geometry": {
        "type": "Polygon",
        "coordinates": [
          [
            [
              -81.207123,
              35.289121
            ],
            [
              -81.207397,
              35.288
            ],
            [
              -81.206573,
              35.286431
            ],
            [
              -81.203552,
              35.286655
            ],
            [
              -81.204101,
              35.289121
            ],
            [
              -81.207123,
              35.289121
            ]
          ]
        ]
      },
      "properties": {
        "account": "daimler-truck-north-america",
        "name": "Gastonia Components and Logistics - Gastonia NC",
        "type": "Component / parts subassembly and logistics plant",
        "archetype": "#6",
        "archetypeName": "Gate + GS (not BU sens.) + campus",
        "confidence": "high",
        "zone": "perimeter",
        "truckGate": true,
        "guardShack": true,
        "remoteGs": false,
        "fastLaneOpportunity": false,
        "backupSensitive": false,
        "dropYard": true,
        "multipleFacilities": true,
        "scale": false,
        "shipRcvSeparate": true,
        "urbanRural": "Rural",
        "dockDoors": "25-50",
        "dropArea": "25-50",
        "yardMetrics": {
          "dockDoorCount": 35,
          "trailersVisible": 70,
          "trailerParkingCapacity": 95,
          "truckGateCount": 1,
          "buildingCount": 2,
          "siteAreaAcres": 73,
          "railServed": false
        }
      }
    },
    {
      "type": "Feature",
      "geometry": {
        "type": "Polygon",
        "coordinates": [
          [
            [
              -81.205749,
              35.286655
            ],
            [
              -81.205749,
              35.286206
            ],
            [
              -81.204925,
              35.286206
            ],
            [
              -81.204925,
              35.286655
            ],
            [
              -81.205749,
              35.286655
            ]
          ]
        ]
      },
      "properties": {
        "account": "daimler-truck-north-america",
        "name": "Gastonia Components and Logistics - Gastonia NC",
        "type": "Component / parts subassembly and logistics plant",
        "archetype": "#6",
        "archetypeName": "Gate + GS (not BU sens.) + campus",
        "confidence": "high",
        "zone": "truckGate"
      }
    },
    {
      "type": "Feature",
      "geometry": {
        "type": "Polygon",
        "coordinates": [
          [
            [
              -81.204513,
              35.28744
            ],
            [
              -81.204513,
              35.286206
            ],
            [
              -81.203003,
              35.286206
            ],
            [
              -81.203003,
              35.28744
            ],
            [
              -81.204513,
              35.28744
            ]
          ]
        ]
      },
      "properties": {
        "account": "daimler-truck-north-america",
        "name": "Gastonia Components and Logistics - Gastonia NC",
        "type": "Component / parts subassembly and logistics plant",
        "archetype": "#6",
        "archetypeName": "Gate + GS (not BU sens.) + campus",
        "confidence": "high",
        "zone": "dropYard",
        "index": 1
      }
    },
    {
      "type": "Feature",
      "geometry": {
        "type": "Polygon",
        "coordinates": [
          [
            [
              -81.206848,
              35.287103
            ],
            [
              -81.206848,
              35.286767
            ],
            [
              -81.204513,
              35.286767
            ],
            [
              -81.204513,
              35.287103
            ],
            [
              -81.206848,
              35.287103
            ]
          ]
        ]
      },
      "properties": {
        "account": "daimler-truck-north-america",
        "name": "Gastonia Components and Logistics - Gastonia NC",
        "type": "Component / parts subassembly and logistics plant",
        "archetype": "#6",
        "archetypeName": "Gate + GS (not BU sens.) + campus",
        "confidence": "high",
        "zone": "dockApron",
        "index": 1
      }
    },
    {
      "type": "Feature",
      "geometry": {
        "type": "Polygon",
        "coordinates": [
          [
            [
              -81.569085,
              39.979202
            ],
            [
              -81.569085,
              39.977887
            ],
            [
              -81.565926,
              39.977887
            ],
            [
              -81.565926,
              39.979202
            ],
            [
              -81.569085,
              39.979202
            ]
          ]
        ]
      },
      "properties": {
        "account": "daimler-truck-north-america",
        "name": "Detroit Reman East - Byesville OH",
        "type": "Remanufacturing plant (engines/components)",
        "archetype": "#3",
        "archetypeName": "No Gate / No GS",
        "confidence": "medium",
        "zone": "perimeter",
        "truckGate": false,
        "guardShack": false,
        "remoteGs": false,
        "fastLaneOpportunity": false,
        "backupSensitive": false,
        "dropYard": false,
        "multipleFacilities": false,
        "scale": false,
        "shipRcvSeparate": false,
        "urbanRural": "Rural",
        "dockDoors": "10-25",
        "dropArea": "0-10",
        "yardMetrics": {
          "dockDoorCount": 14,
          "trailersVisible": 8,
          "trailerParkingCapacity": 20,
          "truckGateCount": 0,
          "buildingCount": 1,
          "siteAreaAcres": 17,
          "railServed": false
        }
      }
    },
    {
      "type": "Feature",
      "geometry": {
        "type": "Polygon",
        "coordinates": [
          [
            [
              -81.568947,
              39.979202
            ],
            [
              -81.568947,
              39.97815
            ],
            [
              -81.567986,
              39.97815
            ],
            [
              -81.567986,
              39.979202
            ],
            [
              -81.568947,
              39.979202
            ]
          ]
        ]
      },
      "properties": {
        "account": "daimler-truck-north-america",
        "name": "Detroit Reman East - Byesville OH",
        "type": "Remanufacturing plant (engines/components)",
        "archetype": "#3",
        "archetypeName": "No Gate / No GS",
        "confidence": "medium",
        "zone": "dropYard",
        "index": 1
      }
    },
    {
      "type": "Feature",
      "geometry": {
        "type": "Polygon",
        "coordinates": [
          [
            [
              -81.567986,
              39.978045
            ],
            [
              -81.567986,
              39.977887
            ],
            [
              -81.566063,
              39.977887
            ],
            [
              -81.566063,
              39.978045
            ],
            [
              -81.567986,
              39.978045
            ]
          ]
        ]
      },
      "properties": {
        "account": "daimler-truck-north-america",
        "name": "Detroit Reman East - Byesville OH",
        "type": "Remanufacturing plant (engines/components)",
        "archetype": "#3",
        "archetypeName": "No Gate / No GS",
        "confidence": "medium",
        "zone": "dockApron",
        "index": 1
      }
    },
    {
      "type": "Feature",
      "geometry": {
        "type": "Polygon",
        "coordinates": [
          [
            [
              -112.350941,
              40.530494
            ],
            [
              -112.350941,
              40.528406
            ],
            [
              -112.348332,
              40.528406
            ],
            [
              -112.348332,
              40.530494
            ],
            [
              -112.350941,
              40.530494
            ]
          ]
        ]
      },
      "properties": {
        "account": "daimler-truck-north-america",
        "name": "Detroit Reman West - Tooele UT",
        "type": "Remanufacturing plant (engines/components)",
        "archetype": "#3",
        "archetypeName": "No Gate / No GS",
        "confidence": "medium",
        "zone": "perimeter",
        "truckGate": false,
        "guardShack": false,
        "remoteGs": false,
        "fastLaneOpportunity": false,
        "backupSensitive": false,
        "dropYard": true,
        "multipleFacilities": false,
        "scale": false,
        "shipRcvSeparate": false,
        "urbanRural": "Rural",
        "dockDoors": "10-25",
        "dropArea": "25-50",
        "yardMetrics": {
          "dockDoorCount": 22,
          "trailersVisible": 45,
          "trailerParkingCapacity": 70,
          "truckGateCount": 1,
          "buildingCount": 1,
          "siteAreaAcres": 55,
          "railServed": false
        }
      }
    },
    {
      "type": "Feature",
      "geometry": {
        "type": "Polygon",
        "coordinates": [
          [
            [
              -112.350392,
              40.531955
            ],
            [
              -112.350392,
              40.530494
            ],
            [
              -112.347783,
              40.530494
            ],
            [
              -112.347783,
              40.531955
            ],
            [
              -112.350392,
              40.531955
            ]
          ]
        ]
      },
      "properties": {
        "account": "daimler-truck-north-america",
        "name": "Detroit Reman West - Tooele UT",
        "type": "Remanufacturing plant (engines/components)",
        "archetype": "#3",
        "archetypeName": "No Gate / No GS",
        "confidence": "medium",
        "zone": "dropYard",
        "index": 1
      }
    },
    {
      "type": "Feature",
      "geometry": {
        "type": "Polygon",
        "coordinates": [
          [
            [
              -112.350941,
              40.528615
            ],
            [
              -112.350941,
              40.528302
            ],
            [
              -112.348332,
              40.528302
            ],
            [
              -112.348332,
              40.528615
            ],
            [
              -112.350941,
              40.528615
            ]
          ]
        ]
      },
      "properties": {
        "account": "daimler-truck-north-america",
        "name": "Detroit Reman West - Tooele UT",
        "type": "Remanufacturing plant (engines/components)",
        "archetype": "#3",
        "archetypeName": "No Gate / No GS",
        "confidence": "medium",
        "zone": "dockApron",
        "index": 1
      }
    },
    {
      "type": "Feature",
      "geometry": {
        "type": "Polygon",
        "coordinates": [
          [
            [
              -92.830569,
              47.393607
            ],
            [
              -92.830569,
              47.392213
            ],
            [
              -92.828578,
              47.392352
            ],
            [
              -92.828715,
              47.393607
            ],
            [
              -92.830569,
              47.393607
            ]
          ]
        ]
      },
      "properties": {
        "account": "daimler-truck-north-america",
        "name": "Detroit Diesel Remanufacturing - Hibbing MN",
        "type": "Remanufacturing plant (engines/components)",
        "archetype": "#3",
        "archetypeName": "No Gate / No GS",
        "confidence": "high",
        "zone": "perimeter",
        "truckGate": false,
        "guardShack": false,
        "remoteGs": false,
        "fastLaneOpportunity": false,
        "backupSensitive": false,
        "dropYard": false,
        "multipleFacilities": false,
        "scale": false,
        "shipRcvSeparate": false,
        "urbanRural": "Rural",
        "dockDoors": "0-10",
        "dropArea": "0-10",
        "yardMetrics": {
          "dockDoorCount": 8,
          "trailersVisible": 6,
          "trailerParkingCapacity": 14,
          "truckGateCount": 1,
          "buildingCount": 1,
          "siteAreaAcres": 14,
          "railServed": false
        }
      }
    },
    {
      "type": "Feature",
      "geometry": {
        "type": "Polygon",
        "coordinates": [
          [
            [
              -92.828578,
              47.394212
            ],
            [
              -92.828578,
              47.393979
            ],
            [
              -92.828029,
              47.393979
            ],
            [
              -92.828029,
              47.394212
            ],
            [
              -92.828578,
              47.394212
            ]
          ]
        ]
      },
      "properties": {
        "account": "daimler-truck-north-america",
        "name": "Detroit Diesel Remanufacturing - Hibbing MN",
        "type": "Remanufacturing plant (engines/components)",
        "archetype": "#3",
        "archetypeName": "No Gate / No GS",
        "confidence": "high",
        "zone": "truckGate"
      }
    },
    {
      "type": "Feature",
      "geometry": {
        "type": "Polygon",
        "coordinates": [
          [
            [
              -92.830501,
              47.392724
            ],
            [
              -92.830501,
              47.392259
            ],
            [
              -92.828853,
              47.392259
            ],
            [
              -92.828853,
              47.392724
            ],
            [
              -92.830501,
              47.392724
            ]
          ]
        ]
      },
      "properties": {
        "account": "daimler-truck-north-america",
        "name": "Detroit Diesel Remanufacturing - Hibbing MN",
        "type": "Remanufacturing plant (engines/components)",
        "archetype": "#3",
        "archetypeName": "No Gate / No GS",
        "confidence": "high",
        "zone": "dropYard",
        "index": 1
      }
    },
    {
      "type": "Feature",
      "geometry": {
        "type": "Polygon",
        "coordinates": [
          [
            [
              -92.830363,
              47.39291
            ],
            [
              -92.830363,
              47.392771
            ],
            [
              -92.828853,
              47.392771
            ],
            [
              -92.828853,
              47.39291
            ],
            [
              -92.830363,
              47.39291
            ]
          ]
        ]
      },
      "properties": {
        "account": "daimler-truck-north-america",
        "name": "Detroit Diesel Remanufacturing - Hibbing MN",
        "type": "Remanufacturing plant (engines/components)",
        "archetype": "#3",
        "archetypeName": "No Gate / No GS",
        "confidence": "high",
        "zone": "dockApron",
        "index": 1
      }
    },
    {
      "type": "Feature",
      "geometry": {
        "type": "Polygon",
        "coordinates": [
          [
            [
              -86.365197,
              39.978918
            ],
            [
              -86.365197,
              39.975656
            ],
            [
              -86.361077,
              39.975656
            ],
            [
              -86.361077,
              39.978918
            ],
            [
              -86.365197,
              39.978918
            ]
          ]
        ]
      },
      "properties": {
        "account": "daimler-truck-north-america",
        "name": "Whitestown Redistribution Center (RDC) - Whitestown IN",
        "type": "Parts redistribution center",
        "archetype": "#3",
        "archetypeName": "No Gate / No GS",
        "confidence": "high",
        "zone": "perimeter",
        "truckGate": false,
        "guardShack": false,
        "remoteGs": false,
        "fastLaneOpportunity": true,
        "backupSensitive": false,
        "dropYard": true,
        "multipleFacilities": false,
        "scale": false,
        "shipRcvSeparate": false,
        "urbanRural": "Urban",
        "dockDoors": "25-50",
        "dropArea": "50+",
        "yardMetrics": {
          "dockDoorCount": 40,
          "trailersVisible": 0,
          "trailerParkingCapacity": 90,
          "truckGateCount": 2,
          "buildingCount": 1,
          "siteAreaAcres": 14.5,
          "railServed": false
        }
      }
    },
    {
      "type": "Feature",
      "geometry": {
        "type": "Polygon",
        "coordinates": [
          [
            [
              -86.365197,
              39.976077
            ],
            [
              -86.365197,
              39.975761
            ],
            [
              -86.364648,
              39.975761
            ],
            [
              -86.364648,
              39.976077
            ],
            [
              -86.365197,
              39.976077
            ]
          ]
        ]
      },
      "properties": {
        "account": "daimler-truck-north-america",
        "name": "Whitestown Redistribution Center (RDC) - Whitestown IN",
        "type": "Parts redistribution center",
        "archetype": "#3",
        "archetypeName": "No Gate / No GS",
        "confidence": "high",
        "zone": "truckGate"
      }
    },
    {
      "type": "Feature",
      "geometry": {
        "type": "Polygon",
        "coordinates": [
          [
            [
              -86.364373,
              39.975971
            ],
            [
              -86.364373,
              39.975761
            ],
            [
              -86.362176,
              39.975761
            ],
            [
              -86.362176,
              39.975971
            ],
            [
              -86.364373,
              39.975971
            ]
          ]
        ]
      },
      "properties": {
        "account": "daimler-truck-north-america",
        "name": "Whitestown Redistribution Center (RDC) - Whitestown IN",
        "type": "Parts redistribution center",
        "archetype": "#3",
        "archetypeName": "No Gate / No GS",
        "confidence": "high",
        "zone": "dockApron",
        "index": 1
      }
    },
    {
      "type": "Feature",
      "geometry": {
        "type": "Polygon",
        "coordinates": [
          [
            [
              -86.388017,
              39.979894
            ],
            [
              -86.388017,
              39.977842
            ],
            [
              -86.384789,
              39.977842
            ],
            [
              -86.384789,
              39.979894
            ],
            [
              -86.388017,
              39.979894
            ]
          ]
        ]
      },
      "properties": {
        "account": "daimler-truck-north-america",
        "name": "Indianapolis Parts Distribution Center - Whitestown IN",
        "type": "Parts distribution center",
        "archetype": "#3",
        "archetypeName": "No Gate / No GS",
        "confidence": "high",
        "zone": "perimeter",
        "truckGate": false,
        "guardShack": false,
        "remoteGs": false,
        "fastLaneOpportunity": true,
        "backupSensitive": false,
        "dropYard": true,
        "multipleFacilities": false,
        "scale": false,
        "shipRcvSeparate": false,
        "urbanRural": "Urban",
        "dockDoors": "25-50",
        "dropArea": "25-50",
        "yardMetrics": {
          "dockDoorCount": 34,
          "trailersVisible": 32,
          "trailerParkingCapacity": 40,
          "truckGateCount": 2,
          "buildingCount": 1,
          "siteAreaAcres": 12,
          "railServed": false
        }
      }
    },
    {
      "type": "Feature",
      "geometry": {
        "type": "Polygon",
        "coordinates": [
          [
            [
              -86.384927,
              39.979947
            ],
            [
              -86.384927,
              39.979631
            ],
            [
              -86.384515,
              39.979631
            ],
            [
              -86.384515,
              39.979947
            ],
            [
              -86.384927,
              39.979947
            ]
          ]
        ]
      },
      "properties": {
        "account": "daimler-truck-north-america",
        "name": "Indianapolis Parts Distribution Center - Whitestown IN",
        "type": "Parts distribution center",
        "archetype": "#3",
        "archetypeName": "No Gate / No GS",
        "confidence": "high",
        "zone": "truckGate"
      }
    },
    {
      "type": "Feature",
      "geometry": {
        "type": "Polygon",
        "coordinates": [
          [
            [
              -86.387673,
              39.978263
            ],
            [
              -86.387673,
              39.977948
            ],
            [
              -86.385476,
              39.977948
            ],
            [
              -86.385476,
              39.978263
            ],
            [
              -86.387673,
              39.978263
            ]
          ]
        ]
      },
      "properties": {
        "account": "daimler-truck-north-america",
        "name": "Indianapolis Parts Distribution Center - Whitestown IN",
        "type": "Parts distribution center",
        "archetype": "#3",
        "archetypeName": "No Gate / No GS",
        "confidence": "high",
        "zone": "dropYard",
        "index": 1
      }
    },
    {
      "type": "Feature",
      "geometry": {
        "type": "Polygon",
        "coordinates": [
          [
            [
              -86.387811,
              39.978474
            ],
            [
              -86.387811,
              39.978316
            ],
            [
              -86.385476,
              39.978316
            ],
            [
              -86.385476,
              39.978474
            ],
            [
              -86.387811,
              39.978474
            ]
          ]
        ]
      },
      "properties": {
        "account": "daimler-truck-north-america",
        "name": "Indianapolis Parts Distribution Center - Whitestown IN",
        "type": "Parts distribution center",
        "archetype": "#3",
        "archetypeName": "No Gate / No GS",
        "confidence": "high",
        "zone": "dockApron",
        "index": 1
      }
    },
    {
      "type": "Feature",
      "geometry": {
        "type": "Polygon",
        "coordinates": [
          [
            [
              -89.877209,
              35.039449
            ],
            [
              -89.877209,
              35.034502
            ],
            [
              -89.872951,
              35.034502
            ],
            [
              -89.872951,
              35.039449
            ],
            [
              -89.877209,
              35.039449
            ]
          ]
        ]
      },
      "properties": {
        "account": "daimler-truck-north-america",
        "name": "Memphis Parts Distribution Center - Memphis TN",
        "type": "Parts distribution center",
        "archetype": "#3",
        "archetypeName": "No Gate / No GS",
        "confidence": "medium",
        "zone": "perimeter",
        "truckGate": false,
        "guardShack": false,
        "remoteGs": false,
        "fastLaneOpportunity": true,
        "backupSensitive": false,
        "dropYard": true,
        "multipleFacilities": false,
        "scale": false,
        "shipRcvSeparate": true,
        "urbanRural": "Urban",
        "dockDoors": "50+",
        "dropArea": "50+",
        "yardMetrics": {
          "dockDoorCount": 60,
          "trailersVisible": 70,
          "trailerParkingCapacity": 90,
          "truckGateCount": 1,
          "buildingCount": 1,
          "siteAreaAcres": 24,
          "railServed": false
        }
      }
    },
    {
      "type": "Feature",
      "geometry": {
        "type": "Polygon",
        "coordinates": [
          [
            [
              -89.875149,
              35.039449
            ],
            [
              -89.875149,
              35.034502
            ],
            [
              -89.872951,
              35.034502
            ],
            [
              -89.872951,
              35.039449
            ],
            [
              -89.875149,
              35.039449
            ]
          ]
        ]
      },
      "properties": {
        "account": "daimler-truck-north-america",
        "name": "Memphis Parts Distribution Center - Memphis TN",
        "type": "Parts distribution center",
        "archetype": "#3",
        "archetypeName": "No Gate / No GS",
        "confidence": "medium",
        "zone": "dropYard",
        "index": 1
      }
    },
    {
      "type": "Feature",
      "geometry": {
        "type": "Polygon",
        "coordinates": [
          [
            [
              -89.875423,
              35.039449
            ],
            [
              -89.875423,
              35.034502
            ],
            [
              -89.875011,
              35.034502
            ],
            [
              -89.875011,
              35.039449
            ],
            [
              -89.875423,
              35.039449
            ]
          ]
        ]
      },
      "properties": {
        "account": "daimler-truck-north-america",
        "name": "Memphis Parts Distribution Center - Memphis TN",
        "type": "Parts distribution center",
        "archetype": "#3",
        "archetypeName": "No Gate / No GS",
        "confidence": "medium",
        "zone": "dockApron",
        "index": 1
      }
    },
    {
      "type": "Feature",
      "geometry": {
        "type": "Polygon",
        "coordinates": [
          [
            [
              -83.98574,
              34.118816
            ],
            [
              -83.984985,
              34.116145
            ],
            [
              -83.981002,
              34.11586
            ],
            [
              -83.980041,
              34.118305
            ],
            [
              -83.981963,
              34.120124
            ],
            [
              -83.98574,
              34.118816
            ]
          ]
        ]
      },
      "properties": {
        "account": "daimler-truck-north-america",
        "name": "Atlanta Parts Distribution Center - Buford GA",
        "type": "Parts distribution center",
        "archetype": "#9",
        "archetypeName": "Gate + No GS (remote check-in)",
        "confidence": "high",
        "zone": "perimeter",
        "truckGate": true,
        "guardShack": false,
        "remoteGs": true,
        "fastLaneOpportunity": false,
        "backupSensitive": false,
        "dropYard": true,
        "multipleFacilities": false,
        "scale": false,
        "shipRcvSeparate": true,
        "urbanRural": "Urban",
        "dockDoors": "50+",
        "dropArea": "50+",
        "yardMetrics": {
          "dockDoorCount": 52,
          "trailersVisible": 75,
          "trailerParkingCapacity": 110,
          "truckGateCount": 1,
          "buildingCount": 1,
          "siteAreaAcres": 26,
          "railServed": false
        }
      }
    },
    {
      "type": "Feature",
      "geometry": {
        "type": "Polygon",
        "coordinates": [
          [
            [
              -83.985671,
              34.117964
            ],
            [
              -83.985534,
              34.117623
            ],
            [
              -83.985122,
              34.117736
            ],
            [
              -83.985259,
              34.118077
            ],
            [
              -83.985671,
              34.117964
            ]
          ]
        ]
      },
      "properties": {
        "account": "daimler-truck-north-america",
        "name": "Atlanta Parts Distribution Center - Buford GA",
        "type": "Parts distribution center",
        "archetype": "#9",
        "archetypeName": "Gate + No GS (remote check-in)",
        "confidence": "high",
        "zone": "truckGate"
      }
    },
    {
      "type": "Feature",
      "geometry": {
        "type": "Polygon",
        "coordinates": [
          [
            [
              -83.985603,
              34.116713
            ],
            [
              -83.985465,
              34.116258
            ],
            [
              -83.983199,
              34.116713
            ],
            [
              -83.983337,
              34.117168
            ],
            [
              -83.985603,
              34.116713
            ]
          ]
        ]
      },
      "properties": {
        "account": "daimler-truck-north-america",
        "name": "Atlanta Parts Distribution Center - Buford GA",
        "type": "Parts distribution center",
        "archetype": "#9",
        "archetypeName": "Gate + No GS (remote check-in)",
        "confidence": "high",
        "zone": "dropYard",
        "index": 1
      }
    },
    {
      "type": "Feature",
      "geometry": {
        "type": "Polygon",
        "coordinates": [
          [
            [
              -83.985397,
              34.11694
            ],
            [
              -83.985328,
              34.116713
            ],
            [
              -83.983062,
              34.117168
            ],
            [
              -83.983131,
              34.117395
            ],
            [
              -83.985397,
              34.11694
            ]
          ]
        ]
      },
      "properties": {
        "account": "daimler-truck-north-america",
        "name": "Atlanta Parts Distribution Center - Buford GA",
        "type": "Parts distribution center",
        "archetype": "#9",
        "archetypeName": "Gate + No GS (remote check-in)",
        "confidence": "high",
        "zone": "dockApron",
        "index": 1
      }
    },
    {
      "type": "Feature",
      "geometry": {
        "type": "Polygon",
        "coordinates": [
          [
            [
              -97.033897,
              32.797877
            ],
            [
              -97.03376,
              32.796261
            ],
            [
              -97.02964,
              32.796376
            ],
            [
              -97.029777,
              32.797877
            ],
            [
              -97.033897,
              32.797877
            ]
          ]
        ]
      },
      "properties": {
        "account": "daimler-truck-north-america",
        "name": "Dallas Parts Distribution Center - Grand Prairie TX",
        "type": "Parts distribution center",
        "archetype": "#9",
        "archetypeName": "Gate + No GS (remote check-in)",
        "confidence": "high",
        "zone": "perimeter",
        "truckGate": true,
        "guardShack": false,
        "remoteGs": true,
        "fastLaneOpportunity": false,
        "backupSensitive": false,
        "dropYard": true,
        "multipleFacilities": false,
        "scale": false,
        "shipRcvSeparate": false,
        "urbanRural": "Urban",
        "dockDoors": "25-50",
        "dropArea": "50+",
        "yardMetrics": {
          "dockDoorCount": 40,
          "trailersVisible": 55,
          "trailerParkingCapacity": 80,
          "truckGateCount": 1,
          "buildingCount": 1,
          "siteAreaAcres": 19,
          "railServed": false
        }
      }
    },
    {
      "type": "Feature",
      "geometry": {
        "type": "Polygon",
        "coordinates": [
          [
            [
              -97.029777,
              32.797762
            ],
            [
              -97.029777,
              32.797415
            ],
            [
              -97.029365,
              32.797415
            ],
            [
              -97.029365,
              32.797762
            ],
            [
              -97.029777,
              32.797762
            ]
          ]
        ]
      },
      "properties": {
        "account": "daimler-truck-north-america",
        "name": "Dallas Parts Distribution Center - Grand Prairie TX",
        "type": "Parts distribution center",
        "archetype": "#9",
        "archetypeName": "Gate + No GS (remote check-in)",
        "confidence": "high",
        "zone": "truckGate"
      }
    },
    {
      "type": "Feature",
      "geometry": {
        "type": "Polygon",
        "coordinates": [
          [
            [
              -97.03376,
              32.796607
            ],
            [
              -97.03376,
              32.796261
            ],
            [
              -97.029777,
              32.796261
            ],
            [
              -97.029777,
              32.796607
            ],
            [
              -97.03376,
              32.796607
            ]
          ]
        ]
      },
      "properties": {
        "account": "daimler-truck-north-america",
        "name": "Dallas Parts Distribution Center - Grand Prairie TX",
        "type": "Parts distribution center",
        "archetype": "#9",
        "archetypeName": "Gate + No GS (remote check-in)",
        "confidence": "high",
        "zone": "dropYard",
        "index": 1
      }
    },
    {
      "type": "Feature",
      "geometry": {
        "type": "Polygon",
        "coordinates": [
          [
            [
              -97.03376,
              32.796838
            ],
            [
              -97.03376,
              32.796665
            ],
            [
              -97.029777,
              32.796665
            ],
            [
              -97.029777,
              32.796838
            ],
            [
              -97.03376,
              32.796838
            ]
          ]
        ]
      },
      "properties": {
        "account": "daimler-truck-north-america",
        "name": "Dallas Parts Distribution Center - Grand Prairie TX",
        "type": "Parts distribution center",
        "archetype": "#9",
        "archetypeName": "Gate + No GS (remote check-in)",
        "confidence": "high",
        "zone": "dockApron",
        "index": 1
      }
    },
    {
      "type": "Feature",
      "geometry": {
        "type": "Polygon",
        "coordinates": [
          [
            [
              -93.784593,
              41.671973
            ],
            [
              -93.784593,
              41.669819
            ],
            [
              -93.782601,
              41.669819
            ],
            [
              -93.782601,
              41.671973
            ],
            [
              -93.784593,
              41.671973
            ]
          ]
        ]
      },
      "properties": {
        "account": "daimler-truck-north-america",
        "name": "Des Moines Parts Distribution Center - Grimes IA",
        "type": "Parts distribution center",
        "archetype": "#3",
        "archetypeName": "No Gate / No GS",
        "confidence": "high",
        "zone": "perimeter",
        "truckGate": false,
        "guardShack": false,
        "remoteGs": false,
        "fastLaneOpportunity": true,
        "backupSensitive": false,
        "dropYard": true,
        "multipleFacilities": false,
        "scale": false,
        "shipRcvSeparate": false,
        "urbanRural": "Urban",
        "dockDoors": "25-50",
        "dropArea": "25-50",
        "yardMetrics": {
          "dockDoorCount": 30,
          "trailersVisible": 28,
          "trailerParkingCapacity": 45,
          "truckGateCount": 2,
          "buildingCount": 1,
          "siteAreaAcres": 16,
          "railServed": false
        }
      }
    },
    {
      "type": "Feature",
      "geometry": {
        "type": "Polygon",
        "coordinates": [
          [
            [
              -93.784593,
              41.672076
            ],
            [
              -93.784593,
              41.671871
            ],
            [
              -93.784043,
              41.671871
            ],
            [
              -93.784043,
              41.672076
            ],
            [
              -93.784593,
              41.672076
            ]
          ]
        ]
      },
      "properties": {
        "account": "daimler-truck-north-america",
        "name": "Des Moines Parts Distribution Center - Grimes IA",
        "type": "Parts distribution center",
        "archetype": "#3",
        "archetypeName": "No Gate / No GS",
        "confidence": "high",
        "zone": "truckGate"
      }
    },
    {
      "type": "Feature",
      "geometry": {
        "type": "Polygon",
        "coordinates": [
          [
            [
              -93.783013,
              41.671871
            ],
            [
              -93.783013,
              41.669922
            ],
            [
              -93.782601,
              41.669922
            ],
            [
              -93.782601,
              41.671871
            ],
            [
              -93.783013,
              41.671871
            ]
          ]
        ]
      },
      "properties": {
        "account": "daimler-truck-north-america",
        "name": "Des Moines Parts Distribution Center - Grimes IA",
        "type": "Parts distribution center",
        "archetype": "#3",
        "archetypeName": "No Gate / No GS",
        "confidence": "high",
        "zone": "dropYard",
        "index": 1
      }
    },
    {
      "type": "Feature",
      "geometry": {
        "type": "Polygon",
        "coordinates": [
          [
            [
              -93.783288,
              41.671871
            ],
            [
              -93.783288,
              41.669922
            ],
            [
              -93.783013,
              41.669922
            ],
            [
              -93.783013,
              41.671871
            ],
            [
              -93.783288,
              41.671871
            ]
          ]
        ]
      },
      "properties": {
        "account": "daimler-truck-north-america",
        "name": "Des Moines Parts Distribution Center - Grimes IA",
        "type": "Parts distribution center",
        "archetype": "#3",
        "archetypeName": "No Gate / No GS",
        "confidence": "high",
        "zone": "dockApron",
        "index": 1
      }
    }
  ]
}
