{
  "type": "FeatureCollection",
  "features": [
    {
      "type": "Feature",
      "geometry": {
        "type": "Polygon",
        "coordinates": [
          [
            [
              -74.469151,
              40.360345
            ],
            [
              -74.468739,
              40.355793
            ],
            [
              -74.461735,
              40.356473
            ],
            [
              -74.462147,
              40.360973
            ],
            [
              -74.469151,
              40.360345
            ]
          ]
        ]
      },
      "properties": {
        "account": "barnes-noble",
        "name": "Barnes & Noble - Monroe Township NJ DC",
        "type": "Distribution Center / E-commerce Fulfillment Center",
        "archetype": "#9",
        "archetypeName": "Gate + No GS (remote check-in)",
        "confidence": "medium",
        "zone": "perimeter",
        "truckGate": true,
        "guardShack": false,
        "remoteGs": true,
        "fastLaneOpportunity": false,
        "backupSensitive": false,
        "dropYard": true,
        "multipleFacilities": false,
        "scale": false,
        "shipRcvSeparate": false,
        "urbanRural": "Urban",
        "dockDoors": "50+",
        "dropArea": "25-50",
        "yardMetrics": {
          "dockDoorCount": 110,
          "trailersVisible": 55,
          "trailerParkingCapacity": 90,
          "truckGateCount": 1,
          "buildingCount": 1,
          "siteAreaAcres": 73.5,
          "railServed": false
        }
      }
    },
    {
      "type": "Feature",
      "geometry": {
        "type": "Polygon",
        "coordinates": [
          [
            [
              -74.469014,
              40.357572
            ],
            [
              -74.468877,
              40.357049
            ],
            [
              -74.46819,
              40.357206
            ],
            [
              -74.468327,
              40.357729
            ],
            [
              -74.469014,
              40.357572
            ]
          ]
        ]
      },
      "properties": {
        "account": "barnes-noble",
        "name": "Barnes & Noble - Monroe Township NJ DC",
        "type": "Distribution Center / E-commerce Fulfillment Center",
        "archetype": "#9",
        "archetypeName": "Gate + No GS (remote check-in)",
        "confidence": "medium",
        "zone": "truckGate"
      }
    },
    {
      "type": "Feature",
      "geometry": {
        "type": "Polygon",
        "coordinates": [
          [
            [
              -74.469014,
              40.356735
            ],
            [
              -74.468808,
              40.355845
            ],
            [
              -74.462147,
              40.356473
            ],
            [
              -74.462353,
              40.357415
            ],
            [
              -74.469014,
              40.356735
            ]
          ]
        ]
      },
      "properties": {
        "account": "barnes-noble",
        "name": "Barnes & Noble - Monroe Township NJ DC",
        "type": "Distribution Center / E-commerce Fulfillment Center",
        "archetype": "#9",
        "archetypeName": "Gate + No GS (remote check-in)",
        "confidence": "medium",
        "zone": "dockApron",
        "index": 1
      }
    },
    {
      "type": "Feature",
      "geometry": {
        "type": "Polygon",
        "coordinates": [
          [
            [
              -119.751461,
              39.420238
            ],
            [
              -119.751667,
              39.418488
            ],
            [
              -119.751255,
              39.416366
            ],
            [
              -119.748783,
              39.416525
            ],
            [
              -119.748097,
              39.417851
            ],
            [
              -119.748509,
              39.42045
            ],
            [
              -119.751461,
              39.420238
            ]
          ]
        ]
      },
      "properties": {
        "account": "barnes-noble",
        "name": "Barnes & Noble - Reno NV DC",
        "type": "Distribution Center / West-Coast Replenishment Center",
        "archetype": "#9",
        "archetypeName": "Gate + No GS (remote check-in)",
        "confidence": "high",
        "zone": "perimeter",
        "truckGate": true,
        "guardShack": false,
        "remoteGs": true,
        "fastLaneOpportunity": false,
        "backupSensitive": false,
        "dropYard": false,
        "multipleFacilities": false,
        "scale": false,
        "shipRcvSeparate": false,
        "urbanRural": "Urban",
        "dockDoors": "25-50",
        "dropArea": "10-25",
        "yardMetrics": {
          "dockDoorCount": 38,
          "trailersVisible": 22,
          "trailerParkingCapacity": 35,
          "truckGateCount": 1,
          "buildingCount": 1,
          "siteAreaAcres": 38.5,
          "railServed": false
        }
      }
    },
    {
      "type": "Feature",
      "geometry": {
        "type": "Polygon",
        "coordinates": [
          [
            [
              -119.751187,
              39.417374
            ],
            [
              -119.751049,
              39.416949
            ],
            [
              -119.750431,
              39.417056
            ],
            [
              -119.750569,
              39.41748
            ],
            [
              -119.751187,
              39.417374
            ]
          ]
        ]
      },
      "properties": {
        "account": "barnes-noble",
        "name": "Barnes & Noble - Reno NV DC",
        "type": "Distribution Center / West-Coast Replenishment Center",
        "archetype": "#9",
        "archetypeName": "Gate + No GS (remote check-in)",
        "confidence": "high",
        "zone": "truckGate"
      }
    },
    {
      "type": "Feature",
      "geometry": {
        "type": "Polygon",
        "coordinates": [
          [
            [
              -119.751461,
              39.417533
            ],
            [
              -119.751187,
              39.416578
            ],
            [
              -119.74947,
              39.416684
            ],
            [
              -119.749676,
              39.417692
            ],
            [
              -119.751461,
              39.417533
            ]
          ]
        ]
      },
      "properties": {
        "account": "barnes-noble",
        "name": "Barnes & Noble - Reno NV DC",
        "type": "Distribution Center / West-Coast Replenishment Center",
        "archetype": "#9",
        "archetypeName": "Gate + No GS (remote check-in)",
        "confidence": "high",
        "zone": "dropYard",
        "index": 1
      }
    },
    {
      "type": "Feature",
      "geometry": {
        "type": "Polygon",
        "coordinates": [
          [
            [
              -119.751461,
              39.417692
            ],
            [
              -119.751324,
              39.417162
            ],
            [
              -119.74844,
              39.417533
            ],
            [
              -119.748577,
              39.418063
            ],
            [
              -119.751461,
              39.417692
            ]
          ]
        ]
      },
      "properties": {
        "account": "barnes-noble",
        "name": "Barnes & Noble - Reno NV DC",
        "type": "Distribution Center / West-Coast Replenishment Center",
        "archetype": "#9",
        "archetypeName": "Gate + No GS (remote check-in)",
        "confidence": "high",
        "zone": "dockApron",
        "index": 1
      }
    }
  ]
}
