{
  "type": "FeatureCollection",
  "features": [
    {
      "type": "Feature",
      "geometry": {
        "type": "Polygon",
        "coordinates": [
          [
            [
              -74.136442,
              40.703151
            ],
            [
              -74.135343,
              40.70034
            ],
            [
              -74.129438,
              40.701901
            ],
            [
              -74.130537,
              40.704712
            ],
            [
              -74.136442,
              40.703151
            ]
          ]
        ]
      },
      "properties": {
        "account": "salson-logistics",
        "name": "SalSon Logistics - Newark NJ (Flagship Campus)",
        "type": "Warehouse / Container Yard",
        "archetype": "#6",
        "archetypeName": "Gate + GS (not BU sens.) + campus",
        "confidence": "high",
        "zone": "perimeter",
        "truckGate": true,
        "guardShack": true,
        "remoteGs": false,
        "fastLaneOpportunity": true,
        "backupSensitive": true,
        "dropYard": true,
        "multipleFacilities": true,
        "scale": false,
        "shipRcvSeparate": false,
        "urbanRural": "Urban",
        "dockDoors": "50+",
        "dropArea": "50+",
        "yardMetrics": {
          "dockDoorCount": 70,
          "trailersVisible": 220,
          "trailerParkingCapacity": 600,
          "truckGateCount": 1,
          "buildingCount": 4,
          "siteAreaAcres": 53,
          "railServed": true
        }
      }
    },
    {
      "type": "Feature",
      "geometry": {
        "type": "Polygon",
        "coordinates": [
          [
            [
              -74.132926,
              40.700655
            ],
            [
              -74.132876,
              40.700923
            ],
            [
              -74.133228,
              40.700961
            ],
            [
              -74.133278,
              40.700693
            ],
            [
              -74.132926,
              40.700655
            ]
          ]
        ]
      },
      "properties": {
        "account": "salson-logistics",
        "name": "SalSon Logistics - Newark NJ (Flagship Campus)",
        "type": "Warehouse / Container Yard",
        "archetype": "#6",
        "archetypeName": "Gate + GS (not BU sens.) + campus",
        "confidence": "high",
        "zone": "truckGate"
      }
    },
    {
      "type": "Feature",
      "geometry": {
        "type": "Polygon",
        "coordinates": [
          [
            [
              -74.13098,
              40.702697
            ],
            [
              -74.13089,
              40.70319
            ],
            [
              -74.134762,
              40.703605
            ],
            [
              -74.134852,
              40.703112
            ],
            [
              -74.13098,
              40.702697
            ]
          ]
        ]
      },
      "properties": {
        "account": "salson-logistics",
        "name": "SalSon Logistics - Newark NJ (Flagship Campus)",
        "type": "Warehouse / Container Yard",
        "archetype": "#6",
        "archetypeName": "Gate + GS (not BU sens.) + campus",
        "confidence": "high",
        "zone": "dropYard",
        "index": 1
      }
    },
    {
      "type": "Feature",
      "geometry": {
        "type": "Polygon",
        "coordinates": [
          [
            [
              -74.130331,
              40.700386
            ],
            [
              -74.130224,
              40.700969
            ],
            [
              -74.133627,
              40.701334
            ],
            [
              -74.133734,
              40.700751
            ],
            [
              -74.130331,
              40.700386
            ]
          ]
        ]
      },
      "properties": {
        "account": "salson-logistics",
        "name": "SalSon Logistics - Newark NJ (Flagship Campus)",
        "type": "Warehouse / Container Yard",
        "archetype": "#6",
        "archetypeName": "Gate + GS (not BU sens.) + campus",
        "confidence": "high",
        "zone": "dropYard",
        "index": 2
      }
    },
    {
      "type": "Feature",
      "geometry": {
        "type": "Polygon",
        "coordinates": [
          [
            [
              -74.130061,
              40.701821
            ],
            [
              -74.130028,
              40.702
            ],
            [
              -74.134721,
              40.702503
            ],
            [
              -74.134754,
              40.702324
            ],
            [
              -74.130061,
              40.701821
            ]
          ]
        ]
      },
      "properties": {
        "account": "salson-logistics",
        "name": "SalSon Logistics - Newark NJ (Flagship Campus)",
        "type": "Warehouse / Container Yard",
        "archetype": "#6",
        "archetypeName": "Gate + GS (not BU sens.) + campus",
        "confidence": "high",
        "zone": "dockApron",
        "index": 1
      }
    },
    {
      "type": "Feature",
      "geometry": {
        "type": "Polygon",
        "coordinates": [
          [
            [
              -74.134944,
              40.718778
            ],
            [
              -74.135219,
              40.71628
            ],
            [
              -74.135081,
              40.713469
            ],
            [
              -74.128352,
              40.713677
            ],
            [
              -74.12794,
              40.71628
            ],
            [
              -74.128215,
              40.718569
            ],
            [
              -74.134944,
              40.718778
            ]
          ]
        ]
      },
      "properties": {
        "account": "salson-logistics",
        "name": "SalSon Logistics - Newark NJ (481 Doremus Warehouse)",
        "type": "Food-Grade Warehouse / Container Storage",
        "archetype": "#4",
        "archetypeName": "Gate + GS (BU sens.)",
        "confidence": "high",
        "zone": "perimeter",
        "truckGate": true,
        "guardShack": true,
        "remoteGs": false,
        "fastLaneOpportunity": false,
        "backupSensitive": true,
        "dropYard": true,
        "multipleFacilities": false,
        "scale": false,
        "shipRcvSeparate": false,
        "urbanRural": "Urban",
        "dockDoors": "25-50",
        "dropArea": "10-25",
        "yardMetrics": {
          "dockDoorCount": 38,
          "trailersVisible": 40,
          "trailerParkingCapacity": 120,
          "truckGateCount": 1,
          "buildingCount": 2,
          "siteAreaAcres": 16.5,
          "railServed": false
        }
      }
    },
    {
      "type": "Feature",
      "geometry": {
        "type": "Polygon",
        "coordinates": [
          [
            [
              -74.132747,
              40.713885
            ],
            [
              -74.132747,
              40.713469
            ],
            [
              -74.131785,
              40.713469
            ],
            [
              -74.131785,
              40.713885
            ],
            [
              -74.132747,
              40.713885
            ]
          ]
        ]
      },
      "properties": {
        "account": "salson-logistics",
        "name": "SalSon Logistics - Newark NJ (481 Doremus Warehouse)",
        "type": "Food-Grade Warehouse / Container Storage",
        "archetype": "#4",
        "archetypeName": "Gate + GS (BU sens.)",
        "confidence": "high",
        "zone": "truckGate"
      }
    },
    {
      "type": "Feature",
      "geometry": {
        "type": "Polygon",
        "coordinates": [
          [
            [
              -74.133159,
              40.718309
            ],
            [
              -74.133021,
              40.71628
            ],
            [
              -74.128352,
              40.71628
            ],
            [
              -74.128489,
              40.718309
            ],
            [
              -74.133159,
              40.718309
            ]
          ]
        ]
      },
      "properties": {
        "account": "salson-logistics",
        "name": "SalSon Logistics - Newark NJ (481 Doremus Warehouse)",
        "type": "Food-Grade Warehouse / Container Storage",
        "archetype": "#4",
        "archetypeName": "Gate + GS (BU sens.)",
        "confidence": "high",
        "zone": "dropYard",
        "index": 1
      }
    },
    {
      "type": "Feature",
      "geometry": {
        "type": "Polygon",
        "coordinates": [
          [
            [
              -74.134601,
              40.717529
            ],
            [
              -74.134532,
              40.715135
            ],
            [
              -74.13309,
              40.715135
            ],
            [
              -74.133159,
              40.717529
            ],
            [
              -74.134601,
              40.717529
            ]
          ]
        ]
      },
      "properties": {
        "account": "salson-logistics",
        "name": "SalSon Logistics - Newark NJ (481 Doremus Warehouse)",
        "type": "Food-Grade Warehouse / Container Storage",
        "archetype": "#4",
        "archetypeName": "Gate + GS (BU sens.)",
        "confidence": "high",
        "zone": "dockApron",
        "index": 1
      }
    },
    {
      "type": "Feature",
      "geometry": {
        "type": "Polygon",
        "coordinates": [
          [
            [
              -74.810113,
              40.097279
            ],
            [
              -74.809735,
              40.096044
            ],
            [
              -74.806405,
              40.096753
            ],
            [
              -74.80668,
              40.098066
            ],
            [
              -74.810113,
              40.097279
            ]
          ]
        ]
      },
      "properties": {
        "account": "salson-logistics",
        "name": "SalSon Logistics - Florence NJ",
        "type": "Warehouse / Transload Hub",
        "archetype": "#3",
        "archetypeName": "No Gate / No GS",
        "confidence": "high",
        "zone": "perimeter",
        "truckGate": false,
        "guardShack": false,
        "remoteGs": false,
        "fastLaneOpportunity": false,
        "backupSensitive": false,
        "dropYard": true,
        "multipleFacilities": false,
        "scale": false,
        "shipRcvSeparate": false,
        "urbanRural": "Rural",
        "dockDoors": "0-10",
        "dropArea": "25-50",
        "yardMetrics": {
          "dockDoorCount": 4,
          "trailersVisible": 45,
          "trailerParkingCapacity": 90,
          "truckGateCount": 1,
          "buildingCount": 1,
          "siteAreaAcres": 9.5,
          "railServed": false
        }
      }
    },
    {
      "type": "Feature",
      "geometry": {
        "type": "Polygon",
        "coordinates": [
          [
            [
              -74.809117,
              40.096176
            ],
            [
              -74.809014,
              40.095939
            ],
            [
              -74.808637,
              40.096018
            ],
            [
              -74.80874,
              40.096254
            ],
            [
              -74.809117,
              40.096176
            ]
          ]
        ]
      },
      "properties": {
        "account": "salson-logistics",
        "name": "SalSon Logistics - Florence NJ",
        "type": "Warehouse / Transload Hub",
        "archetype": "#3",
        "archetypeName": "No Gate / No GS",
        "confidence": "high",
        "zone": "truckGate"
      }
    },
    {
      "type": "Feature",
      "geometry": {
        "type": "Polygon",
        "coordinates": [
          [
            [
              -74.807916,
              40.09804
            ],
            [
              -74.808053,
              40.097279
            ],
            [
              -74.80668,
              40.097016
            ],
            [
              -74.806577,
              40.097751
            ],
            [
              -74.807916,
              40.09804
            ]
          ]
        ]
      },
      "properties": {
        "account": "salson-logistics",
        "name": "SalSon Logistics - Florence NJ",
        "type": "Warehouse / Transload Hub",
        "archetype": "#3",
        "archetypeName": "No Gate / No GS",
        "confidence": "high",
        "zone": "dropYard",
        "index": 1
      }
    },
    {
      "type": "Feature",
      "geometry": {
        "type": "Polygon",
        "coordinates": [
          [
            [
              -118.232066,
              33.861547
            ],
            [
              -118.232066,
              33.85824
            ],
            [
              -118.229216,
              33.85824
            ],
            [
              -118.229216,
              33.861547
            ],
            [
              -118.232066,
              33.861547
            ]
          ]
        ]
      },
      "properties": {
        "account": "salson-logistics",
        "name": "SalSon Logistics - Compton CA",
        "type": "Intermodal / Transload Warehouse + Secured Yard",
        "archetype": "#3",
        "archetypeName": "No Gate / No GS",
        "confidence": "medium",
        "zone": "perimeter",
        "truckGate": false,
        "guardShack": false,
        "remoteGs": false,
        "fastLaneOpportunity": false,
        "backupSensitive": false,
        "dropYard": true,
        "multipleFacilities": false,
        "scale": false,
        "shipRcvSeparate": false,
        "urbanRural": "Urban",
        "dockDoors": "25-50",
        "dropArea": "10-25",
        "yardMetrics": {
          "dockDoorCount": 30,
          "trailersVisible": 25,
          "trailerParkingCapacity": 70,
          "truckGateCount": 1,
          "buildingCount": 1,
          "siteAreaAcres": 8.5,
          "railServed": false
        }
      }
    },
    {
      "type": "Feature",
      "geometry": {
        "type": "Polygon",
        "coordinates": [
          [
            [
              -118.232066,
              33.86015
            ],
            [
              -118.232066,
              33.859865
            ],
            [
              -118.231757,
              33.859865
            ],
            [
              -118.231757,
              33.86015
            ],
            [
              -118.232066,
              33.86015
            ]
          ]
        ]
      },
      "properties": {
        "account": "salson-logistics",
        "name": "SalSon Logistics - Compton CA",
        "type": "Intermodal / Transload Warehouse + Secured Yard",
        "archetype": "#3",
        "archetypeName": "No Gate / No GS",
        "confidence": "medium",
        "zone": "truckGate"
      }
    },
    {
      "type": "Feature",
      "geometry": {
        "type": "Polygon",
        "coordinates": [
          [
            [
              -118.230418,
              33.860036
            ],
            [
              -118.230418,
              33.859124
            ],
            [
              -118.229251,
              33.859124
            ],
            [
              -118.229251,
              33.860036
            ],
            [
              -118.230418,
              33.860036
            ]
          ]
        ]
      },
      "properties": {
        "account": "salson-logistics",
        "name": "SalSon Logistics - Compton CA",
        "type": "Intermodal / Transload Warehouse + Secured Yard",
        "archetype": "#3",
        "archetypeName": "No Gate / No GS",
        "confidence": "medium",
        "zone": "dropYard",
        "index": 1
      }
    },
    {
      "type": "Feature",
      "geometry": {
        "type": "Polygon",
        "coordinates": [
          [
            [
              -118.231585,
              33.860977
            ],
            [
              -118.231585,
              33.860692
            ],
            [
              -118.230555,
              33.860692
            ],
            [
              -118.230555,
              33.860977
            ],
            [
              -118.231585,
              33.860977
            ]
          ]
        ]
      },
      "properties": {
        "account": "salson-logistics",
        "name": "SalSon Logistics - Compton CA",
        "type": "Intermodal / Transload Warehouse + Secured Yard",
        "archetype": "#3",
        "archetypeName": "No Gate / No GS",
        "confidence": "medium",
        "zone": "dockApron",
        "index": 1
      }
    },
    {
      "type": "Feature",
      "geometry": {
        "type": "Polygon",
        "coordinates": [
          [
            [
              -118.231791,
              33.85995
            ],
            [
              -118.231791,
              33.859665
            ],
            [
              -118.230487,
              33.859665
            ],
            [
              -118.230487,
              33.85995
            ],
            [
              -118.231791,
              33.85995
            ]
          ]
        ]
      },
      "properties": {
        "account": "salson-logistics",
        "name": "SalSon Logistics - Compton CA",
        "type": "Intermodal / Transload Warehouse + Secured Yard",
        "archetype": "#3",
        "archetypeName": "No Gate / No GS",
        "confidence": "medium",
        "zone": "dockApron",
        "index": 2
      }
    },
    {
      "type": "Feature",
      "geometry": {
        "type": "Polygon",
        "coordinates": [
          [
            [
              -84.315885,
              33.635578
            ],
            [
              -84.316552,
              33.636962
            ],
            [
              -84.318353,
              33.636352
            ],
            [
              -84.317686,
              33.634968
            ],
            [
              -84.315885,
              33.635578
            ]
          ]
        ]
      },
      "properties": {
        "account": "salson-logistics",
        "name": "SalSon Logistics - Conley GA (Atlanta)",
        "type": "Warehouse / Dedicated Fleet Terminal",
        "archetype": "#9",
        "archetypeName": "Gate + No GS (remote check-in)",
        "confidence": "high",
        "zone": "perimeter",
        "truckGate": true,
        "guardShack": false,
        "remoteGs": true,
        "fastLaneOpportunity": false,
        "backupSensitive": true,
        "dropYard": true,
        "multipleFacilities": false,
        "scale": false,
        "shipRcvSeparate": false,
        "urbanRural": "Urban",
        "dockDoors": "10-25",
        "dropArea": "25-50",
        "yardMetrics": {
          "dockDoorCount": 22,
          "trailersVisible": 40,
          "trailerParkingCapacity": 70,
          "truckGateCount": 2,
          "buildingCount": 2,
          "siteAreaAcres": 4.6,
          "railServed": false
        }
      }
    },
    {
      "type": "Feature",
      "geometry": {
        "type": "Polygon",
        "coordinates": [
          [
            [
              -84.317471,
              33.635094
            ],
            [
              -84.317585,
              33.635329
            ],
            [
              -84.317865,
              33.635234
            ],
            [
              -84.317751,
              33.634999
            ],
            [
              -84.317471,
              33.635094
            ]
          ]
        ]
      },
      "properties": {
        "account": "salson-logistics",
        "name": "SalSon Logistics - Conley GA (Atlanta)",
        "type": "Warehouse / Dedicated Fleet Terminal",
        "archetype": "#9",
        "archetypeName": "Gate + No GS (remote check-in)",
        "confidence": "high",
        "zone": "truckGate"
      }
    },
    {
      "type": "Feature",
      "geometry": {
        "type": "Polygon",
        "coordinates": [
          [
            [
              -84.316274,
              33.636327
            ],
            [
              -84.316476,
              33.636746
            ],
            [
              -84.317826,
              33.636289
            ],
            [
              -84.317624,
              33.63587
            ],
            [
              -84.316274,
              33.636327
            ]
          ]
        ]
      },
      "properties": {
        "account": "salson-logistics",
        "name": "SalSon Logistics - Conley GA (Atlanta)",
        "type": "Warehouse / Dedicated Fleet Terminal",
        "archetype": "#9",
        "archetypeName": "Gate + No GS (remote check-in)",
        "confidence": "high",
        "zone": "dropYard",
        "index": 1
      }
    },
    {
      "type": "Feature",
      "geometry": {
        "type": "Polygon",
        "coordinates": [
          [
            [
              -84.316565,
              33.635694
            ],
            [
              -84.316747,
              33.636071
            ],
            [
              -84.317947,
              33.635664
            ],
            [
              -84.317765,
              33.635287
            ],
            [
              -84.316565,
              33.635694
            ]
          ]
        ]
      },
      "properties": {
        "account": "salson-logistics",
        "name": "SalSon Logistics - Conley GA (Atlanta)",
        "type": "Warehouse / Dedicated Fleet Terminal",
        "archetype": "#9",
        "archetypeName": "Gate + No GS (remote check-in)",
        "confidence": "high",
        "zone": "dropYard",
        "index": 2
      }
    },
    {
      "type": "Feature",
      "geometry": {
        "type": "Polygon",
        "coordinates": [
          [
            [
              -80.068139,
              32.91954
            ],
            [
              -80.068105,
              32.918128
            ],
            [
              -80.066525,
              32.918128
            ],
            [
              -80.065358,
              32.918243
            ],
            [
              -80.065358,
              32.918647
            ],
            [
              -80.066457,
              32.919482
            ],
            [
              -80.068139,
              32.91954
            ]
          ]
        ]
      },
      "properties": {
        "account": "salson-logistics",
        "name": "SalSon Logistics - North Charleston SC",
        "type": "Drayage Terminal / Food-Grade Warehouse",
        "archetype": "#9",
        "archetypeName": "Gate + No GS (remote check-in)",
        "confidence": "high",
        "zone": "perimeter",
        "truckGate": true,
        "guardShack": false,
        "remoteGs": true,
        "fastLaneOpportunity": true,
        "backupSensitive": false,
        "dropYard": true,
        "multipleFacilities": false,
        "scale": false,
        "shipRcvSeparate": false,
        "urbanRural": "Urban",
        "dockDoors": "10-25",
        "dropArea": "25-50",
        "yardMetrics": {
          "dockDoorCount": 16,
          "trailersVisible": 28,
          "trailerParkingCapacity": 90,
          "truckGateCount": 1,
          "buildingCount": 1,
          "siteAreaAcres": 4.3,
          "railServed": false
        }
      }
    },
    {
      "type": "Feature",
      "geometry": {
        "type": "Polygon",
        "coordinates": [
          [
            [
              -80.068122,
              32.919007
            ],
            [
              -80.068105,
              32.918848
            ],
            [
              -80.06795,
              32.918863
            ],
            [
              -80.067984,
              32.919021
            ],
            [
              -80.068122,
              32.919007
            ]
          ]
        ]
      },
      "properties": {
        "account": "salson-logistics",
        "name": "SalSon Logistics - North Charleston SC",
        "type": "Drayage Terminal / Food-Grade Warehouse",
        "archetype": "#9",
        "archetypeName": "Gate + No GS (remote check-in)",
        "confidence": "high",
        "zone": "truckGate"
      }
    },
    {
      "type": "Feature",
      "geometry": {
        "type": "Polygon",
        "coordinates": [
          [
            [
              -80.067075,
              32.918762
            ],
            [
              -80.067075,
              32.91843
            ],
            [
              -80.065358,
              32.918358
            ],
            [
              -80.065324,
              32.918704
            ],
            [
              -80.067075,
              32.918762
            ]
          ]
        ]
      },
      "properties": {
        "account": "salson-logistics",
        "name": "SalSon Logistics - North Charleston SC",
        "type": "Drayage Terminal / Food-Grade Warehouse",
        "archetype": "#9",
        "archetypeName": "Gate + No GS (remote check-in)",
        "confidence": "high",
        "zone": "dropYard",
        "index": 1
      }
    },
    {
      "type": "Feature",
      "geometry": {
        "type": "Polygon",
        "coordinates": [
          [
            [
              -80.067555,
              32.919468
            ],
            [
              -80.067572,
              32.919281
            ],
            [
              -80.06644,
              32.919237
            ],
            [
              -80.066422,
              32.919425
            ],
            [
              -80.067555,
              32.919468
            ]
          ]
        ]
      },
      "properties": {
        "account": "salson-logistics",
        "name": "SalSon Logistics - North Charleston SC",
        "type": "Drayage Terminal / Food-Grade Warehouse",
        "archetype": "#9",
        "archetypeName": "Gate + No GS (remote check-in)",
        "confidence": "high",
        "zone": "dockApron",
        "index": 1
      }
    },
    {
      "type": "Feature",
      "geometry": {
        "type": "Polygon",
        "coordinates": [
          [
            [
              -76.3761,
              36.77226
            ],
            [
              -76.376581,
              36.76852
            ],
            [
              -76.374658,
              36.76819
            ],
            [
              -76.374177,
              36.771903
            ],
            [
              -76.3761,
              36.77226
            ]
          ]
        ]
      },
      "properties": {
        "account": "salson-logistics",
        "name": "SalSon Logistics - Chesapeake VA (Norfolk)",
        "type": "Drayage Terminal / Container & Trailer Yard",
        "archetype": "#3",
        "archetypeName": "No Gate / No GS",
        "confidence": "medium",
        "zone": "perimeter",
        "truckGate": false,
        "guardShack": false,
        "remoteGs": false,
        "fastLaneOpportunity": true,
        "backupSensitive": false,
        "dropYard": true,
        "multipleFacilities": true,
        "scale": false,
        "shipRcvSeparate": false,
        "urbanRural": "Urban",
        "dockDoors": "NONE",
        "dropArea": "50+",
        "yardMetrics": {
          "dockDoorCount": 0,
          "trailersVisible": 220,
          "trailerParkingCapacity": 400,
          "truckGateCount": 2,
          "buildingCount": 4,
          "siteAreaAcres": 16,
          "railServed": false
        }
      }
    },
    {
      "type": "Feature",
      "geometry": {
        "type": "Polygon",
        "coordinates": [
          [
            [
              -76.375963,
              36.77215
            ],
            [
              -76.37586,
              36.771875
            ],
            [
              -76.375345,
              36.771958
            ],
            [
              -76.375482,
              36.772233
            ],
            [
              -76.375963,
              36.77215
            ]
          ]
        ]
      },
      "properties": {
        "account": "salson-logistics",
        "name": "SalSon Logistics - Chesapeake VA (Norfolk)",
        "type": "Drayage Terminal / Container & Trailer Yard",
        "archetype": "#3",
        "archetypeName": "No Gate / No GS",
        "confidence": "medium",
        "zone": "truckGate"
      }
    },
    {
      "type": "Feature",
      "geometry": {
        "type": "Polygon",
        "coordinates": [
          [
            [
              -76.376031,
              36.771765
            ],
            [
              -76.376237,
              36.770225
            ],
            [
              -76.374452,
              36.76995
            ],
            [
              -76.374246,
              36.77149
            ],
            [
              -76.376031,
              36.771765
            ]
          ]
        ]
      },
      "properties": {
        "account": "salson-logistics",
        "name": "SalSon Logistics - Chesapeake VA (Norfolk)",
        "type": "Drayage Terminal / Container & Trailer Yard",
        "archetype": "#3",
        "archetypeName": "No Gate / No GS",
        "confidence": "medium",
        "zone": "dropYard",
        "index": 1
      }
    },
    {
      "type": "Feature",
      "geometry": {
        "type": "Polygon",
        "coordinates": [
          [
            [
              -76.376237,
              36.76984
            ],
            [
              -76.376443,
              36.768685
            ],
            [
              -76.374658,
              36.76841
            ],
            [
              -76.374452,
              36.76962
            ],
            [
              -76.376237,
              36.76984
            ]
          ]
        ]
      },
      "properties": {
        "account": "salson-logistics",
        "name": "SalSon Logistics - Chesapeake VA (Norfolk)",
        "type": "Drayage Terminal / Container & Trailer Yard",
        "archetype": "#3",
        "archetypeName": "No Gate / No GS",
        "confidence": "medium",
        "zone": "dropYard",
        "index": 2
      }
    },
    {
      "type": "Feature",
      "geometry": {
        "type": "Polygon",
        "coordinates": [
          [
            [
              -95.277026,
              29.806796
            ],
            [
              -95.276373,
              29.805217
            ],
            [
              -95.273901,
              29.805872
            ],
            [
              -95.274485,
              29.807392
            ],
            [
              -95.277026,
              29.806796
            ]
          ]
        ]
      },
      "properties": {
        "account": "salson-logistics",
        "name": "SalSon Logistics - Houston TX",
        "type": "Drayage Terminal / Truck & Trailer Parking Yard",
        "archetype": "#9",
        "archetypeName": "Gate + No GS (remote check-in)",
        "confidence": "high",
        "zone": "perimeter",
        "truckGate": true,
        "guardShack": false,
        "remoteGs": true,
        "fastLaneOpportunity": true,
        "backupSensitive": false,
        "dropYard": true,
        "multipleFacilities": false,
        "scale": false,
        "shipRcvSeparate": false,
        "urbanRural": "Urban",
        "dockDoors": "NONE",
        "dropArea": "50+",
        "yardMetrics": {
          "dockDoorCount": 0,
          "trailersVisible": 160,
          "trailerParkingCapacity": 500,
          "truckGateCount": 1,
          "buildingCount": 1,
          "siteAreaAcres": 16,
          "railServed": false
        }
      }
    },
    {
      "type": "Feature",
      "geometry": {
        "type": "Polygon",
        "coordinates": [
          [
            [
              -95.276957,
              29.806677
            ],
            [
              -95.27682,
              29.806349
            ],
            [
              -95.276476,
              29.806438
            ],
            [
              -95.276614,
              29.806736
            ],
            [
              -95.276957,
              29.806677
            ]
          ]
        ]
      },
      "properties": {
        "account": "salson-logistics",
        "name": "SalSon Logistics - Houston TX",
        "type": "Drayage Terminal / Truck & Trailer Parking Yard",
        "archetype": "#9",
        "archetypeName": "Gate + No GS (remote check-in)",
        "confidence": "high",
        "zone": "truckGate"
      }
    },
    {
      "type": "Feature",
      "geometry": {
        "type": "Polygon",
        "coordinates": [
          [
            [
              -95.276682,
              29.806677
            ],
            [
              -95.276305,
              29.805634
            ],
            [
              -95.274313,
              29.8062
            ],
            [
              -95.274657,
              29.807183
            ],
            [
              -95.276682,
              29.806677
            ]
          ]
        ]
      },
      "properties": {
        "account": "salson-logistics",
        "name": "SalSon Logistics - Houston TX",
        "type": "Drayage Terminal / Truck & Trailer Parking Yard",
        "archetype": "#9",
        "archetypeName": "Gate + No GS (remote check-in)",
        "confidence": "high",
        "zone": "dropYard",
        "index": 1
      }
    },
    {
      "type": "Feature",
      "geometry": {
        "type": "Polygon",
        "coordinates": [
          [
            [
              -81.135263,
              32.090163
            ],
            [
              -81.135091,
              32.088403
            ],
            [
              -81.133615,
              32.088403
            ],
            [
              -81.133701,
              32.090163
            ],
            [
              -81.135263,
              32.090163
            ]
          ]
        ]
      },
      "properties": {
        "account": "salson-logistics",
        "name": "SalSon Logistics - Savannah GA",
        "type": "Drayage Terminal / Crossdock Warehouse + Container Yard",
        "archetype": "#9",
        "archetypeName": "Gate + No GS (remote check-in)",
        "confidence": "high",
        "zone": "perimeter",
        "truckGate": true,
        "guardShack": false,
        "remoteGs": true,
        "fastLaneOpportunity": false,
        "backupSensitive": false,
        "dropYard": true,
        "multipleFacilities": false,
        "scale": false,
        "shipRcvSeparate": false,
        "urbanRural": "Urban",
        "dockDoors": "25-50",
        "dropArea": "50+",
        "yardMetrics": {
          "dockDoorCount": 28,
          "trailersVisible": 55,
          "trailerParkingCapacity": 90,
          "truckGateCount": 1,
          "buildingCount": 1,
          "siteAreaAcres": 3.8,
          "railServed": false
        }
      }
    },
    {
      "type": "Feature",
      "geometry": {
        "type": "Polygon",
        "coordinates": [
          [
            [
              -81.134593,
              32.090134
            ],
            [
              -81.134593,
              32.090003
            ],
            [
              -81.134387,
              32.090003
            ],
            [
              -81.134387,
              32.090134
            ],
            [
              -81.134593,
              32.090134
            ]
          ]
        ]
      },
      "properties": {
        "account": "salson-logistics",
        "name": "SalSon Logistics - Savannah GA",
        "type": "Drayage Terminal / Crossdock Warehouse + Container Yard",
        "archetype": "#9",
        "archetypeName": "Gate + No GS (remote check-in)",
        "confidence": "high",
        "zone": "truckGate"
      }
    },
    {
      "type": "Feature",
      "geometry": {
        "type": "Polygon",
        "coordinates": [
          [
            [
              -81.134422,
              32.089857
            ],
            [
              -81.134387,
              32.089101
            ],
            [
              -81.133615,
              32.089101
            ],
            [
              -81.133632,
              32.089857
            ],
            [
              -81.134422,
              32.089857
            ]
          ]
        ]
      },
      "properties": {
        "account": "salson-logistics",
        "name": "SalSon Logistics - Savannah GA",
        "type": "Drayage Terminal / Crossdock Warehouse + Container Yard",
        "archetype": "#9",
        "archetypeName": "Gate + No GS (remote check-in)",
        "confidence": "high",
        "zone": "dropYard",
        "index": 1
      }
    },
    {
      "type": "Feature",
      "geometry": {
        "type": "Polygon",
        "coordinates": [
          [
            [
              -81.134593,
              32.088926
            ],
            [
              -81.134559,
              32.088403
            ],
            [
              -81.133701,
              32.088403
            ],
            [
              -81.133701,
              32.088926
            ],
            [
              -81.134593,
              32.088926
            ]
          ]
        ]
      },
      "properties": {
        "account": "salson-logistics",
        "name": "SalSon Logistics - Savannah GA",
        "type": "Drayage Terminal / Crossdock Warehouse + Container Yard",
        "archetype": "#9",
        "archetypeName": "Gate + No GS (remote check-in)",
        "confidence": "high",
        "zone": "dropYard",
        "index": 2
      }
    },
    {
      "type": "Feature",
      "geometry": {
        "type": "Polygon",
        "coordinates": [
          [
            [
              -81.135417,
              32.089421
            ],
            [
              -81.135383,
              32.089014
            ],
            [
              -81.134593,
              32.089159
            ],
            [
              -81.134628,
              32.089566
            ],
            [
              -81.135417,
              32.089421
            ]
          ]
        ]
      },
      "properties": {
        "account": "salson-logistics",
        "name": "SalSon Logistics - Savannah GA",
        "type": "Drayage Terminal / Crossdock Warehouse + Container Yard",
        "archetype": "#9",
        "archetypeName": "Gate + No GS (remote check-in)",
        "confidence": "high",
        "zone": "dockApron",
        "index": 1
      }
    },
    {
      "type": "Feature",
      "geometry": {
        "type": "Polygon",
        "coordinates": [
          [
            [
              -79.749373,
              40.181371
            ],
            [
              -79.750129,
              40.176806
            ],
            [
              -79.744155,
              40.175652
            ],
            [
              -79.743193,
              40.180426
            ],
            [
              -79.749373,
              40.181371
            ]
          ]
        ]
      },
      "properties": {
        "account": "salson-logistics",
        "name": "SalSon Logistics - Smithton PA (Dick's Sporting Goods DC)",
        "type": "Dedicated-Fleet Terminal at Retail Distribution Center",
        "archetype": "#6",
        "archetypeName": "Gate + GS (not BU sens.) + campus",
        "confidence": "medium",
        "zone": "perimeter",
        "truckGate": true,
        "guardShack": true,
        "remoteGs": false,
        "fastLaneOpportunity": true,
        "backupSensitive": false,
        "dropYard": true,
        "multipleFacilities": true,
        "scale": false,
        "shipRcvSeparate": true,
        "urbanRural": "Rural",
        "dockDoors": "50+",
        "dropArea": "50+",
        "yardMetrics": {
          "dockDoorCount": 120,
          "trailersVisible": 320,
          "trailerParkingCapacity": 450,
          "truckGateCount": 1,
          "buildingCount": 3,
          "siteAreaAcres": 95,
          "railServed": false
        }
      }
    },
    {
      "type": "Feature",
      "geometry": {
        "type": "Polygon",
        "coordinates": [
          [
            [
              -79.748,
              40.176229
            ],
            [
              -79.748137,
              40.175705
            ],
            [
              -79.747382,
              40.1756
            ],
            [
              -79.747245,
              40.176124
            ],
            [
              -79.748,
              40.176229
            ]
          ]
        ]
      },
      "properties": {
        "account": "salson-logistics",
        "name": "SalSon Logistics - Smithton PA (Dick's Sporting Goods DC)",
        "type": "Dedicated-Fleet Terminal at Retail Distribution Center",
        "archetype": "#6",
        "archetypeName": "Gate + GS (not BU sens.) + campus",
        "confidence": "medium",
        "zone": "truckGate"
      }
    },
    {
      "type": "Feature",
      "geometry": {
        "type": "Polygon",
        "coordinates": [
          [
            [
              -79.749991,
              40.181161
            ],
            [
              -79.750403,
              40.179902
            ],
            [
              -79.747725,
              40.179534
            ],
            [
              -79.747313,
              40.180794
            ],
            [
              -79.749991,
              40.181161
            ]
          ]
        ]
      },
      "properties": {
        "account": "salson-logistics",
        "name": "SalSon Logistics - Smithton PA (Dick's Sporting Goods DC)",
        "type": "Dedicated-Fleet Terminal at Retail Distribution Center",
        "archetype": "#6",
        "archetypeName": "Gate + GS (not BU sens.) + campus",
        "confidence": "medium",
        "zone": "dropYard",
        "index": 1
      }
    },
    {
      "type": "Feature",
      "geometry": {
        "type": "Polygon",
        "coordinates": [
          [
            [
              -79.748,
              40.176387
            ],
            [
              -79.748206,
              40.175232
            ],
            [
              -79.745597,
              40.174865
            ],
            [
              -79.745391,
              40.176019
            ],
            [
              -79.748,
              40.176387
            ]
          ]
        ]
      },
      "properties": {
        "account": "salson-logistics",
        "name": "SalSon Logistics - Smithton PA (Dick's Sporting Goods DC)",
        "type": "Dedicated-Fleet Terminal at Retail Distribution Center",
        "archetype": "#6",
        "archetypeName": "Gate + GS (not BU sens.) + campus",
        "confidence": "medium",
        "zone": "dropYard",
        "index": 2
      }
    },
    {
      "type": "Feature",
      "geometry": {
        "type": "Polygon",
        "coordinates": [
          [
            [
              -79.748961,
              40.179744
            ],
            [
              -79.749099,
              40.17922
            ],
            [
              -79.744292,
              40.178538
            ],
            [
              -79.744155,
              40.179062
            ],
            [
              -79.748961,
              40.179744
            ]
          ]
        ]
      },
      "properties": {
        "account": "salson-logistics",
        "name": "SalSon Logistics - Smithton PA (Dick's Sporting Goods DC)",
        "type": "Dedicated-Fleet Terminal at Retail Distribution Center",
        "archetype": "#6",
        "archetypeName": "Gate + GS (not BU sens.) + campus",
        "confidence": "medium",
        "zone": "dockApron",
        "index": 1
      }
    },
    {
      "type": "Feature",
      "geometry": {
        "type": "Polygon",
        "coordinates": [
          [
            [
              -79.749099,
              40.177646
            ],
            [
              -79.749236,
              40.177121
            ],
            [
              -79.744567,
              40.176439
            ],
            [
              -79.744429,
              40.176964
            ],
            [
              -79.749099,
              40.177646
            ]
          ]
        ]
      },
      "properties": {
        "account": "salson-logistics",
        "name": "SalSon Logistics - Smithton PA (Dick's Sporting Goods DC)",
        "type": "Dedicated-Fleet Terminal at Retail Distribution Center",
        "archetype": "#6",
        "archetypeName": "Gate + GS (not BU sens.) + campus",
        "confidence": "medium",
        "zone": "dockApron",
        "index": 2
      }
    },
    {
      "type": "Feature",
      "geometry": {
        "type": "Polygon",
        "coordinates": [
          [
            [
              -75.815493,
              42.045809
            ],
            [
              -75.814601,
              42.039332
            ],
            [
              -75.808833,
              42.039842
            ],
            [
              -75.81,
              42.046165
            ],
            [
              -75.815493,
              42.045809
            ]
          ]
        ]
      },
      "properties": {
        "account": "salson-logistics",
        "name": "SalSon Logistics - Dick's Sporting Goods Conklin DC (Dedicated Fleet) - Conklin NY",
        "type": "E-commerce distribution center (SalSon dedicated-fleet operation)",
        "archetype": "#9",
        "archetypeName": "Gate + No GS (remote check-in)",
        "confidence": "high",
        "zone": "perimeter",
        "truckGate": true,
        "guardShack": false,
        "remoteGs": true,
        "fastLaneOpportunity": true,
        "backupSensitive": false,
        "dropYard": true,
        "multipleFacilities": false,
        "scale": false,
        "shipRcvSeparate": false,
        "urbanRural": "Rural",
        "dockDoors": "50+",
        "dropArea": "50+",
        "yardMetrics": {
          "dockDoorCount": 120,
          "trailersVisible": 350,
          "trailerParkingCapacity": 550,
          "truckGateCount": 1,
          "buildingCount": 1,
          "siteAreaAcres": 68,
          "railServed": false
        }
      }
    },
    {
      "type": "Feature",
      "geometry": {
        "type": "Polygon",
        "coordinates": [
          [
            [
              -75.811236,
              42.040301
            ],
            [
              -75.811373,
              42.039791
            ],
            [
              -75.810481,
              42.039689
            ],
            [
              -75.810343,
              42.040199
            ],
            [
              -75.811236,
              42.040301
            ]
          ]
        ]
      },
      "properties": {
        "account": "salson-logistics",
        "name": "SalSon Logistics - Dick's Sporting Goods Conklin DC (Dedicated Fleet) - Conklin NY",
        "type": "E-commerce distribution center (SalSon dedicated-fleet operation)",
        "archetype": "#9",
        "archetypeName": "Gate + No GS (remote check-in)",
        "confidence": "high",
        "zone": "truckGate"
      }
    },
    {
      "type": "Feature",
      "geometry": {
        "type": "Polygon",
        "coordinates": [
          [
            [
              -75.810412,
              42.044789
            ],
            [
              -75.810961,
              42.040811
            ],
            [
              -75.809245,
              42.040607
            ],
            [
              -75.808695,
              42.044585
            ],
            [
              -75.810412,
              42.044789
            ]
          ]
        ]
      },
      "properties": {
        "account": "salson-logistics",
        "name": "SalSon Logistics - Dick's Sporting Goods Conklin DC (Dedicated Fleet) - Conklin NY",
        "type": "E-commerce distribution center (SalSon dedicated-fleet operation)",
        "archetype": "#9",
        "archetypeName": "Gate + No GS (remote check-in)",
        "confidence": "high",
        "zone": "dropYard",
        "index": 1
      }
    },
    {
      "type": "Feature",
      "geometry": {
        "type": "Polygon",
        "coordinates": [
          [
            [
              -75.814601,
              42.04535
            ],
            [
              -75.814326,
              42.044585
            ],
            [
              -75.81,
              42.04484
            ],
            [
              -75.810275,
              42.045605
            ],
            [
              -75.814601,
              42.04535
            ]
          ]
        ]
      },
      "properties": {
        "account": "salson-logistics",
        "name": "SalSon Logistics - Dick's Sporting Goods Conklin DC (Dedicated Fleet) - Conklin NY",
        "type": "E-commerce distribution center (SalSon dedicated-fleet operation)",
        "archetype": "#9",
        "archetypeName": "Gate + No GS (remote check-in)",
        "confidence": "high",
        "zone": "dockApron",
        "index": 1
      }
    },
    {
      "type": "Feature",
      "geometry": {
        "type": "Polygon",
        "coordinates": [
          [
            [
              -122.394207,
              47.259177
            ],
            [
              -122.39383,
              47.258222
            ],
            [
              -122.390259,
              47.258851
            ],
            [
              -122.390637,
              47.259807
            ],
            [
              -122.394207,
              47.259177
            ]
          ]
        ]
      },
      "properties": {
        "account": "salson-logistics",
        "name": "SalSon Logistics - Tacoma WA (TriPak Inc)",
        "type": "Port Drayage / Rail Transload Warehouse",
        "archetype": "#3",
        "archetypeName": "No Gate / No GS",
        "confidence": "medium",
        "zone": "perimeter",
        "truckGate": false,
        "guardShack": false,
        "remoteGs": false,
        "fastLaneOpportunity": false,
        "backupSensitive": false,
        "dropYard": true,
        "multipleFacilities": false,
        "scale": false,
        "shipRcvSeparate": false,
        "urbanRural": "Urban",
        "dockDoors": "10-25",
        "dropArea": "25-50",
        "yardMetrics": {
          "dockDoorCount": 22,
          "trailersVisible": 30,
          "trailerParkingCapacity": 60,
          "truckGateCount": 1,
          "buildingCount": 2,
          "siteAreaAcres": 6.5,
          "railServed": true
        }
      }
    },
    {
      "type": "Feature",
      "geometry": {
        "type": "Polygon",
        "coordinates": [
          [
            [
              -122.393761,
              47.258362
            ],
            [
              -122.393658,
              47.258129
            ],
            [
              -122.39328,
              47.258199
            ],
            [
              -122.393383,
              47.258432
            ],
            [
              -122.393761,
              47.258362
            ]
          ]
        ]
      },
      "properties": {
        "account": "salson-logistics",
        "name": "SalSon Logistics - Tacoma WA (TriPak Inc)",
        "type": "Port Drayage / Rail Transload Warehouse",
        "archetype": "#3",
        "archetypeName": "No Gate / No GS",
        "confidence": "medium",
        "zone": "truckGate"
      }
    },
    {
      "type": "Feature",
      "geometry": {
        "type": "Polygon",
        "coordinates": [
          [
            [
              -122.3928,
              47.259667
            ],
            [
              -122.392971,
              47.259131
            ],
            [
              -122.391049,
              47.258898
            ],
            [
              -122.390877,
              47.259434
            ],
            [
              -122.3928,
              47.259667
            ]
          ]
        ]
      },
      "properties": {
        "account": "salson-logistics",
        "name": "SalSon Logistics - Tacoma WA (TriPak Inc)",
        "type": "Port Drayage / Rail Transload Warehouse",
        "archetype": "#3",
        "archetypeName": "No Gate / No GS",
        "confidence": "medium",
        "zone": "dropYard",
        "index": 1
      }
    },
    {
      "type": "Feature",
      "geometry": {
        "type": "Polygon",
        "coordinates": [
          [
            [
              -122.392697,
              47.258944
            ],
            [
              -122.392594,
              47.258688
            ],
            [
              -122.390534,
              47.259061
            ],
            [
              -122.390637,
              47.259317
            ],
            [
              -122.392697,
              47.258944
            ]
          ]
        ]
      },
      "properties": {
        "account": "salson-logistics",
        "name": "SalSon Logistics - Tacoma WA (TriPak Inc)",
        "type": "Port Drayage / Rail Transload Warehouse",
        "archetype": "#3",
        "archetypeName": "No Gate / No GS",
        "confidence": "medium",
        "zone": "dockApron",
        "index": 1
      }
    },
    {
      "type": "Feature",
      "geometry": {
        "type": "Polygon",
        "coordinates": [
          [
            [
              -119.109849,
              35.241163
            ],
            [
              -119.109849,
              35.237854
            ],
            [
              -119.107652,
              35.237854
            ],
            [
              -119.107652,
              35.241135
            ],
            [
              -119.109849,
              35.241163
            ]
          ]
        ]
      },
      "properties": {
        "account": "salson-logistics",
        "name": "SalSon Logistics - Bakersfield CA",
        "type": "Intermodal / Fleet Location",
        "archetype": "#3",
        "archetypeName": "No Gate / No GS",
        "confidence": "low",
        "zone": "perimeter",
        "truckGate": false,
        "guardShack": false,
        "remoteGs": false,
        "fastLaneOpportunity": true,
        "backupSensitive": false,
        "dropYard": true,
        "multipleFacilities": false,
        "scale": false,
        "shipRcvSeparate": false,
        "urbanRural": "Rural",
        "dockDoors": "NONE",
        "dropArea": "10-25",
        "yardMetrics": {
          "dockDoorCount": 0,
          "trailersVisible": 22,
          "trailerParkingCapacity": 60,
          "truckGateCount": 1,
          "buildingCount": 6,
          "siteAreaAcres": 14,
          "railServed": false
        }
      }
    },
    {
      "type": "Feature",
      "geometry": {
        "type": "Polygon",
        "coordinates": [
          [
            [
              -119.109849,
              35.238583
            ],
            [
              -119.109849,
              35.238303
            ],
            [
              -119.10954,
              35.238303
            ],
            [
              -119.10954,
              35.238583
            ],
            [
              -119.109849,
              35.238583
            ]
          ]
        ]
      },
      "properties": {
        "account": "salson-logistics",
        "name": "SalSon Logistics - Bakersfield CA",
        "type": "Intermodal / Fleet Location",
        "archetype": "#3",
        "archetypeName": "No Gate / No GS",
        "confidence": "low",
        "zone": "truckGate"
      }
    },
    {
      "type": "Feature",
      "geometry": {
        "type": "Polygon",
        "coordinates": [
          [
            [
              -119.109712,
              35.241023
            ],
            [
              -119.109712,
              35.239228
            ],
            [
              -119.108579,
              35.2392
            ],
            [
              -119.108545,
              35.240995
            ],
            [
              -119.109712,
              35.241023
            ]
          ]
        ]
      },
      "properties": {
        "account": "salson-logistics",
        "name": "SalSon Logistics - Bakersfield CA",
        "type": "Intermodal / Fleet Location",
        "archetype": "#3",
        "archetypeName": "No Gate / No GS",
        "confidence": "low",
        "zone": "dropYard",
        "index": 1
      }
    }
  ]
}
