{
  "type": "FeatureCollection",
  "features": [
    {
      "type": "Feature",
      "geometry": {
        "type": "Polygon",
        "coordinates": [
          [
            [
              -79.327947,
              34.775312
            ],
            [
              -79.328496,
              34.7708
            ],
            [
              -79.326299,
              34.765385
            ],
            [
              -79.323003,
              34.765385
            ],
            [
              -79.322453,
              34.769672
            ],
            [
              -79.321904,
              34.77441
            ],
            [
              -79.327947,
              34.775312
            ]
          ]
        ]
      },
      "properties": {
        "account": "campbells",
        "name": "Campbell's Soup - Maxton NC",
        "type": "Manufacturing - thermal/aseptic soup",
        "archetype": "#6",
        "archetypeName": "Gate + GS (not BU sens.) + campus",
        "confidence": "high",
        "zone": "perimeter",
        "truckGate": true,
        "guardShack": true,
        "remoteGs": false,
        "fastLaneOpportunity": true,
        "backupSensitive": false,
        "dropYard": true,
        "multipleFacilities": true,
        "scale": false,
        "shipRcvSeparate": false,
        "urbanRural": "Rural",
        "dockDoors": "25-50",
        "dropArea": "50+",
        "yardMetrics": {
          "dockDoorCount": 40,
          "trailersVisible": 95,
          "trailerParkingCapacity": 130,
          "truckGateCount": 1,
          "buildingCount": 8,
          "siteAreaAcres": 165,
          "railServed": false
        }
      }
    },
    {
      "type": "Feature",
      "geometry": {
        "type": "Polygon",
        "coordinates": [
          [
            [
              -79.327397,
              34.775312
            ],
            [
              -79.327672,
              34.773282
            ],
            [
              -79.325475,
              34.772831
            ],
            [
              -79.3252,
              34.774861
            ],
            [
              -79.327397,
              34.775312
            ]
          ]
        ]
      },
      "properties": {
        "account": "campbells",
        "name": "Campbell's Soup - Maxton NC",
        "type": "Manufacturing - thermal/aseptic soup",
        "archetype": "#6",
        "archetypeName": "Gate + GS (not BU sens.) + campus",
        "confidence": "high",
        "zone": "dropYard",
        "index": 1
      }
    },
    {
      "type": "Feature",
      "geometry": {
        "type": "Polygon",
        "coordinates": [
          [
            [
              -79.326573,
              34.767416
            ],
            [
              -79.326711,
              34.766288
            ],
            [
              -79.32314,
              34.766062
            ],
            [
              -79.323003,
              34.76719
            ],
            [
              -79.326573,
              34.767416
            ]
          ]
        ]
      },
      "properties": {
        "account": "campbells",
        "name": "Campbell's Soup - Maxton NC",
        "type": "Manufacturing - thermal/aseptic soup",
        "archetype": "#6",
        "archetypeName": "Gate + GS (not BU sens.) + campus",
        "confidence": "high",
        "zone": "dockApron",
        "index": 1
      }
    },
    {
      "type": "Feature",
      "geometry": {
        "type": "Polygon",
        "coordinates": [
          [
            [
              -84.108993,
              41.401621
            ],
            [
              -84.110092,
              41.39853
            ],
            [
              -84.109542,
              41.393379
            ],
            [
              -84.102127,
              41.392555
            ],
            [
              -84.098556,
              41.39647
            ],
            [
              -84.099105,
              41.401208
            ],
            [
              -84.108993,
              41.401621
            ]
          ]
        ]
      },
      "properties": {
        "account": "campbells",
        "name": "Campbell's Soup - Napoleon OH",
        "type": "Manufacturing - soup/broth/V8 juice",
        "archetype": "#9",
        "archetypeName": "Gate + No GS (remote check-in)",
        "confidence": "medium",
        "zone": "perimeter",
        "truckGate": true,
        "guardShack": false,
        "remoteGs": true,
        "fastLaneOpportunity": true,
        "backupSensitive": false,
        "dropYard": true,
        "multipleFacilities": true,
        "scale": false,
        "shipRcvSeparate": true,
        "urbanRural": "Rural",
        "dockDoors": "50+",
        "dropArea": "50+",
        "yardMetrics": {
          "dockDoorCount": 55,
          "trailersVisible": 130,
          "trailerParkingCapacity": 200,
          "truckGateCount": 1,
          "buildingCount": 9,
          "siteAreaAcres": 175,
          "railServed": false
        }
      }
    },
    {
      "type": "Feature",
      "geometry": {
        "type": "Polygon",
        "coordinates": [
          [
            [
              -84.102951,
              41.39956
            ],
            [
              -84.103088,
              41.397294
            ],
            [
              -84.099243,
              41.397088
            ],
            [
              -84.099105,
              41.399354
            ],
            [
              -84.102951,
              41.39956
            ]
          ]
        ]
      },
      "properties": {
        "account": "campbells",
        "name": "Campbell's Soup - Napoleon OH",
        "type": "Manufacturing - soup/broth/V8 juice",
        "archetype": "#9",
        "archetypeName": "Gate + No GS (remote check-in)",
        "confidence": "medium",
        "zone": "dropYard",
        "index": 1
      }
    },
    {
      "type": "Feature",
      "geometry": {
        "type": "Polygon",
        "coordinates": [
          [
            [
              -84.107895,
              41.399148
            ],
            [
              -84.108032,
              41.397912
            ],
            [
              -84.103637,
              41.397706
            ],
            [
              -84.1035,
              41.398942
            ],
            [
              -84.107895,
              41.399148
            ]
          ]
        ]
      },
      "properties": {
        "account": "campbells",
        "name": "Campbell's Soup - Napoleon OH",
        "type": "Manufacturing - soup/broth/V8 juice",
        "archetype": "#9",
        "archetypeName": "Gate + No GS (remote check-in)",
        "confidence": "medium",
        "zone": "dockApron",
        "index": 1
      }
    },
    {
      "type": "Feature",
      "geometry": {
        "type": "Polygon",
        "coordinates": [
          [
            [
              -95.563747,
              33.693699
            ],
            [
              -95.564021,
              33.691414
            ],
            [
              -95.563747,
              33.687301
            ],
            [
              -95.561,
              33.686386
            ],
            [
              -95.557704,
              33.688672
            ],
            [
              -95.557704,
              33.693242
            ],
            [
              -95.563747,
              33.693699
            ]
          ]
        ]
      },
      "properties": {
        "account": "campbells",
        "name": "Campbell's - Paris TX",
        "type": "Manufacturing - sauces (flagship sauce facility)",
        "archetype": "#9",
        "archetypeName": "Gate + No GS (remote check-in)",
        "confidence": "medium",
        "zone": "perimeter",
        "truckGate": true,
        "guardShack": false,
        "remoteGs": true,
        "fastLaneOpportunity": true,
        "backupSensitive": false,
        "dropYard": true,
        "multipleFacilities": true,
        "scale": false,
        "shipRcvSeparate": false,
        "urbanRural": "Rural",
        "dockDoors": "50+",
        "dropArea": "50+",
        "yardMetrics": {
          "dockDoorCount": 50,
          "trailersVisible": 110,
          "trailerParkingCapacity": 170,
          "truckGateCount": 1,
          "buildingCount": 6,
          "siteAreaAcres": 110,
          "railServed": true
        }
      }
    },
    {
      "type": "Feature",
      "geometry": {
        "type": "Polygon",
        "coordinates": [
          [
            [
              -95.563197,
              33.693471
            ],
            [
              -95.563335,
              33.691643
            ],
            [
              -95.561137,
              33.691414
            ],
            [
              -95.561,
              33.693242
            ],
            [
              -95.563197,
              33.693471
            ]
          ]
        ]
      },
      "properties": {
        "account": "campbells",
        "name": "Campbell's - Paris TX",
        "type": "Manufacturing - sauces (flagship sauce facility)",
        "archetype": "#9",
        "archetypeName": "Gate + No GS (remote check-in)",
        "confidence": "medium",
        "zone": "dropYard",
        "index": 1
      }
    },
    {
      "type": "Feature",
      "geometry": {
        "type": "Polygon",
        "coordinates": [
          [
            [
              -95.562648,
              33.689129
            ],
            [
              -95.562785,
              33.687986
            ],
            [
              -95.558391,
              33.687758
            ],
            [
              -95.558253,
              33.6889
            ],
            [
              -95.562648,
              33.689129
            ]
          ]
        ]
      },
      "properties": {
        "account": "campbells",
        "name": "Campbell's - Paris TX",
        "type": "Manufacturing - sauces (flagship sauce facility)",
        "archetype": "#9",
        "archetypeName": "Gate + No GS (remote check-in)",
        "confidence": "medium",
        "zone": "dockApron",
        "index": 1
      }
    },
    {
      "type": "Feature",
      "geometry": {
        "type": "Polygon",
        "coordinates": [
          [
            [
              -76.954884,
              39.808126
            ],
            [
              -76.955159,
              39.806227
            ],
            [
              -76.953923,
              39.804434
            ],
            [
              -76.952,
              39.804329
            ],
            [
              -76.949803,
              39.805173
            ],
            [
              -76.949253,
              39.806755
            ],
            [
              -76.951313,
              39.80781
            ],
            [
              -76.954884,
              39.808126
            ]
          ]
        ]
      },
      "properties": {
        "account": "campbells",
        "name": "Snyder's of Hanover - Hanover PA",
        "type": "Manufacturing - pretzels/snacks (kettle chip lines added 2024)",
        "archetype": "#3",
        "archetypeName": "No Gate / No GS",
        "confidence": "medium",
        "zone": "perimeter",
        "truckGate": false,
        "guardShack": false,
        "remoteGs": false,
        "fastLaneOpportunity": false,
        "backupSensitive": false,
        "dropYard": true,
        "multipleFacilities": true,
        "scale": false,
        "shipRcvSeparate": false,
        "urbanRural": "Rural",
        "dockDoors": "25-50",
        "dropArea": "25-50",
        "yardMetrics": {
          "dockDoorCount": 45,
          "trailersVisible": 70,
          "trailerParkingCapacity": 110,
          "truckGateCount": 0,
          "buildingCount": 4,
          "siteAreaAcres": 70,
          "railServed": false
        }
      }
    },
    {
      "type": "Feature",
      "geometry": {
        "type": "Polygon",
        "coordinates": [
          [
            [
              -76.954472,
              39.807388
            ],
            [
              -76.953923,
              39.805805
            ],
            [
              -76.952,
              39.806227
            ],
            [
              -76.952549,
              39.80781
            ],
            [
              -76.954472,
              39.807388
            ]
          ]
        ]
      },
      "properties": {
        "account": "campbells",
        "name": "Snyder's of Hanover - Hanover PA",
        "type": "Manufacturing - pretzels/snacks (kettle chip lines added 2024)",
        "archetype": "#3",
        "archetypeName": "No Gate / No GS",
        "confidence": "medium",
        "zone": "dropYard",
        "index": 1
      }
    },
    {
      "type": "Feature",
      "geometry": {
        "type": "Polygon",
        "coordinates": [
          [
            [
              -76.953373,
              39.805173
            ],
            [
              -76.95303,
              39.80454
            ],
            [
              -76.95097,
              39.805067
            ],
            [
              -76.951313,
              39.8057
            ],
            [
              -76.953373,
              39.805173
            ]
          ]
        ]
      },
      "properties": {
        "account": "campbells",
        "name": "Snyder's of Hanover - Hanover PA",
        "type": "Manufacturing - pretzels/snacks (kettle chip lines added 2024)",
        "archetype": "#3",
        "archetypeName": "No Gate / No GS",
        "confidence": "medium",
        "zone": "dockApron",
        "index": 1
      }
    },
    {
      "type": "Feature",
      "geometry": {
        "type": "Polygon",
        "coordinates": [
          [
            [
              -82.712071,
              41.055436
            ],
            [
              -82.712345,
              41.054193
            ],
            [
              -82.709873,
              41.053157
            ],
            [
              -82.70438,
              41.053572
            ],
            [
              -82.70438,
              41.055228
            ],
            [
              -82.712071,
              41.055436
            ]
          ]
        ]
      },
      "properties": {
        "account": "campbells",
        "name": "Pepperidge Farm - Willard OH",
        "type": "Manufacturing - bakery (primary Goldfish cracker plant)",
        "archetype": "#9",
        "archetypeName": "Gate + No GS (remote check-in)",
        "confidence": "medium",
        "zone": "perimeter",
        "truckGate": true,
        "guardShack": false,
        "remoteGs": true,
        "fastLaneOpportunity": true,
        "backupSensitive": false,
        "dropYard": true,
        "multipleFacilities": true,
        "scale": false,
        "shipRcvSeparate": false,
        "urbanRural": "Rural",
        "dockDoors": "50+",
        "dropArea": "50+",
        "yardMetrics": {
          "dockDoorCount": 50,
          "trailersVisible": 130,
          "trailerParkingCapacity": 180,
          "truckGateCount": 1,
          "buildingCount": 5,
          "siteAreaAcres": 110,
          "railServed": false
        }
      }
    },
    {
      "type": "Feature",
      "geometry": {
        "type": "Polygon",
        "coordinates": [
          [
            [
              -82.706852,
              41.055125
            ],
            [
              -82.706921,
              41.054296
            ],
            [
              -82.704449,
              41.054193
            ],
            [
              -82.70438,
              41.055021
            ],
            [
              -82.706852,
              41.055125
            ]
          ]
        ]
      },
      "properties": {
        "account": "campbells",
        "name": "Pepperidge Farm - Willard OH",
        "type": "Manufacturing - bakery (primary Goldfish cracker plant)",
        "archetype": "#9",
        "archetypeName": "Gate + No GS (remote check-in)",
        "confidence": "medium",
        "zone": "dropYard",
        "index": 1
      }
    },
    {
      "type": "Feature",
      "geometry": {
        "type": "Polygon",
        "coordinates": [
          [
            [
              -82.709873,
              41.055125
            ],
            [
              -82.709942,
              41.054504
            ],
            [
              -82.707195,
              41.0544
            ],
            [
              -82.707127,
              41.055021
            ],
            [
              -82.709873,
              41.055125
            ]
          ]
        ]
      },
      "properties": {
        "account": "campbells",
        "name": "Pepperidge Farm - Willard OH",
        "type": "Manufacturing - bakery (primary Goldfish cracker plant)",
        "archetype": "#9",
        "archetypeName": "Gate + No GS (remote check-in)",
        "confidence": "medium",
        "zone": "dockApron",
        "index": 1
      }
    },
    {
      "type": "Feature",
      "geometry": {
        "type": "Polygon",
        "coordinates": [
          [
            [
              -111.816849,
              41.942256
            ],
            [
              -111.817399,
              41.940622
            ],
            [
              -111.817673,
              41.937353
            ],
            [
              -111.8163,
              41.937148
            ],
            [
              -111.815201,
              41.939089
            ],
            [
              -111.814652,
              41.941949
            ],
            [
              -111.816849,
              41.942256
            ]
          ]
        ]
      },
      "properties": {
        "account": "campbells",
        "name": "Pepperidge Farm - Richmond UT",
        "type": "Manufacturing - bakery (Goldfish crackers, +50% capacity 2024)",
        "archetype": "#9",
        "archetypeName": "Gate + No GS (remote check-in)",
        "confidence": "medium",
        "zone": "perimeter",
        "truckGate": true,
        "guardShack": false,
        "remoteGs": true,
        "fastLaneOpportunity": false,
        "backupSensitive": false,
        "dropYard": true,
        "multipleFacilities": false,
        "scale": false,
        "shipRcvSeparate": false,
        "urbanRural": "Rural",
        "dockDoors": "25-50",
        "dropArea": "10-25",
        "yardMetrics": {
          "dockDoorCount": 35,
          "trailersVisible": 25,
          "trailerParkingCapacity": 50,
          "truckGateCount": 1,
          "buildingCount": 3,
          "siteAreaAcres": 80,
          "railServed": true
        }
      }
    },
    {
      "type": "Feature",
      "geometry": {
        "type": "Polygon",
        "coordinates": [
          [
            [
              -111.816987,
              41.941643
            ],
            [
              -111.817399,
              41.937966
            ],
            [
              -111.8163,
              41.937761
            ],
            [
              -111.815476,
              41.941439
            ],
            [
              -111.816987,
              41.941643
            ]
          ]
        ]
      },
      "properties": {
        "account": "campbells",
        "name": "Pepperidge Farm - Richmond UT",
        "type": "Manufacturing - bakery (Goldfish crackers, +50% capacity 2024)",
        "archetype": "#9",
        "archetypeName": "Gate + No GS (remote check-in)",
        "confidence": "medium",
        "zone": "dockApron",
        "index": 1
      }
    },
    {
      "type": "Feature",
      "geometry": {
        "type": "Polygon",
        "coordinates": [
          [
            [
              -111.817399,
              41.937966
            ],
            [
              -111.817467,
              41.937353
            ],
            [
              -111.816094,
              41.937148
            ],
            [
              -111.816025,
              41.937761
            ],
            [
              -111.817399,
              41.937966
            ]
          ]
        ]
      },
      "properties": {
        "account": "campbells",
        "name": "Pepperidge Farm - Richmond UT",
        "type": "Manufacturing - bakery (Goldfish crackers, +50% capacity 2024)",
        "archetype": "#9",
        "archetypeName": "Gate + No GS (remote check-in)",
        "confidence": "medium",
        "zone": "staging"
      }
    },
    {
      "type": "Feature",
      "geometry": {
        "type": "Polygon",
        "coordinates": [
          [
            [
              -76.088796,
              40.224478
            ],
            [
              -76.089345,
              40.222381
            ],
            [
              -76.088247,
              40.219864
            ],
            [
              -76.084951,
              40.219445
            ],
            [
              -76.082204,
              40.221542
            ],
            [
              -76.083852,
              40.224897
            ],
            [
              -76.088796,
              40.224478
            ]
          ]
        ]
      },
      "properties": {
        "account": "campbells",
        "name": "Pepperidge Farm - Denver PA",
        "type": "Manufacturing - bakery (baked goods and cookies)",
        "archetype": "#9",
        "archetypeName": "Gate + No GS (remote check-in)",
        "confidence": "medium",
        "zone": "perimeter",
        "truckGate": true,
        "guardShack": false,
        "remoteGs": true,
        "fastLaneOpportunity": true,
        "backupSensitive": false,
        "dropYard": true,
        "multipleFacilities": false,
        "scale": false,
        "shipRcvSeparate": false,
        "urbanRural": "Rural",
        "dockDoors": "25-50",
        "dropArea": "50+",
        "yardMetrics": {
          "dockDoorCount": 45,
          "trailersVisible": 70,
          "trailerParkingCapacity": 110,
          "truckGateCount": 1,
          "buildingCount": 2,
          "siteAreaAcres": 95,
          "railServed": false
        }
      }
    },
    {
      "type": "Feature",
      "geometry": {
        "type": "Polygon",
        "coordinates": [
          [
            [
              -76.087697,
              40.222381
            ],
            [
              -76.087285,
              40.221122
            ],
            [
              -76.08344,
              40.221542
            ],
            [
              -76.083852,
              40.2228
            ],
            [
              -76.087697,
              40.222381
            ]
          ]
        ]
      },
      "properties": {
        "account": "campbells",
        "name": "Pepperidge Farm - Denver PA",
        "type": "Manufacturing - bakery (baked goods and cookies)",
        "archetype": "#9",
        "archetypeName": "Gate + No GS (remote check-in)",
        "confidence": "medium",
        "zone": "dockApron",
        "index": 1
      }
    },
    {
      "type": "Feature",
      "geometry": {
        "type": "Polygon",
        "coordinates": [
          [
            [
              -72.720923,
              41.870179
            ],
            [
              -72.721197,
              41.868952
            ],
            [
              -72.720373,
              41.867623
            ],
            [
              -72.718313,
              41.867725
            ],
            [
              -72.717627,
              41.86885
            ],
            [
              -72.718313,
              41.870282
            ],
            [
              -72.720923,
              41.870179
            ]
          ]
        ]
      },
      "properties": {
        "account": "campbells",
        "name": "Pepperidge Farm - Bloomfield CT",
        "type": "Manufacturing - bakery (bread, rolls, stuffing, croutons)",
        "archetype": "#3",
        "archetypeName": "No Gate / No GS",
        "confidence": "high",
        "zone": "perimeter",
        "truckGate": false,
        "guardShack": false,
        "remoteGs": false,
        "fastLaneOpportunity": false,
        "backupSensitive": false,
        "dropYard": true,
        "multipleFacilities": false,
        "scale": false,
        "shipRcvSeparate": true,
        "urbanRural": "Rural",
        "dockDoors": "25-50",
        "dropArea": "25-50",
        "yardMetrics": {
          "dockDoorCount": 38,
          "trailersVisible": 42,
          "trailerParkingCapacity": 55,
          "truckGateCount": 2,
          "buildingCount": 1,
          "siteAreaAcres": 33,
          "railServed": false
        }
      }
    },
    {
      "type": "Feature",
      "geometry": {
        "type": "Polygon",
        "coordinates": [
          [
            [
              -72.720648,
              41.869873
            ],
            [
              -72.720717,
              41.869157
            ],
            [
              -72.719069,
              41.869055
            ],
            [
              -72.719,
              41.86977
            ],
            [
              -72.720648,
              41.869873
            ]
          ]
        ]
      },
      "properties": {
        "account": "campbells",
        "name": "Pepperidge Farm - Bloomfield CT",
        "type": "Manufacturing - bakery (bread, rolls, stuffing, croutons)",
        "archetype": "#3",
        "archetypeName": "No Gate / No GS",
        "confidence": "high",
        "zone": "dropYard",
        "index": 1
      }
    },
    {
      "type": "Feature",
      "geometry": {
        "type": "Polygon",
        "coordinates": [
          [
            [
              -72.720373,
              41.868645
            ],
            [
              -72.720442,
              41.868134
            ],
            [
              -72.71797,
              41.868032
            ],
            [
              -72.717901,
              41.868543
            ],
            [
              -72.720373,
              41.868645
            ]
          ]
        ]
      },
      "properties": {
        "account": "campbells",
        "name": "Pepperidge Farm - Bloomfield CT",
        "type": "Manufacturing - bakery (bread, rolls, stuffing, croutons)",
        "archetype": "#3",
        "archetypeName": "No Gate / No GS",
        "confidence": "high",
        "zone": "dockApron",
        "index": 1
      }
    },
    {
      "type": "Feature",
      "geometry": {
        "type": "Polygon",
        "coordinates": [
          [
            [
              -75.687423,
              40.005147
            ],
            [
              -75.687697,
              40.0042
            ],
            [
              -75.686873,
              40.003358
            ],
            [
              -75.684813,
              40.003674
            ],
            [
              -75.684951,
              40.005252
            ],
            [
              -75.687423,
              40.005147
            ]
          ]
        ]
      },
      "properties": {
        "account": "campbells",
        "name": "Pepperidge Farm - Downingtown PA",
        "type": "Manufacturing - bakery",
        "archetype": "#3",
        "archetypeName": "No Gate / No GS",
        "confidence": "high",
        "zone": "perimeter",
        "truckGate": false,
        "guardShack": false,
        "remoteGs": false,
        "fastLaneOpportunity": false,
        "backupSensitive": true,
        "dropYard": true,
        "multipleFacilities": false,
        "scale": false,
        "shipRcvSeparate": false,
        "urbanRural": "Urban",
        "dockDoors": "10-25",
        "dropArea": "10-25",
        "yardMetrics": {
          "dockDoorCount": 16,
          "trailersVisible": 11,
          "trailerParkingCapacity": 18,
          "truckGateCount": 3,
          "buildingCount": 2,
          "siteAreaAcres": 14,
          "railServed": false
        }
      }
    },
    {
      "type": "Feature",
      "geometry": {
        "type": "Polygon",
        "coordinates": [
          [
            [
              -75.687148,
              40.0042
            ],
            [
              -75.687079,
              40.003674
            ],
            [
              -75.685157,
              40.003779
            ],
            [
              -75.685225,
              40.004305
            ],
            [
              -75.687148,
              40.0042
            ]
          ]
        ]
      },
      "properties": {
        "account": "campbells",
        "name": "Pepperidge Farm - Downingtown PA",
        "type": "Manufacturing - bakery",
        "archetype": "#3",
        "archetypeName": "No Gate / No GS",
        "confidence": "high",
        "zone": "dockApron",
        "index": 1
      }
    },
    {
      "type": "Feature",
      "geometry": {
        "type": "Polygon",
        "coordinates": [
          [
            [
              -81.982873,
              28.074898
            ],
            [
              -81.983011,
              28.07405
            ],
            [
              -81.982599,
              28.072838
            ],
            [
              -81.980401,
              28.073081
            ],
            [
              -81.980401,
              28.074777
            ],
            [
              -81.982873,
              28.074898
            ]
          ]
        ]
      },
      "properties": {
        "account": "campbells",
        "name": "Pepperidge Farm - Lakeland FL",
        "type": "Manufacturing - bakery and crackers",
        "archetype": "#1",
        "archetypeName": "Gate + GS (not BU sens.)",
        "confidence": "high",
        "zone": "perimeter",
        "truckGate": true,
        "guardShack": true,
        "remoteGs": false,
        "fastLaneOpportunity": false,
        "backupSensitive": false,
        "dropYard": true,
        "multipleFacilities": false,
        "scale": false,
        "shipRcvSeparate": false,
        "urbanRural": "Urban",
        "dockDoors": "25-50",
        "dropArea": "25-50",
        "yardMetrics": {
          "dockDoorCount": 44,
          "trailersVisible": 24,
          "trailerParkingCapacity": 40,
          "truckGateCount": 1,
          "buildingCount": 1,
          "siteAreaAcres": 38,
          "railServed": false
        }
      }
    },
    {
      "type": "Feature",
      "geometry": {
        "type": "Polygon",
        "coordinates": [
          [
            [
              -81.982599,
              28.073808
            ],
            [
              -81.982667,
              28.073202
            ],
            [
              -81.980745,
              28.073081
            ],
            [
              -81.980676,
              28.073686
            ],
            [
              -81.982599,
              28.073808
            ]
          ]
        ]
      },
      "properties": {
        "account": "campbells",
        "name": "Pepperidge Farm - Lakeland FL",
        "type": "Manufacturing - bakery and crackers",
        "archetype": "#1",
        "archetypeName": "Gate + GS (not BU sens.)",
        "confidence": "high",
        "zone": "dockApron",
        "index": 1
      }
    },
    {
      "type": "Feature",
      "geometry": {
        "type": "Polygon",
        "coordinates": [
          [
            [
              -80.88862,
              35.122699
            ],
            [
              -80.888895,
              35.121238
            ],
            [
              -80.887796,
              35.119104
            ],
            [
              -80.883813,
              35.119104
            ],
            [
              -80.882303,
              35.120901
            ],
            [
              -80.882852,
              35.123373
            ],
            [
              -80.88862,
              35.122699
            ]
          ]
        ]
      },
      "properties": {
        "account": "campbells",
        "name": "Lance - Charlotte NC",
        "type": "Manufacturing - crackers/sandwich snacks",
        "archetype": "#6",
        "archetypeName": "Gate + GS (not BU sens.) + campus",
        "confidence": "medium",
        "zone": "perimeter",
        "truckGate": true,
        "guardShack": true,
        "remoteGs": false,
        "fastLaneOpportunity": true,
        "backupSensitive": false,
        "dropYard": true,
        "multipleFacilities": true,
        "scale": false,
        "shipRcvSeparate": true,
        "urbanRural": "Urban",
        "dockDoors": "50+",
        "dropArea": "50+",
        "yardMetrics": {
          "dockDoorCount": 70,
          "trailersVisible": 95,
          "trailerParkingCapacity": 160,
          "truckGateCount": 1,
          "buildingCount": 6,
          "siteAreaAcres": 108,
          "railServed": false
        }
      }
    },
    {
      "type": "Feature",
      "geometry": {
        "type": "Polygon",
        "coordinates": [
          [
            [
              -80.885873,
              35.122923
            ],
            [
              -80.885942,
              35.122137
            ],
            [
              -80.882921,
              35.122362
            ],
            [
              -80.882852,
              35.123148
            ],
            [
              -80.885873,
              35.122923
            ]
          ]
        ]
      },
      "properties": {
        "account": "campbells",
        "name": "Lance - Charlotte NC",
        "type": "Manufacturing - crackers/sandwich snacks",
        "archetype": "#6",
        "archetypeName": "Gate + GS (not BU sens.) + campus",
        "confidence": "medium",
        "zone": "dropYard",
        "index": 1
      }
    },
    {
      "type": "Feature",
      "geometry": {
        "type": "Polygon",
        "coordinates": [
          [
            [
              -80.887521,
              35.1218
            ],
            [
              -80.887453,
              35.121126
            ],
            [
              -80.883745,
              35.121463
            ],
            [
              -80.883813,
              35.122137
            ],
            [
              -80.887521,
              35.1218
            ]
          ]
        ]
      },
      "properties": {
        "account": "campbells",
        "name": "Lance - Charlotte NC",
        "type": "Manufacturing - crackers/sandwich snacks",
        "archetype": "#6",
        "archetypeName": "Gate + GS (not BU sens.) + campus",
        "confidence": "medium",
        "zone": "dockApron",
        "index": 1
      }
    },
    {
      "type": "Feature",
      "geometry": {
        "type": "Polygon",
        "coordinates": [
          [
            [
              -91.141011,
              40.828116
            ],
            [
              -91.141217,
              40.82744
            ],
            [
              -91.141148,
              40.826037
            ],
            [
              -91.139157,
              40.825933
            ],
            [
              -91.137852,
              40.826245
            ],
            [
              -91.138127,
              40.82822
            ],
            [
              -91.141011,
              40.828116
            ]
          ]
        ]
      },
      "properties": {
        "account": "campbells",
        "name": "Lance - Burlington IA",
        "type": "Manufacturing - snacks/crackers",
        "archetype": "#3",
        "archetypeName": "No Gate / No GS",
        "confidence": "medium",
        "zone": "perimeter",
        "truckGate": false,
        "guardShack": false,
        "remoteGs": false,
        "fastLaneOpportunity": false,
        "backupSensitive": false,
        "dropYard": true,
        "multipleFacilities": false,
        "scale": false,
        "shipRcvSeparate": false,
        "urbanRural": "Rural",
        "dockDoors": "10-25",
        "dropArea": "10-25",
        "yardMetrics": {
          "dockDoorCount": 22,
          "trailersVisible": 8,
          "trailerParkingCapacity": 25,
          "truckGateCount": 2,
          "buildingCount": 2,
          "siteAreaAcres": 32,
          "railServed": false
        }
      }
    },
    {
      "type": "Feature",
      "geometry": {
        "type": "Polygon",
        "coordinates": [
          [
            [
              -91.1395,
              40.82744
            ],
            [
              -91.139534,
              40.826817
            ],
            [
              -91.137886,
              40.826869
            ],
            [
              -91.137852,
              40.827492
            ],
            [
              -91.1395,
              40.82744
            ]
          ]
        ]
      },
      "properties": {
        "account": "campbells",
        "name": "Lance - Burlington IA",
        "type": "Manufacturing - snacks/crackers",
        "archetype": "#3",
        "archetypeName": "No Gate / No GS",
        "confidence": "medium",
        "zone": "dropYard",
        "index": 1
      }
    },
    {
      "type": "Feature",
      "geometry": {
        "type": "Polygon",
        "coordinates": [
          [
            [
              -91.140873,
              40.827908
            ],
            [
              -91.140908,
              40.827544
            ],
            [
              -91.139534,
              40.827596
            ],
            [
              -91.1395,
              40.82796
            ],
            [
              -91.140873,
              40.827908
            ]
          ]
        ]
      },
      "properties": {
        "account": "campbells",
        "name": "Lance - Burlington IA",
        "type": "Manufacturing - snacks/crackers",
        "archetype": "#3",
        "archetypeName": "No Gate / No GS",
        "confidence": "medium",
        "zone": "dockApron",
        "index": 1
      }
    },
    {
      "type": "Feature",
      "geometry": {
        "type": "Polygon",
        "coordinates": [
          [
            [
              -122.999324,
              44.926272
            ],
            [
              -122.999461,
              44.925689
            ],
            [
              -122.999324,
              44.924814
            ],
            [
              -122.998157,
              44.924717
            ],
            [
              -122.997676,
              44.925057
            ],
            [
              -122.997676,
              44.926272
            ],
            [
              -122.999324,
              44.926272
            ]
          ]
        ]
      },
      "properties": {
        "account": "campbells",
        "name": "Kettle Brand - Salem OR",
        "type": "Manufacturing - kettle potato chips",
        "archetype": "#3",
        "archetypeName": "No Gate / No GS",
        "confidence": "high",
        "zone": "perimeter",
        "truckGate": false,
        "guardShack": false,
        "remoteGs": false,
        "fastLaneOpportunity": false,
        "backupSensitive": false,
        "dropYard": false,
        "multipleFacilities": false,
        "scale": false,
        "shipRcvSeparate": false,
        "urbanRural": "Urban",
        "dockDoors": "10-25",
        "dropArea": "0-10",
        "yardMetrics": {
          "dockDoorCount": 12,
          "trailersVisible": 7,
          "trailerParkingCapacity": 12,
          "truckGateCount": 1,
          "buildingCount": 1,
          "siteAreaAcres": 16,
          "railServed": false
        }
      }
    },
    {
      "type": "Feature",
      "geometry": {
        "type": "Polygon",
        "coordinates": [
          [
            [
              -122.999049,
              44.925397
            ],
            [
              -122.999084,
              44.925106
            ],
            [
              -122.997848,
              44.925106
            ],
            [
              -122.997813,
              44.925397
            ],
            [
              -122.999049,
              44.925397
            ]
          ]
        ]
      },
      "properties": {
        "account": "campbells",
        "name": "Kettle Brand - Salem OR",
        "type": "Manufacturing - kettle potato chips",
        "archetype": "#3",
        "archetypeName": "No Gate / No GS",
        "confidence": "high",
        "zone": "dockApron",
        "index": 1
      }
    },
    {
      "type": "Feature",
      "geometry": {
        "type": "Polygon",
        "coordinates": [
          [
            [
              -88.995173,
              42.514327
            ],
            [
              -88.995173,
              42.512505
            ],
            [
              -88.993457,
              42.511999
            ],
            [
              -88.991053,
              42.512353
            ],
            [
              -88.990916,
              42.514125
            ],
            [
              -88.995173,
              42.514327
            ]
          ]
        ]
      },
      "properties": {
        "account": "campbells",
        "name": "Snyder's-Lance - Beloit WI",
        "type": "Manufacturing - snacks/potato chips",
        "archetype": "#3",
        "archetypeName": "No Gate / No GS",
        "confidence": "low",
        "zone": "perimeter",
        "truckGate": false,
        "guardShack": false,
        "remoteGs": false,
        "fastLaneOpportunity": false,
        "backupSensitive": false,
        "dropYard": false,
        "multipleFacilities": false,
        "scale": false,
        "shipRcvSeparate": false,
        "urbanRural": "Rural",
        "dockDoors": "0-10",
        "dropArea": "0-10",
        "yardMetrics": {
          "dockDoorCount": 8,
          "trailersVisible": 4,
          "trailerParkingCapacity": 10,
          "truckGateCount": 1,
          "buildingCount": 1,
          "siteAreaAcres": 10,
          "railServed": false
        }
      }
    },
    {
      "type": "Feature",
      "geometry": {
        "type": "Polygon",
        "coordinates": [
          [
            [
              -88.995036,
              42.514023
            ],
            [
              -88.99507,
              42.51296
            ],
            [
              -88.993834,
              42.51291
            ],
            [
              -88.9938,
              42.513973
            ],
            [
              -88.995036,
              42.514023
            ]
          ]
        ]
      },
      "properties": {
        "account": "campbells",
        "name": "Snyder's-Lance - Beloit WI",
        "type": "Manufacturing - snacks/potato chips",
        "archetype": "#3",
        "archetypeName": "No Gate / No GS",
        "confidence": "low",
        "zone": "dropYard",
        "index": 1
      }
    },
    {
      "type": "Feature",
      "geometry": {
        "type": "Polygon",
        "coordinates": [
          [
            [
              -88.992427,
              42.514023
            ],
            [
              -88.992461,
              42.513618
            ],
            [
              -88.991088,
              42.513517
            ],
            [
              -88.991053,
              42.513922
            ],
            [
              -88.992427,
              42.514023
            ]
          ]
        ]
      },
      "properties": {
        "account": "campbells",
        "name": "Snyder's-Lance - Beloit WI",
        "type": "Manufacturing - snacks/potato chips",
        "archetype": "#3",
        "archetypeName": "No Gate / No GS",
        "confidence": "low",
        "zone": "dockApron",
        "index": 1
      }
    },
    {
      "type": "Feature",
      "geometry": {
        "type": "Polygon",
        "coordinates": [
          [
            [
              -87.988085,
              42.860054
            ],
            [
              -87.988223,
              42.859601
            ],
            [
              -87.987673,
              42.858846
            ],
            [
              -87.985751,
              42.858897
            ],
            [
              -87.985201,
              42.8594
            ],
            [
              -87.985339,
              42.860155
            ],
            [
              -87.988085,
              42.860054
            ]
          ]
        ]
      },
      "properties": {
        "account": "campbells",
        "name": "Campbell's - Franklin WI",
        "type": "Manufacturing - tortilla chips (Late July; capacity expanded 2024)",
        "archetype": "#3",
        "archetypeName": "No Gate / No GS",
        "confidence": "medium",
        "zone": "perimeter",
        "truckGate": false,
        "guardShack": false,
        "remoteGs": false,
        "fastLaneOpportunity": false,
        "backupSensitive": false,
        "dropYard": true,
        "multipleFacilities": false,
        "scale": false,
        "shipRcvSeparate": true,
        "urbanRural": "Urban",
        "dockDoors": "10-25",
        "dropArea": "0-10",
        "yardMetrics": {
          "dockDoorCount": 14,
          "trailersVisible": 13,
          "trailerParkingCapacity": 18,
          "truckGateCount": 2,
          "buildingCount": 1,
          "siteAreaAcres": 16,
          "railServed": false
        }
      }
    },
    {
      "type": "Feature",
      "geometry": {
        "type": "Polygon",
        "coordinates": [
          [
            [
              -87.987879,
              42.859903
            ],
            [
              -87.987914,
              42.859601
            ],
            [
              -87.986678,
              42.859551
            ],
            [
              -87.986643,
              42.859853
            ],
            [
              -87.987879,
              42.859903
            ]
          ]
        ]
      },
      "properties": {
        "account": "campbells",
        "name": "Campbell's - Franklin WI",
        "type": "Manufacturing - tortilla chips (Late July; capacity expanded 2024)",
        "archetype": "#3",
        "archetypeName": "No Gate / No GS",
        "confidence": "medium",
        "zone": "dockApron",
        "index": 1
      }
    },
    {
      "type": "Feature",
      "geometry": {
        "type": "Polygon",
        "coordinates": [
          [
            [
              -87.919024,
              42.953304
            ],
            [
              -87.919093,
              42.952802
            ],
            [
              -87.918887,
              42.952198
            ],
            [
              -87.917513,
              42.952249
            ],
            [
              -87.917513,
              42.953204
            ],
            [
              -87.919024,
              42.953304
            ]
          ]
        ]
      },
      "properties": {
        "account": "campbells",
        "name": "Campbell's - Milwaukee WI",
        "type": "Manufacturing - spice production (Campbell Soup Supply Co.)",
        "archetype": "#3",
        "archetypeName": "No Gate / No GS",
        "confidence": "medium",
        "zone": "perimeter",
        "truckGate": false,
        "guardShack": false,
        "remoteGs": false,
        "fastLaneOpportunity": false,
        "backupSensitive": false,
        "dropYard": false,
        "multipleFacilities": false,
        "scale": false,
        "shipRcvSeparate": false,
        "urbanRural": "Urban",
        "dockDoors": "0-10",
        "dropArea": "NONE",
        "yardMetrics": {
          "dockDoorCount": 6,
          "trailersVisible": 1,
          "trailerParkingCapacity": 6,
          "truckGateCount": 1,
          "buildingCount": 1,
          "siteAreaAcres": 7.5,
          "railServed": false
        }
      }
    },
    {
      "type": "Feature",
      "geometry": {
        "type": "Polygon",
        "coordinates": [
          [
            [
              -87.918887,
              42.952601
            ],
            [
              -87.918921,
              42.952349
            ],
            [
              -87.917685,
              42.952299
            ],
            [
              -87.917651,
              42.95255
            ],
            [
              -87.918887,
              42.952601
            ]
          ]
        ]
      },
      "properties": {
        "account": "campbells",
        "name": "Campbell's - Milwaukee WI",
        "type": "Manufacturing - spice production (Campbell Soup Supply Co.)",
        "archetype": "#3",
        "archetypeName": "No Gate / No GS",
        "confidence": "medium",
        "zone": "dockApron",
        "index": 1
      }
    },
    {
      "type": "Feature",
      "geometry": {
        "type": "Polygon",
        "coordinates": [
          [
            [
              -121.804423,
              38.476865
            ],
            [
              -121.804423,
              38.47493
            ],
            [
              -121.803599,
              38.47106
            ],
            [
              -121.801127,
              38.47106
            ],
            [
              -121.800303,
              38.4745
            ],
            [
              -121.800303,
              38.47665
            ],
            [
              -121.804423,
              38.476865
            ]
          ]
        ]
      },
      "properties": {
        "account": "campbells",
        "name": "Pace / Prego - Dixon CA",
        "type": "Manufacturing - tomato processing for sauces (Prego / Pace), Campbell Soup Supply Co.",
        "archetype": "#9",
        "archetypeName": "Gate + No GS (remote check-in)",
        "confidence": "medium",
        "zone": "perimeter",
        "truckGate": true,
        "guardShack": false,
        "remoteGs": true,
        "fastLaneOpportunity": false,
        "backupSensitive": false,
        "dropYard": true,
        "multipleFacilities": true,
        "scale": false,
        "shipRcvSeparate": true,
        "urbanRural": "Rural",
        "dockDoors": "10-25",
        "dropArea": "50+",
        "yardMetrics": {
          "dockDoorCount": 12,
          "trailersVisible": 55,
          "trailerParkingCapacity": 90,
          "truckGateCount": 2,
          "buildingCount": 8,
          "siteAreaAcres": 39,
          "railServed": false
        }
      }
    },
    {
      "type": "Feature",
      "geometry": {
        "type": "Polygon",
        "coordinates": [
          [
            [
              -121.803599,
              38.475575
            ],
            [
              -121.803667,
              38.47493
            ],
            [
              -121.800921,
              38.474823
            ],
            [
              -121.800852,
              38.475468
            ],
            [
              -121.803599,
              38.475575
            ]
          ]
        ]
      },
      "properties": {
        "account": "campbells",
        "name": "Pace / Prego - Dixon CA",
        "type": "Manufacturing - tomato processing for sauces (Prego / Pace), Campbell Soup Supply Co.",
        "archetype": "#9",
        "archetypeName": "Gate + No GS (remote check-in)",
        "confidence": "medium",
        "zone": "dockApron",
        "index": 1
      }
    },
    {
      "type": "Feature",
      "geometry": {
        "type": "Polygon",
        "coordinates": [
          [
            [
              -121.803324,
              38.47192
            ],
            [
              -121.803393,
              38.471275
            ],
            [
              -121.80147,
              38.471167
            ],
            [
              -121.801401,
              38.471812
            ],
            [
              -121.803324,
              38.47192
            ]
          ]
        ]
      },
      "properties": {
        "account": "campbells",
        "name": "Pace / Prego - Dixon CA",
        "type": "Manufacturing - tomato processing for sauces (Prego / Pace), Campbell Soup Supply Co.",
        "archetype": "#9",
        "archetypeName": "Gate + No GS (remote check-in)",
        "confidence": "medium",
        "zone": "staging"
      }
    },
    {
      "type": "Feature",
      "geometry": {
        "type": "Polygon",
        "coordinates": [
          [
            [
              -121.266087,
              37.909025
            ],
            [
              -121.266018,
              37.908429
            ],
            [
              -121.265881,
              37.907779
            ],
            [
              -121.264576,
              37.907725
            ],
            [
              -121.263615,
              37.90805
            ],
            [
              -121.263477,
              37.908863
            ],
            [
              -121.266087,
              37.909025
            ]
          ]
        ]
      },
      "properties": {
        "account": "campbells",
        "name": "Campbell's - Stockton CA",
        "type": "Manufacturing - tomato processing (Campbell Soup Supply Co.)",
        "archetype": "#9",
        "archetypeName": "Gate + No GS (remote check-in)",
        "confidence": "medium",
        "zone": "perimeter",
        "truckGate": true,
        "guardShack": false,
        "remoteGs": true,
        "fastLaneOpportunity": false,
        "backupSensitive": false,
        "dropYard": false,
        "multipleFacilities": false,
        "scale": false,
        "shipRcvSeparate": false,
        "urbanRural": "Urban",
        "dockDoors": "0-10",
        "dropArea": "0-10",
        "yardMetrics": {
          "dockDoorCount": 6,
          "trailersVisible": 8,
          "trailerParkingCapacity": 12,
          "truckGateCount": 1,
          "buildingCount": 2,
          "siteAreaAcres": 11,
          "railServed": false
        }
      }
    },
    {
      "type": "Feature",
      "geometry": {
        "type": "Polygon",
        "coordinates": [
          [
            [
              -121.264576,
              37.908917
            ],
            [
              -121.26461,
              37.908104
            ],
            [
              -121.263512,
              37.90805
            ],
            [
              -121.263477,
              37.908863
            ],
            [
              -121.264576,
              37.908917
            ]
          ]
        ]
      },
      "properties": {
        "account": "campbells",
        "name": "Campbell's - Stockton CA",
        "type": "Manufacturing - tomato processing (Campbell Soup Supply Co.)",
        "archetype": "#9",
        "archetypeName": "Gate + No GS (remote check-in)",
        "confidence": "medium",
        "zone": "dropYard",
        "index": 1
      }
    },
    {
      "type": "Feature",
      "geometry": {
        "type": "Polygon",
        "coordinates": [
          [
            [
              -121.265949,
              37.908158
            ],
            [
              -121.265984,
              37.907887
            ],
            [
              -121.264748,
              37.907833
            ],
            [
              -121.264713,
              37.908104
            ],
            [
              -121.265949,
              37.908158
            ]
          ]
        ]
      },
      "properties": {
        "account": "campbells",
        "name": "Campbell's - Stockton CA",
        "type": "Manufacturing - tomato processing (Campbell Soup Supply Co.)",
        "archetype": "#9",
        "archetypeName": "Gate + No GS (remote check-in)",
        "confidence": "medium",
        "zone": "dockApron",
        "index": 1
      }
    },
    {
      "type": "Feature",
      "geometry": {
        "type": "Polygon",
        "coordinates": [
          [
            [
              -112.381697,
              33.460073
            ],
            [
              -112.381697,
              33.458813
            ],
            [
              -112.380187,
              33.457896
            ],
            [
              -112.377989,
              33.458469
            ],
            [
              -112.377989,
              33.459958
            ],
            [
              -112.381697,
              33.460073
            ]
          ]
        ]
      },
      "properties": {
        "account": "campbells",
        "name": "Campbell's - Goodyear AZ",
        "type": "Manufacturing - snacks/food production (Snyder's of Hanover pretzel plant)",
        "archetype": "#3",
        "archetypeName": "No Gate / No GS",
        "confidence": "high",
        "zone": "perimeter",
        "truckGate": false,
        "guardShack": false,
        "remoteGs": false,
        "fastLaneOpportunity": false,
        "backupSensitive": false,
        "dropYard": true,
        "multipleFacilities": false,
        "scale": false,
        "shipRcvSeparate": false,
        "urbanRural": "Rural",
        "dockDoors": "25-50",
        "dropArea": "25-50",
        "yardMetrics": {
          "dockDoorCount": 32,
          "trailersVisible": 46,
          "trailerParkingCapacity": 70,
          "truckGateCount": 1,
          "buildingCount": 2,
          "siteAreaAcres": 16.5,
          "railServed": false
        }
      }
    },
    {
      "type": "Feature",
      "geometry": {
        "type": "Polygon",
        "coordinates": [
          [
            [
              -112.38156,
              33.459844
            ],
            [
              -112.381594,
              33.459099
            ],
            [
              -112.380633,
              33.459042
            ],
            [
              -112.380599,
              33.459786
            ],
            [
              -112.38156,
              33.459844
            ]
          ]
        ]
      },
      "properties": {
        "account": "campbells",
        "name": "Campbell's - Goodyear AZ",
        "type": "Manufacturing - snacks/food production (Snyder's of Hanover pretzel plant)",
        "archetype": "#3",
        "archetypeName": "No Gate / No GS",
        "confidence": "high",
        "zone": "dropYard",
        "index": 1
      }
    },
    {
      "type": "Feature",
      "geometry": {
        "type": "Polygon",
        "coordinates": [
          [
            [
              -112.380187,
              33.458813
            ],
            [
              -112.380221,
              33.458469
            ],
            [
              -112.378436,
              33.458412
            ],
            [
              -112.378401,
              33.458755
            ],
            [
              -112.380187,
              33.458813
            ]
          ]
        ]
      },
      "properties": {
        "account": "campbells",
        "name": "Campbell's - Goodyear AZ",
        "type": "Manufacturing - snacks/food production (Snyder's of Hanover pretzel plant)",
        "archetype": "#3",
        "archetypeName": "No Gate / No GS",
        "confidence": "high",
        "zone": "dockApron",
        "index": 1
      }
    },
    {
      "type": "Feature",
      "geometry": {
        "type": "Polygon",
        "coordinates": [
          [
            [
              -97.678099,
              30.471642
            ],
            [
              -97.678167,
              30.471287
            ],
            [
              -97.678099,
              30.470636
            ],
            [
              -97.677,
              30.470458
            ],
            [
              -97.676313,
              30.470695
            ],
            [
              -97.676313,
              30.471583
            ],
            [
              -97.678099,
              30.471642
            ]
          ]
        ]
      },
      "properties": {
        "account": "campbells",
        "name": "Sovos / Rao's - Austin TX",
        "type": "Manufacturing - premium pasta sauces / frozen Italian foods (Michael Angelo's Gourmet Foods; Rao's Made for Home)",
        "archetype": "#9",
        "archetypeName": "Gate + No GS (remote check-in)",
        "confidence": "high",
        "zone": "perimeter",
        "truckGate": true,
        "guardShack": false,
        "remoteGs": true,
        "fastLaneOpportunity": false,
        "backupSensitive": false,
        "dropYard": true,
        "multipleFacilities": false,
        "scale": false,
        "shipRcvSeparate": false,
        "urbanRural": "Urban",
        "dockDoors": "10-25",
        "dropArea": "10-25",
        "yardMetrics": {
          "dockDoorCount": 22,
          "trailersVisible": 18,
          "trailerParkingCapacity": 28,
          "truckGateCount": 1,
          "buildingCount": 1,
          "siteAreaAcres": 9.5,
          "railServed": false
        }
      }
    },
    {
      "type": "Feature",
      "geometry": {
        "type": "Polygon",
        "coordinates": [
          [
            [
              -97.677,
              30.47105
            ],
            [
              -97.677017,
              30.470725
            ],
            [
              -97.676331,
              30.470695
            ],
            [
              -97.676313,
              30.47102
            ],
            [
              -97.677,
              30.47105
            ]
          ]
        ]
      },
      "properties": {
        "account": "campbells",
        "name": "Sovos / Rao's - Austin TX",
        "type": "Manufacturing - premium pasta sauces / frozen Italian foods (Michael Angelo's Gourmet Foods; Rao's Made for Home)",
        "archetype": "#9",
        "archetypeName": "Gate + No GS (remote check-in)",
        "confidence": "high",
        "zone": "dropYard",
        "index": 1
      }
    },
    {
      "type": "Feature",
      "geometry": {
        "type": "Polygon",
        "coordinates": [
          [
            [
              -97.677961,
              30.47105
            ],
            [
              -97.677978,
              30.470872
            ],
            [
              -97.677154,
              30.470843
            ],
            [
              -97.677137,
              30.47102
            ],
            [
              -97.677961,
              30.47105
            ]
          ]
        ]
      },
      "properties": {
        "account": "campbells",
        "name": "Sovos / Rao's - Austin TX",
        "type": "Manufacturing - premium pasta sauces / frozen Italian foods (Michael Angelo's Gourmet Foods; Rao's Made for Home)",
        "archetype": "#9",
        "archetypeName": "Gate + No GS (remote check-in)",
        "confidence": "high",
        "zone": "dockApron",
        "index": 1
      }
    },
    {
      "type": "Feature",
      "geometry": {
        "type": "Polygon",
        "coordinates": [
          [
            [
              -83.640993,
              41.076515
            ],
            [
              -83.640993,
              41.074445
            ],
            [
              -83.639895,
              41.072374
            ],
            [
              -83.632204,
              41.072789
            ],
            [
              -83.632204,
              41.076515
            ],
            [
              -83.640993,
              41.076515
            ]
          ]
        ]
      },
      "properties": {
        "account": "campbells",
        "name": "Campbell's Distribution Center - Findlay OH",
        "type": "Distribution center (740,000 sq ft; DHL Supply Chain operated)",
        "archetype": "#7",
        "archetypeName": "Gate + GS (not BU sens.) + fast lane opp",
        "confidence": "high",
        "zone": "perimeter",
        "truckGate": true,
        "guardShack": true,
        "remoteGs": false,
        "fastLaneOpportunity": true,
        "backupSensitive": false,
        "dropYard": true,
        "multipleFacilities": false,
        "scale": false,
        "shipRcvSeparate": false,
        "urbanRural": "Rural",
        "dockDoors": "50+",
        "dropArea": "50+",
        "yardMetrics": {
          "dockDoorCount": 90,
          "trailersVisible": 230,
          "trailerParkingCapacity": 320,
          "truckGateCount": 1,
          "buildingCount": 1,
          "siteAreaAcres": 58,
          "railServed": false
        }
      }
    },
    {
      "type": "Feature",
      "geometry": {
        "type": "Polygon",
        "coordinates": [
          [
            [
              -83.639895,
              41.075687
            ],
            [
              -83.640032,
              41.074445
            ],
            [
              -83.632891,
              41.074238
            ],
            [
              -83.632753,
              41.07548
            ],
            [
              -83.639895,
              41.075687
            ]
          ]
        ]
      },
      "properties": {
        "account": "campbells",
        "name": "Campbell's Distribution Center - Findlay OH",
        "type": "Distribution center (740,000 sq ft; DHL Supply Chain operated)",
        "archetype": "#7",
        "archetypeName": "Gate + GS (not BU sens.) + fast lane opp",
        "confidence": "high",
        "zone": "dockApron",
        "index": 1
      }
    }
  ]
}
