{
  "type": "FeatureCollection",
  "features": [
    {
      "type": "Feature",
      "geometry": {
        "type": "Polygon",
        "coordinates": [
          [
            [
              -91.726517,
              41.93833
            ],
            [
              -91.730088,
              41.933017
            ],
            [
              -91.718827,
              41.930565
            ],
            [
              -91.715805,
              41.936082
            ],
            [
              -91.726517,
              41.93833
            ]
          ]
        ]
      },
      "properties": {
        "account": "general-mills",
        "name": "General Mills - Cedar Rapids IA (Wenig Rd)",
        "type": "Manufacturing Plant",
        "archetype": "#9",
        "archetypeName": "Gate + No GS (remote check-in)",
        "confidence": "high",
        "zone": "perimeter",
        "truckGate": true,
        "guardShack": false,
        "remoteGs": true,
        "fastLaneOpportunity": true,
        "backupSensitive": false,
        "dropYard": true,
        "multipleFacilities": true,
        "scale": false,
        "shipRcvSeparate": true,
        "urbanRural": "Rural",
        "dockDoors": "50+",
        "dropArea": "50+",
        "yardMetrics": {
          "dockDoorCount": 55,
          "trailersVisible": 170,
          "trailerParkingCapacity": 200,
          "truckGateCount": 1,
          "buildingCount": 6,
          "siteAreaAcres": 224,
          "railServed": true
        }
      }
    },
    {
      "type": "Feature",
      "geometry": {
        "type": "Polygon",
        "coordinates": [
          [
            [
              -91.725144,
              41.934243
            ],
            [
              -91.725693,
              41.931791
            ],
            [
              -91.722123,
              41.931178
            ],
            [
              -91.721573,
              41.93363
            ],
            [
              -91.725144,
              41.934243
            ]
          ]
        ]
      },
      "properties": {
        "account": "general-mills",
        "name": "General Mills - Cedar Rapids IA (Wenig Rd)",
        "type": "Manufacturing Plant",
        "archetype": "#9",
        "archetypeName": "Gate + No GS (remote check-in)",
        "confidence": "high",
        "zone": "dropYard",
        "index": 1
      }
    },
    {
      "type": "Feature",
      "geometry": {
        "type": "Polygon",
        "coordinates": [
          [
            [
              -91.725693,
              41.933017
            ],
            [
              -91.725968,
              41.9322
            ],
            [
              -91.719101,
              41.93077
            ],
            [
              -91.718827,
              41.931587
            ],
            [
              -91.725693,
              41.933017
            ]
          ]
        ]
      },
      "properties": {
        "account": "general-mills",
        "name": "General Mills - Cedar Rapids IA (Wenig Rd)",
        "type": "Manufacturing Plant",
        "archetype": "#9",
        "archetypeName": "Gate + No GS (remote check-in)",
        "confidence": "high",
        "zone": "dockApron",
        "index": 1
      }
    },
    {
      "type": "Feature",
      "geometry": {
        "type": "Polygon",
        "coordinates": [
          [
            [
              -91.726517,
              41.93833
            ],
            [
              -91.730088,
              41.933017
            ],
            [
              -91.718827,
              41.930565
            ],
            [
              -91.715805,
              41.936082
            ],
            [
              -91.726517,
              41.93833
            ]
          ]
        ]
      },
      "properties": {
        "account": "general-mills",
        "name": "General Mills - Cedar Rapids IA (Edgewood Rd)",
        "type": "Manufacturing Plant",
        "archetype": "#9",
        "archetypeName": "Gate + No GS (remote check-in)",
        "confidence": "high",
        "zone": "perimeter",
        "truckGate": true,
        "guardShack": false,
        "remoteGs": true,
        "fastLaneOpportunity": true,
        "backupSensitive": false,
        "dropYard": true,
        "multipleFacilities": true,
        "scale": false,
        "shipRcvSeparate": true,
        "urbanRural": "Rural",
        "dockDoors": "50+",
        "dropArea": "50+",
        "yardMetrics": {
          "dockDoorCount": 55,
          "trailersVisible": 170,
          "trailerParkingCapacity": 200,
          "truckGateCount": 1,
          "buildingCount": 6,
          "siteAreaAcres": 224,
          "railServed": true
        }
      }
    },
    {
      "type": "Feature",
      "geometry": {
        "type": "Polygon",
        "coordinates": [
          [
            [
              -91.725144,
              41.934243
            ],
            [
              -91.725693,
              41.931791
            ],
            [
              -91.722123,
              41.931178
            ],
            [
              -91.721573,
              41.93363
            ],
            [
              -91.725144,
              41.934243
            ]
          ]
        ]
      },
      "properties": {
        "account": "general-mills",
        "name": "General Mills - Cedar Rapids IA (Edgewood Rd)",
        "type": "Manufacturing Plant",
        "archetype": "#9",
        "archetypeName": "Gate + No GS (remote check-in)",
        "confidence": "high",
        "zone": "dropYard",
        "index": 1
      }
    },
    {
      "type": "Feature",
      "geometry": {
        "type": "Polygon",
        "coordinates": [
          [
            [
              -91.725693,
              41.933017
            ],
            [
              -91.725968,
              41.9322
            ],
            [
              -91.719101,
              41.93077
            ],
            [
              -91.718827,
              41.931587
            ],
            [
              -91.725693,
              41.933017
            ]
          ]
        ]
      },
      "properties": {
        "account": "general-mills",
        "name": "General Mills - Cedar Rapids IA (Edgewood Rd)",
        "type": "Manufacturing Plant",
        "archetype": "#9",
        "archetypeName": "Gate + No GS (remote check-in)",
        "confidence": "high",
        "zone": "dockApron",
        "index": 1
      }
    },
    {
      "type": "Feature",
      "geometry": {
        "type": "Polygon",
        "coordinates": [
          [
            [
              -78.878167,
              42.875351
            ],
            [
              -78.880227,
              42.871929
            ],
            [
              -78.876657,
              42.87062
            ],
            [
              -78.874597,
              42.874042
            ],
            [
              -78.878167,
              42.875351
            ]
          ]
        ]
      },
      "properties": {
        "account": "general-mills",
        "name": "General Mills - Buffalo NY",
        "type": "Manufacturing Plant",
        "archetype": "#3",
        "archetypeName": "No Gate / No GS",
        "confidence": "high",
        "zone": "perimeter",
        "truckGate": false,
        "guardShack": false,
        "remoteGs": false,
        "fastLaneOpportunity": false,
        "backupSensitive": true,
        "dropYard": false,
        "multipleFacilities": true,
        "scale": false,
        "shipRcvSeparate": false,
        "urbanRural": "Urban",
        "dockDoors": "10-25",
        "dropArea": "NONE",
        "yardMetrics": {
          "dockDoorCount": 18,
          "trailersVisible": 12,
          "trailerParkingCapacity": 15,
          "truckGateCount": 1,
          "buildingCount": 5,
          "siteAreaAcres": 58,
          "railServed": true
        }
      }
    },
    {
      "type": "Feature",
      "geometry": {
        "type": "Polygon",
        "coordinates": [
          [
            [
              -82.544845,
              39.098784
            ],
            [
              -82.545944,
              39.094095
            ],
            [
              -82.538803,
              39.093242
            ],
            [
              -82.537704,
              39.097932
            ],
            [
              -82.544845,
              39.098784
            ]
          ]
        ]
      },
      "properties": {
        "account": "general-mills",
        "name": "General Mills - Wellston OH",
        "type": "Manufacturing Plant",
        "archetype": "#9",
        "archetypeName": "Gate + No GS (remote check-in)",
        "confidence": "high",
        "zone": "perimeter",
        "truckGate": true,
        "guardShack": false,
        "remoteGs": true,
        "fastLaneOpportunity": true,
        "backupSensitive": false,
        "dropYard": true,
        "multipleFacilities": true,
        "scale": false,
        "shipRcvSeparate": false,
        "urbanRural": "Rural",
        "dockDoors": "25-50",
        "dropArea": "50+",
        "yardMetrics": {
          "dockDoorCount": 45,
          "trailersVisible": 60,
          "trailerParkingCapacity": 110,
          "truckGateCount": 1,
          "buildingCount": 5,
          "siteAreaAcres": 328,
          "railServed": false
        }
      }
    },
    {
      "type": "Feature",
      "geometry": {
        "type": "Polygon",
        "coordinates": [
          [
            [
              -82.538803,
              39.0958
            ],
            [
              -82.539077,
              39.094734
            ],
            [
              -82.53688,
              39.094521
            ],
            [
              -82.536605,
              39.095587
            ],
            [
              -82.538803,
              39.0958
            ]
          ]
        ]
      },
      "properties": {
        "account": "general-mills",
        "name": "General Mills - Wellston OH",
        "type": "Manufacturing Plant",
        "archetype": "#9",
        "archetypeName": "Gate + No GS (remote check-in)",
        "confidence": "high",
        "zone": "truckGate"
      }
    },
    {
      "type": "Feature",
      "geometry": {
        "type": "Polygon",
        "coordinates": [
          [
            [
              -82.543472,
              39.096653
            ],
            [
              -82.543747,
              39.095587
            ],
            [
              -82.539901,
              39.095161
            ],
            [
              -82.539627,
              39.096226
            ],
            [
              -82.543472,
              39.096653
            ]
          ]
        ]
      },
      "properties": {
        "account": "general-mills",
        "name": "General Mills - Wellston OH",
        "type": "Manufacturing Plant",
        "archetype": "#9",
        "archetypeName": "Gate + No GS (remote check-in)",
        "confidence": "high",
        "zone": "dockApron",
        "index": 1
      }
    },
    {
      "type": "Feature",
      "geometry": {
        "type": "Polygon",
        "coordinates": [
          [
            [
              -86.394247,
              35.804119
            ],
            [
              -86.397542,
              35.796545
            ],
            [
              -86.392599,
              35.795654
            ],
            [
              -86.389303,
              35.803228
            ],
            [
              -86.394247,
              35.804119
            ]
          ]
        ]
      },
      "properties": {
        "account": "general-mills",
        "name": "General Mills - Murfreesboro TN",
        "type": "Manufacturing Plant",
        "archetype": "#9",
        "archetypeName": "Gate + No GS (remote check-in)",
        "confidence": "high",
        "zone": "perimeter",
        "truckGate": true,
        "guardShack": false,
        "remoteGs": true,
        "fastLaneOpportunity": true,
        "backupSensitive": false,
        "dropYard": true,
        "multipleFacilities": true,
        "scale": false,
        "shipRcvSeparate": true,
        "urbanRural": "Urban",
        "dockDoors": "50+",
        "dropArea": "50+",
        "yardMetrics": {
          "dockDoorCount": 60,
          "trailersVisible": 130,
          "trailerParkingCapacity": 200,
          "truckGateCount": 1,
          "buildingCount": 6,
          "siteAreaAcres": 186,
          "railServed": true
        }
      }
    },
    {
      "type": "Feature",
      "geometry": {
        "type": "Polygon",
        "coordinates": [
          [
            [
              -86.393697,
              35.802782
            ],
            [
              -86.394247,
              35.800554
            ],
            [
              -86.390676,
              35.799886
            ],
            [
              -86.390127,
              35.802114
            ],
            [
              -86.393697,
              35.802782
            ]
          ]
        ]
      },
      "properties": {
        "account": "general-mills",
        "name": "General Mills - Murfreesboro TN",
        "type": "Manufacturing Plant",
        "archetype": "#9",
        "archetypeName": "Gate + No GS (remote check-in)",
        "confidence": "high",
        "zone": "dropYard",
        "index": 1
      }
    },
    {
      "type": "Feature",
      "geometry": {
        "type": "Polygon",
        "coordinates": [
          [
            [
              -86.394247,
              35.798327
            ],
            [
              -86.394796,
              35.79699
            ],
            [
              -86.3915,
              35.796545
            ],
            [
              -86.390951,
              35.797881
            ],
            [
              -86.394247,
              35.798327
            ]
          ]
        ]
      },
      "properties": {
        "account": "general-mills",
        "name": "General Mills - Murfreesboro TN",
        "type": "Manufacturing Plant",
        "archetype": "#9",
        "archetypeName": "Gate + No GS (remote check-in)",
        "confidence": "high",
        "zone": "dockApron",
        "index": 1
      }
    },
    {
      "type": "Feature",
      "geometry": {
        "type": "Polygon",
        "coordinates": [
          [
            [
              -83.825373,
              33.625087
            ],
            [
              -83.825648,
              33.621428
            ],
            [
              -83.821253,
              33.621428
            ],
            [
              -83.820704,
              33.62463
            ],
            [
              -83.825373,
              33.625087
            ]
          ]
        ]
      },
      "properties": {
        "account": "general-mills",
        "name": "General Mills - Covington GA",
        "type": "Manufacturing Plant",
        "archetype": "#9",
        "archetypeName": "Gate + No GS (remote check-in)",
        "confidence": "high",
        "zone": "perimeter",
        "truckGate": true,
        "guardShack": false,
        "remoteGs": true,
        "fastLaneOpportunity": false,
        "backupSensitive": false,
        "dropYard": true,
        "multipleFacilities": true,
        "scale": false,
        "shipRcvSeparate": true,
        "urbanRural": "Rural",
        "dockDoors": "50+",
        "dropArea": "50+",
        "yardMetrics": {
          "dockDoorCount": 55,
          "trailersVisible": 95,
          "trailerParkingCapacity": 140,
          "truckGateCount": 1,
          "buildingCount": 5,
          "siteAreaAcres": 146,
          "railServed": false
        }
      }
    },
    {
      "type": "Feature",
      "geometry": {
        "type": "Polygon",
        "coordinates": [
          [
            [
              -83.824275,
              33.624401
            ],
            [
              -83.824412,
              33.623829
            ],
            [
              -83.821665,
              33.6236
            ],
            [
              -83.821528,
              33.624172
            ],
            [
              -83.824275,
              33.624401
            ]
          ]
        ]
      },
      "properties": {
        "account": "general-mills",
        "name": "General Mills - Covington GA",
        "type": "Manufacturing Plant",
        "archetype": "#9",
        "archetypeName": "Gate + No GS (remote check-in)",
        "confidence": "high",
        "zone": "dockApron",
        "index": 1
      }
    },
    {
      "type": "Feature",
      "geometry": {
        "type": "Polygon",
        "coordinates": [
          [
            [
              -91.4144,
              39.682857
            ],
            [
              -91.415224,
              39.679475
            ],
            [
              -91.411379,
              39.678841
            ],
            [
              -91.410555,
              39.682223
            ],
            [
              -91.4144,
              39.682857
            ]
          ]
        ]
      },
      "properties": {
        "account": "general-mills",
        "name": "General Mills - Hannibal MO",
        "type": "Manufacturing Plant",
        "archetype": "#3",
        "archetypeName": "No Gate / No GS",
        "confidence": "high",
        "zone": "perimeter",
        "truckGate": false,
        "guardShack": false,
        "remoteGs": false,
        "fastLaneOpportunity": true,
        "backupSensitive": false,
        "dropYard": true,
        "multipleFacilities": true,
        "scale": false,
        "shipRcvSeparate": false,
        "urbanRural": "Rural",
        "dockDoors": "25-50",
        "dropArea": "50+",
        "yardMetrics": {
          "dockDoorCount": 35,
          "trailersVisible": 150,
          "trailerParkingCapacity": 220,
          "truckGateCount": 1,
          "buildingCount": 4,
          "siteAreaAcres": 106,
          "railServed": false
        }
      }
    },
    {
      "type": "Feature",
      "geometry": {
        "type": "Polygon",
        "coordinates": [
          [
            [
              -91.41646,
              39.68254
            ],
            [
              -91.416735,
              39.681272
            ],
            [
              -91.4144,
              39.680954
            ],
            [
              -91.414125,
              39.682223
            ],
            [
              -91.41646,
              39.68254
            ]
          ]
        ]
      },
      "properties": {
        "account": "general-mills",
        "name": "General Mills - Hannibal MO",
        "type": "Manufacturing Plant",
        "archetype": "#3",
        "archetypeName": "No Gate / No GS",
        "confidence": "high",
        "zone": "dropYard",
        "index": 1
      }
    },
    {
      "type": "Feature",
      "geometry": {
        "type": "Polygon",
        "coordinates": [
          [
            [
              -91.413851,
              39.6818
            ],
            [
              -91.413988,
              39.681166
            ],
            [
              -91.411241,
              39.680743
            ],
            [
              -91.411104,
              39.681377
            ],
            [
              -91.413851,
              39.6818
            ]
          ]
        ]
      },
      "properties": {
        "account": "general-mills",
        "name": "General Mills - Hannibal MO",
        "type": "Manufacturing Plant",
        "archetype": "#3",
        "archetypeName": "No Gate / No GS",
        "confidence": "high",
        "zone": "dockApron",
        "index": 1
      }
    },
    {
      "type": "Feature",
      "geometry": {
        "type": "Polygon",
        "coordinates": [
          [
            [
              -88.893335,
              42.24492
            ],
            [
              -88.894272,
              42.247071
            ],
            [
              -88.902351,
              42.245114
            ],
            [
              -88.901414,
              42.242963
            ],
            [
              -88.893335,
              42.24492
            ]
          ]
        ]
      },
      "properties": {
        "account": "general-mills",
        "name": "General Mills - Belvidere IL Distribution Center",
        "type": "Distribution Center",
        "archetype": "#9",
        "archetypeName": "Gate + No GS (remote check-in)",
        "confidence": "medium",
        "zone": "perimeter",
        "truckGate": true,
        "guardShack": false,
        "remoteGs": true,
        "fastLaneOpportunity": true,
        "backupSensitive": false,
        "dropYard": true,
        "multipleFacilities": false,
        "scale": false,
        "shipRcvSeparate": false,
        "urbanRural": "Rural",
        "dockDoors": "50+",
        "dropArea": "10-25",
        "yardMetrics": {
          "dockDoorCount": 60,
          "trailersVisible": 45,
          "trailerParkingCapacity": 70,
          "truckGateCount": 1,
          "buildingCount": 1,
          "siteAreaAcres": 113,
          "railServed": false
        }
      }
    },
    {
      "type": "Feature",
      "geometry": {
        "type": "Polygon",
        "coordinates": [
          [
            [
              -88.902199,
              42.244009
            ],
            [
              -88.902319,
              42.244284
            ],
            [
              -88.902689,
              42.244195
            ],
            [
              -88.902569,
              42.24392
            ],
            [
              -88.902199,
              42.244009
            ]
          ]
        ]
      },
      "properties": {
        "account": "general-mills",
        "name": "General Mills - Belvidere IL Distribution Center",
        "type": "Distribution Center",
        "archetype": "#9",
        "archetypeName": "Gate + No GS (remote check-in)",
        "confidence": "medium",
        "zone": "truckGate"
      }
    },
    {
      "type": "Feature",
      "geometry": {
        "type": "Polygon",
        "coordinates": [
          [
            [
              -88.895036,
              42.246586
            ],
            [
              -88.895149,
              42.246844
            ],
            [
              -88.901612,
              42.245278
            ],
            [
              -88.901499,
              42.24502
            ],
            [
              -88.895036,
              42.246586
            ]
          ]
        ]
      },
      "properties": {
        "account": "general-mills",
        "name": "General Mills - Belvidere IL Distribution Center",
        "type": "Distribution Center",
        "archetype": "#9",
        "archetypeName": "Gate + No GS (remote check-in)",
        "confidence": "medium",
        "zone": "dropYard",
        "index": 1
      }
    },
    {
      "type": "Feature",
      "geometry": {
        "type": "Polygon",
        "coordinates": [
          [
            [
              -88.894803,
              42.246301
            ],
            [
              -88.894878,
              42.246473
            ],
            [
              -88.901571,
              42.244851
            ],
            [
              -88.901496,
              42.244679
            ],
            [
              -88.894803,
              42.246301
            ]
          ]
        ]
      },
      "properties": {
        "account": "general-mills",
        "name": "General Mills - Belvidere IL Distribution Center",
        "type": "Distribution Center",
        "archetype": "#9",
        "archetypeName": "Gate + No GS (remote check-in)",
        "confidence": "medium",
        "zone": "dockApron",
        "index": 1
      }
    },
    {
      "type": "Feature",
      "geometry": {
        "type": "Polygon",
        "coordinates": [
          [
            [
              -84.966972,
              39.859849
            ],
            [
              -84.967247,
              39.85247
            ],
            [
              -84.960105,
              39.85247
            ],
            [
              -84.960105,
              39.859849
            ],
            [
              -84.966972,
              39.859849
            ]
          ]
        ]
      },
      "properties": {
        "account": "general-mills",
        "name": "General Mills (Blue Buffalo) - Richmond IN",
        "type": "Manufacturing Plant",
        "archetype": "#9",
        "archetypeName": "Gate + No GS (remote check-in)",
        "confidence": "high",
        "zone": "perimeter",
        "truckGate": true,
        "guardShack": false,
        "remoteGs": true,
        "fastLaneOpportunity": true,
        "backupSensitive": false,
        "dropYard": true,
        "multipleFacilities": true,
        "scale": false,
        "shipRcvSeparate": true,
        "urbanRural": "Rural",
        "dockDoors": "50+",
        "dropArea": "25-50",
        "yardMetrics": {
          "dockDoorCount": 50,
          "trailersVisible": 70,
          "trailerParkingCapacity": 90,
          "truckGateCount": 1,
          "buildingCount": 3,
          "siteAreaAcres": 122,
          "railServed": false
        }
      }
    },
    {
      "type": "Feature",
      "geometry": {
        "type": "Polygon",
        "coordinates": [
          [
            [
              -84.966697,
              39.856687
            ],
            [
              -84.966697,
              39.85247
            ],
            [
              -84.963951,
              39.85247
            ],
            [
              -84.963951,
              39.856687
            ],
            [
              -84.966697,
              39.856687
            ]
          ]
        ]
      },
      "properties": {
        "account": "general-mills",
        "name": "General Mills (Blue Buffalo) - Richmond IN",
        "type": "Manufacturing Plant",
        "archetype": "#9",
        "archetypeName": "Gate + No GS (remote check-in)",
        "confidence": "high",
        "zone": "dockApron",
        "index": 1
      }
    },
    {
      "type": "Feature",
      "geometry": {
        "type": "Polygon",
        "coordinates": [
          [
            [
              -75.037873,
              39.463545
            ],
            [
              -75.039247,
              39.45994
            ],
            [
              -75.036225,
              39.459304
            ],
            [
              -75.034852,
              39.462908
            ],
            [
              -75.037873,
              39.463545
            ]
          ]
        ]
      },
      "properties": {
        "account": "general-mills",
        "name": "General Mills - Vineland NJ",
        "type": "Manufacturing Plant",
        "archetype": "#9",
        "archetypeName": "Gate + No GS (remote check-in)",
        "confidence": "high",
        "zone": "perimeter",
        "truckGate": true,
        "guardShack": false,
        "remoteGs": true,
        "fastLaneOpportunity": false,
        "backupSensitive": false,
        "dropYard": true,
        "multipleFacilities": false,
        "scale": false,
        "shipRcvSeparate": false,
        "urbanRural": "Rural",
        "dockDoors": "25-50",
        "dropArea": "10-25",
        "yardMetrics": {
          "dockDoorCount": 40,
          "trailersVisible": 55,
          "trailerParkingCapacity": 75,
          "truckGateCount": 1,
          "buildingCount": 1,
          "siteAreaAcres": 67,
          "railServed": false
        }
      }
    },
    {
      "type": "Feature",
      "geometry": {
        "type": "Polygon",
        "coordinates": [
          [
            [
              -75.037599,
              39.46312
            ],
            [
              -75.037873,
              39.462272
            ],
            [
              -75.035951,
              39.461848
            ],
            [
              -75.035676,
              39.462696
            ],
            [
              -75.037599,
              39.46312
            ]
          ]
        ]
      },
      "properties": {
        "account": "general-mills",
        "name": "General Mills - Vineland NJ",
        "type": "Manufacturing Plant",
        "archetype": "#9",
        "archetypeName": "Gate + No GS (remote check-in)",
        "confidence": "high",
        "zone": "dropYard",
        "index": 1
      }
    },
    {
      "type": "Feature",
      "geometry": {
        "type": "Polygon",
        "coordinates": [
          [
            [
              -75.038423,
              39.461
            ],
            [
              -75.03856,
              39.46047
            ],
            [
              -75.036637,
              39.460046
            ],
            [
              -75.0365,
              39.460576
            ],
            [
              -75.038423,
              39.461
            ]
          ]
        ]
      },
      "properties": {
        "account": "general-mills",
        "name": "General Mills - Vineland NJ",
        "type": "Manufacturing Plant",
        "archetype": "#9",
        "archetypeName": "Gate + No GS (remote check-in)",
        "confidence": "high",
        "zone": "dockApron",
        "index": 1
      }
    },
    {
      "type": "Feature",
      "geometry": {
        "type": "Polygon",
        "coordinates": [
          [
            [
              -84.432524,
              39.279425
            ],
            [
              -84.432524,
              39.277087
            ],
            [
              -84.430052,
              39.277087
            ],
            [
              -84.430052,
              39.279425
            ],
            [
              -84.432524,
              39.279425
            ]
          ]
        ]
      },
      "properties": {
        "account": "general-mills",
        "name": "General Mills - Cincinnati OH",
        "type": "Manufacturing Plant",
        "archetype": "#3",
        "archetypeName": "No Gate / No GS",
        "confidence": "high",
        "zone": "perimeter",
        "truckGate": false,
        "guardShack": false,
        "remoteGs": false,
        "fastLaneOpportunity": false,
        "backupSensitive": false,
        "dropYard": true,
        "multipleFacilities": true,
        "scale": false,
        "shipRcvSeparate": false,
        "urbanRural": "Urban",
        "dockDoors": "25-50",
        "dropArea": "25-50",
        "yardMetrics": {
          "dockDoorCount": 28,
          "trailersVisible": 34,
          "trailerParkingCapacity": 45,
          "truckGateCount": 1,
          "buildingCount": 4,
          "siteAreaAcres": 23,
          "railServed": false
        }
      }
    },
    {
      "type": "Feature",
      "geometry": {
        "type": "Polygon",
        "coordinates": [
          [
            [
              -84.432387,
              39.277724
            ],
            [
              -84.432387,
              39.277193
            ],
            [
              -84.430189,
              39.277193
            ],
            [
              -84.430189,
              39.277724
            ],
            [
              -84.432387,
              39.277724
            ]
          ]
        ]
      },
      "properties": {
        "account": "general-mills",
        "name": "General Mills - Cincinnati OH",
        "type": "Manufacturing Plant",
        "archetype": "#3",
        "archetypeName": "No Gate / No GS",
        "confidence": "high",
        "zone": "dockApron",
        "index": 1
      }
    },
    {
      "type": "Feature",
      "geometry": {
        "type": "Polygon",
        "coordinates": [
          [
            [
              -87.924921,
              42.961653
            ],
            [
              -87.924921,
              42.959241
            ],
            [
              -87.91984,
              42.959241
            ],
            [
              -87.91984,
              42.961653
            ],
            [
              -87.924921,
              42.961653
            ]
          ]
        ]
      },
      "properties": {
        "account": "general-mills",
        "name": "General Mills - Milwaukee WI",
        "type": "Manufacturing Plant",
        "archetype": "#3",
        "archetypeName": "No Gate / No GS",
        "confidence": "high",
        "zone": "perimeter",
        "truckGate": false,
        "guardShack": false,
        "remoteGs": false,
        "fastLaneOpportunity": false,
        "backupSensitive": false,
        "dropYard": true,
        "multipleFacilities": true,
        "scale": false,
        "shipRcvSeparate": false,
        "urbanRural": "Urban",
        "dockDoors": "25-50",
        "dropArea": "10-25",
        "yardMetrics": {
          "dockDoorCount": 26,
          "trailersVisible": 22,
          "trailerParkingCapacity": 30,
          "truckGateCount": 1,
          "buildingCount": 3,
          "siteAreaAcres": 18,
          "railServed": false
        }
      }
    },
    {
      "type": "Feature",
      "geometry": {
        "type": "Polygon",
        "coordinates": [
          [
            [
              -87.924647,
              42.961552
            ],
            [
              -87.924647,
              42.961351
            ],
            [
              -87.9219,
              42.961351
            ],
            [
              -87.9219,
              42.961552
            ],
            [
              -87.924647,
              42.961552
            ]
          ]
        ]
      },
      "properties": {
        "account": "general-mills",
        "name": "General Mills - Milwaukee WI",
        "type": "Manufacturing Plant",
        "archetype": "#3",
        "archetypeName": "No Gate / No GS",
        "confidence": "high",
        "zone": "dockApron",
        "index": 1
      }
    },
    {
      "type": "Feature",
      "geometry": {
        "type": "Polygon",
        "coordinates": [
          [
            [
              -85.827021,
              38.329908
            ],
            [
              -85.827296,
              38.327323
            ],
            [
              -85.823176,
              38.327107
            ],
            [
              -85.822901,
              38.329693
            ],
            [
              -85.827021,
              38.329908
            ]
          ]
        ]
      },
      "properties": {
        "account": "general-mills",
        "name": "General Mills - New Albany IN",
        "type": "Manufacturing Plant",
        "archetype": "#9",
        "archetypeName": "Gate + No GS (remote check-in)",
        "confidence": "high",
        "zone": "perimeter",
        "truckGate": true,
        "guardShack": false,
        "remoteGs": true,
        "fastLaneOpportunity": false,
        "backupSensitive": true,
        "dropYard": true,
        "multipleFacilities": false,
        "scale": false,
        "shipRcvSeparate": false,
        "urbanRural": "Urban",
        "dockDoors": "25-50",
        "dropArea": "10-25",
        "yardMetrics": {
          "dockDoorCount": 30,
          "trailersVisible": 40,
          "trailerParkingCapacity": 55,
          "truckGateCount": 1,
          "buildingCount": 1,
          "siteAreaAcres": 43,
          "railServed": false
        }
      }
    },
    {
      "type": "Feature",
      "geometry": {
        "type": "Polygon",
        "coordinates": [
          [
            [
              -85.825373,
              38.327861
            ],
            [
              -85.825511,
              38.327323
            ],
            [
              -85.823039,
              38.327107
            ],
            [
              -85.822901,
              38.327646
            ],
            [
              -85.825373,
              38.327861
            ]
          ]
        ]
      },
      "properties": {
        "account": "general-mills",
        "name": "General Mills - New Albany IN",
        "type": "Manufacturing Plant",
        "archetype": "#9",
        "archetypeName": "Gate + No GS (remote check-in)",
        "confidence": "high",
        "zone": "dropYard",
        "index": 1
      }
    },
    {
      "type": "Feature",
      "geometry": {
        "type": "Polygon",
        "coordinates": [
          [
            [
              -85.826747,
              38.3284
            ],
            [
              -85.826884,
              38.327969
            ],
            [
              -85.824137,
              38.327754
            ],
            [
              -85.824,
              38.328185
            ],
            [
              -85.826747,
              38.3284
            ]
          ]
        ]
      },
      "properties": {
        "account": "general-mills",
        "name": "General Mills - New Albany IN",
        "type": "Manufacturing Plant",
        "archetype": "#9",
        "archetypeName": "Gate + No GS (remote check-in)",
        "confidence": "high",
        "zone": "dockApron",
        "index": 1
      }
    },
    {
      "type": "Feature",
      "geometry": {
        "type": "Polygon",
        "coordinates": [
          [
            [
              -85.510073,
              43.875996
            ],
            [
              -85.510348,
              43.874214
            ],
            [
              -85.507601,
              43.874016
            ],
            [
              -85.507327,
              43.875798
            ],
            [
              -85.510073,
              43.875996
            ]
          ]
        ]
      },
      "properties": {
        "account": "general-mills",
        "name": "General Mills - Reed City MI",
        "type": "Manufacturing Plant",
        "archetype": "#9",
        "archetypeName": "Gate + No GS (remote check-in)",
        "confidence": "medium",
        "zone": "perimeter",
        "truckGate": true,
        "guardShack": false,
        "remoteGs": true,
        "fastLaneOpportunity": false,
        "backupSensitive": true,
        "dropYard": true,
        "multipleFacilities": true,
        "scale": false,
        "shipRcvSeparate": false,
        "urbanRural": "Rural",
        "dockDoors": "10-25",
        "dropArea": "25-50",
        "yardMetrics": {
          "dockDoorCount": 14,
          "trailersVisible": 50,
          "trailerParkingCapacity": 55,
          "truckGateCount": 1,
          "buildingCount": 2,
          "siteAreaAcres": 34,
          "railServed": false
        }
      }
    },
    {
      "type": "Feature",
      "geometry": {
        "type": "Polygon",
        "coordinates": [
          [
            [
              -85.509936,
              43.875204
            ],
            [
              -85.510073,
              43.874709
            ],
            [
              -85.507876,
              43.874511
            ],
            [
              -85.507739,
              43.875006
            ],
            [
              -85.509936,
              43.875204
            ]
          ]
        ]
      },
      "properties": {
        "account": "general-mills",
        "name": "General Mills - Reed City MI",
        "type": "Manufacturing Plant",
        "archetype": "#9",
        "archetypeName": "Gate + No GS (remote check-in)",
        "confidence": "medium",
        "zone": "dockApron",
        "index": 1
      }
    },
    {
      "type": "Feature",
      "geometry": {
        "type": "Polygon",
        "coordinates": [
          [
            [
              -82.909561,
              40.673475
            ],
            [
              -82.911209,
              40.670767
            ],
            [
              -82.908325,
              40.669933
            ],
            [
              -82.906677,
              40.672642
            ],
            [
              -82.909561,
              40.673475
            ]
          ]
        ]
      },
      "properties": {
        "account": "general-mills",
        "name": "General Mills - Martel OH",
        "type": "Manufacturing Plant",
        "archetype": "#9",
        "archetypeName": "Gate + No GS (remote check-in)",
        "confidence": "high",
        "zone": "perimeter",
        "truckGate": true,
        "guardShack": false,
        "remoteGs": true,
        "fastLaneOpportunity": false,
        "backupSensitive": false,
        "dropYard": true,
        "multipleFacilities": false,
        "scale": false,
        "shipRcvSeparate": false,
        "urbanRural": "Rural",
        "dockDoors": "10-25",
        "dropArea": "10-25",
        "yardMetrics": {
          "dockDoorCount": 16,
          "trailersVisible": 18,
          "trailerParkingCapacity": 30,
          "truckGateCount": 1,
          "buildingCount": 3,
          "siteAreaAcres": 30,
          "railServed": true
        }
      }
    },
    {
      "type": "Feature",
      "geometry": {
        "type": "Polygon",
        "coordinates": [
          [
            [
              -82.909973,
              40.6716
            ],
            [
              -82.910248,
              40.671079
            ],
            [
              -82.908188,
              40.670454
            ],
            [
              -82.907913,
              40.670975
            ],
            [
              -82.909973,
              40.6716
            ]
          ]
        ]
      },
      "properties": {
        "account": "general-mills",
        "name": "General Mills - Martel OH",
        "type": "Manufacturing Plant",
        "archetype": "#9",
        "archetypeName": "Gate + No GS (remote check-in)",
        "confidence": "high",
        "zone": "dockApron",
        "index": 1
      }
    },
    {
      "type": "Feature",
      "geometry": {
        "type": "Polygon",
        "coordinates": [
          [
            [
              -118.246561,
              33.864483
            ],
            [
              -118.246561,
              33.862488
            ],
            [
              -118.244776,
              33.862488
            ],
            [
              -118.244776,
              33.864483
            ],
            [
              -118.246561,
              33.864483
            ]
          ]
        ]
      },
      "properties": {
        "account": "general-mills",
        "name": "General Mills - Carson CA",
        "type": "Manufacturing Plant",
        "archetype": "#9",
        "archetypeName": "Gate + No GS (remote check-in)",
        "confidence": "high",
        "zone": "perimeter",
        "truckGate": true,
        "guardShack": false,
        "remoteGs": true,
        "fastLaneOpportunity": true,
        "backupSensitive": false,
        "dropYard": true,
        "multipleFacilities": false,
        "scale": false,
        "shipRcvSeparate": true,
        "urbanRural": "Urban",
        "dockDoors": "25-50",
        "dropArea": "25-50",
        "yardMetrics": {
          "dockDoorCount": 40,
          "trailersVisible": 36,
          "trailerParkingCapacity": 55,
          "truckGateCount": 1,
          "buildingCount": 1,
          "siteAreaAcres": 14.8,
          "railServed": false
        }
      }
    },
    {
      "type": "Feature",
      "geometry": {
        "type": "Polygon",
        "coordinates": [
          [
            [
              -118.246424,
              33.86397
            ],
            [
              -118.246424,
              33.863628
            ],
            [
              -118.244913,
              33.863628
            ],
            [
              -118.244913,
              33.86397
            ],
            [
              -118.246424,
              33.86397
            ]
          ]
        ]
      },
      "properties": {
        "account": "general-mills",
        "name": "General Mills - Carson CA",
        "type": "Manufacturing Plant",
        "archetype": "#9",
        "archetypeName": "Gate + No GS (remote check-in)",
        "confidence": "high",
        "zone": "dropYard",
        "index": 1
      }
    },
    {
      "type": "Feature",
      "geometry": {
        "type": "Polygon",
        "coordinates": [
          [
            [
              -118.246424,
              33.864312
            ],
            [
              -118.246424,
              33.864027
            ],
            [
              -118.244913,
              33.864027
            ],
            [
              -118.244913,
              33.864312
            ],
            [
              -118.246424,
              33.864312
            ]
          ]
        ]
      },
      "properties": {
        "account": "general-mills",
        "name": "General Mills - Carson CA",
        "type": "Manufacturing Plant",
        "archetype": "#9",
        "archetypeName": "Gate + No GS (remote check-in)",
        "confidence": "high",
        "zone": "dockApron",
        "index": 1
      }
    },
    {
      "type": "Feature",
      "geometry": {
        "type": "Polygon",
        "coordinates": [
          [
            [
              -121.303047,
              38.145392
            ],
            [
              -121.303047,
              38.140424
            ],
            [
              -121.298103,
              38.140424
            ],
            [
              -121.298103,
              38.145392
            ],
            [
              -121.303047,
              38.145392
            ]
          ]
        ]
      },
      "properties": {
        "account": "general-mills",
        "name": "General Mills - Lodi CA",
        "type": "Manufacturing Plant",
        "archetype": "#9",
        "archetypeName": "Gate + No GS (remote check-in)",
        "confidence": "medium",
        "zone": "perimeter",
        "truckGate": true,
        "guardShack": false,
        "remoteGs": true,
        "fastLaneOpportunity": true,
        "backupSensitive": false,
        "dropYard": true,
        "multipleFacilities": true,
        "scale": false,
        "shipRcvSeparate": true,
        "urbanRural": "Rural",
        "dockDoors": "25-50",
        "dropArea": "50+",
        "yardMetrics": {
          "dockDoorCount": 45,
          "trailersVisible": 60,
          "trailerParkingCapacity": 196,
          "truckGateCount": 2,
          "buildingCount": 4,
          "siteAreaAcres": 61.4,
          "railServed": true
        }
      }
    },
    {
      "type": "Feature",
      "geometry": {
        "type": "Polygon",
        "coordinates": [
          [
            [
              -121.303047,
              38.145284
            ],
            [
              -121.303047,
              38.144744
            ],
            [
              -121.301673,
              38.144744
            ],
            [
              -121.301673,
              38.145284
            ],
            [
              -121.303047,
              38.145284
            ]
          ]
        ]
      },
      "properties": {
        "account": "general-mills",
        "name": "General Mills - Lodi CA",
        "type": "Manufacturing Plant",
        "archetype": "#9",
        "archetypeName": "Gate + No GS (remote check-in)",
        "confidence": "medium",
        "zone": "truckGate"
      }
    },
    {
      "type": "Feature",
      "geometry": {
        "type": "Polygon",
        "coordinates": [
          [
            [
              -121.302772,
              38.143664
            ],
            [
              -121.302772,
              38.142152
            ],
            [
              -121.300025,
              38.142152
            ],
            [
              -121.300025,
              38.143664
            ],
            [
              -121.302772,
              38.143664
            ]
          ]
        ]
      },
      "properties": {
        "account": "general-mills",
        "name": "General Mills - Lodi CA",
        "type": "Manufacturing Plant",
        "archetype": "#9",
        "archetypeName": "Gate + No GS (remote check-in)",
        "confidence": "medium",
        "zone": "dropYard",
        "index": 1
      }
    },
    {
      "type": "Feature",
      "geometry": {
        "type": "Polygon",
        "coordinates": [
          [
            [
              -121.302223,
              38.14496
            ],
            [
              -121.302223,
              38.144312
            ],
            [
              -121.299201,
              38.144312
            ],
            [
              -121.299201,
              38.14496
            ],
            [
              -121.302223,
              38.14496
            ]
          ]
        ]
      },
      "properties": {
        "account": "general-mills",
        "name": "General Mills - Lodi CA",
        "type": "Manufacturing Plant",
        "archetype": "#9",
        "archetypeName": "Gate + No GS (remote check-in)",
        "confidence": "medium",
        "zone": "dockApron",
        "index": 1
      }
    },
    {
      "type": "Feature",
      "geometry": {
        "type": "Polygon",
        "coordinates": [
          [
            [
              -106.610747,
              35.178996
            ],
            [
              -106.611021,
              35.175628
            ],
            [
              -106.606077,
              35.175404
            ],
            [
              -106.605803,
              35.178771
            ],
            [
              -106.610747,
              35.178996
            ]
          ]
        ]
      },
      "properties": {
        "account": "general-mills",
        "name": "General Mills - Albuquerque NM",
        "type": "Manufacturing Plant",
        "archetype": "#10",
        "archetypeName": "Ship/Rcv Separate (Gate+GS)",
        "confidence": "high",
        "zone": "perimeter",
        "truckGate": true,
        "guardShack": true,
        "remoteGs": false,
        "fastLaneOpportunity": true,
        "backupSensitive": false,
        "dropYard": true,
        "multipleFacilities": false,
        "scale": false,
        "shipRcvSeparate": true,
        "urbanRural": "Urban",
        "dockDoors": "25-50",
        "dropArea": "50+",
        "yardMetrics": {
          "dockDoorCount": 38,
          "trailersVisible": 95,
          "trailerParkingCapacity": 140,
          "truckGateCount": 1,
          "buildingCount": 2,
          "siteAreaAcres": 65,
          "railServed": true
        }
      }
    },
    {
      "type": "Feature",
      "geometry": {
        "type": "Polygon",
        "coordinates": [
          [
            [
              -106.610747,
              35.178322
            ],
            [
              -106.610747,
              35.177088
            ],
            [
              -106.608549,
              35.176976
            ],
            [
              -106.608549,
              35.17821
            ],
            [
              -106.610747,
              35.178322
            ]
          ]
        ]
      },
      "properties": {
        "account": "general-mills",
        "name": "General Mills - Albuquerque NM",
        "type": "Manufacturing Plant",
        "archetype": "#10",
        "archetypeName": "Ship/Rcv Separate (Gate+GS)",
        "confidence": "high",
        "zone": "dropYard",
        "index": 1
      }
    },
    {
      "type": "Feature",
      "geometry": {
        "type": "Polygon",
        "coordinates": [
          [
            [
              -106.610197,
              35.177873
            ],
            [
              -106.610197,
              35.177312
            ],
            [
              -106.606901,
              35.1772
            ],
            [
              -106.606901,
              35.177761
            ],
            [
              -106.610197,
              35.177873
            ]
          ]
        ]
      },
      "properties": {
        "account": "general-mills",
        "name": "General Mills - Albuquerque NM",
        "type": "Manufacturing Plant",
        "archetype": "#10",
        "archetypeName": "Ship/Rcv Separate (Gate+GS)",
        "confidence": "high",
        "zone": "dockApron",
        "index": 1
      }
    },
    {
      "type": "Feature",
      "geometry": {
        "type": "Polygon",
        "coordinates": [
          [
            [
              -76.066161,
              40.927919
            ],
            [
              -76.066161,
              40.926155
            ],
            [
              -76.064101,
              40.926155
            ],
            [
              -76.064101,
              40.927919
            ],
            [
              -76.066161,
              40.927919
            ]
          ]
        ]
      },
      "properties": {
        "account": "general-mills",
        "name": "General Mills - Hazleton PA",
        "type": "Manufacturing Plant",
        "archetype": "#3",
        "archetypeName": "No Gate / No GS",
        "confidence": "medium",
        "zone": "perimeter",
        "truckGate": false,
        "guardShack": false,
        "remoteGs": false,
        "fastLaneOpportunity": false,
        "backupSensitive": false,
        "dropYard": true,
        "multipleFacilities": false,
        "scale": false,
        "shipRcvSeparate": false,
        "urbanRural": "Rural",
        "dockDoors": "10-25",
        "dropArea": "10-25",
        "yardMetrics": {
          "dockDoorCount": 18,
          "trailersVisible": 24,
          "trailerParkingCapacity": 40,
          "truckGateCount": 1,
          "buildingCount": 1,
          "siteAreaAcres": 22,
          "railServed": false
        }
      }
    },
    {
      "type": "Feature",
      "geometry": {
        "type": "Polygon",
        "coordinates": [
          [
            [
              -76.066436,
              40.928126
            ],
            [
              -76.066436,
              40.927867
            ],
            [
              -76.064376,
              40.927815
            ],
            [
              -76.064376,
              40.928074
            ],
            [
              -76.066436,
              40.928126
            ]
          ]
        ]
      },
      "properties": {
        "account": "general-mills",
        "name": "General Mills - Hazleton PA",
        "type": "Manufacturing Plant",
        "archetype": "#3",
        "archetypeName": "No Gate / No GS",
        "confidence": "medium",
        "zone": "dropYard",
        "index": 1
      }
    },
    {
      "type": "Feature",
      "geometry": {
        "type": "Polygon",
        "coordinates": [
          [
            [
              -76.065749,
              40.927608
            ],
            [
              -76.065749,
              40.927296
            ],
            [
              -76.064376,
              40.927296
            ],
            [
              -76.064376,
              40.927608
            ],
            [
              -76.065749,
              40.927608
            ]
          ]
        ]
      },
      "properties": {
        "account": "general-mills",
        "name": "General Mills - Hazleton PA",
        "type": "Manufacturing Plant",
        "archetype": "#3",
        "archetypeName": "No Gate / No GS",
        "confidence": "medium",
        "zone": "dockApron",
        "index": 1
      }
    },
    {
      "type": "Feature",
      "geometry": {
        "type": "Polygon",
        "coordinates": [
          [
            [
              -75.478861,
              40.57153
            ],
            [
              -75.478999,
              40.569757
            ],
            [
              -75.476801,
              40.569548
            ],
            [
              -75.476389,
              40.571217
            ],
            [
              -75.478861,
              40.57153
            ]
          ]
        ]
      },
      "properties": {
        "account": "general-mills",
        "name": "General Mills - Allentown PA",
        "type": "Manufacturing Plant",
        "archetype": "#3",
        "archetypeName": "No Gate / No GS",
        "confidence": "medium",
        "zone": "perimeter",
        "truckGate": false,
        "guardShack": false,
        "remoteGs": false,
        "fastLaneOpportunity": false,
        "backupSensitive": false,
        "dropYard": false,
        "multipleFacilities": false,
        "scale": false,
        "shipRcvSeparate": false,
        "urbanRural": "Urban",
        "dockDoors": "10-25",
        "dropArea": "NONE",
        "yardMetrics": {
          "dockDoorCount": 12,
          "trailersVisible": 5,
          "trailerParkingCapacity": 15,
          "truckGateCount": 1,
          "buildingCount": 1,
          "siteAreaAcres": 19,
          "railServed": false
        }
      }
    },
    {
      "type": "Feature",
      "geometry": {
        "type": "Polygon",
        "coordinates": [
          [
            [
              -75.478724,
              40.571322
            ],
            [
              -75.478793,
              40.571061
            ],
            [
              -75.477557,
              40.570904
            ],
            [
              -75.477488,
              40.571165
            ],
            [
              -75.478724,
              40.571322
            ]
          ]
        ]
      },
      "properties": {
        "account": "general-mills",
        "name": "General Mills - Allentown PA",
        "type": "Manufacturing Plant",
        "archetype": "#3",
        "archetypeName": "No Gate / No GS",
        "confidence": "medium",
        "zone": "dockApron",
        "index": 1
      }
    },
    {
      "type": "Feature",
      "geometry": {
        "type": "Polygon",
        "coordinates": [
          [
            [
              -75.763541,
              38.690564
            ],
            [
              -75.763931,
              38.692301
            ],
            [
              -75.767671,
              38.691782
            ],
            [
              -75.767281,
              38.690045
            ],
            [
              -75.763541,
              38.690564
            ]
          ]
        ]
      },
      "properties": {
        "account": "general-mills",
        "name": "General Mills - Federalsburg MD",
        "type": "Manufacturing Plant",
        "archetype": "#9",
        "archetypeName": "Gate + No GS (remote check-in)",
        "confidence": "medium",
        "zone": "perimeter",
        "truckGate": true,
        "guardShack": false,
        "remoteGs": true,
        "fastLaneOpportunity": false,
        "backupSensitive": false,
        "dropYard": false,
        "multipleFacilities": false,
        "scale": false,
        "shipRcvSeparate": false,
        "urbanRural": "Rural",
        "dockDoors": "0-10",
        "dropArea": "0-10",
        "yardMetrics": {
          "dockDoorCount": 8,
          "trailersVisible": 4,
          "trailerParkingCapacity": 15,
          "truckGateCount": 1,
          "buildingCount": 4,
          "siteAreaAcres": 22,
          "railServed": false
        }
      }
    },
    {
      "type": "Feature",
      "geometry": {
        "type": "Polygon",
        "coordinates": [
          [
            [
              -75.765526,
              38.691202
            ],
            [
              -75.765566,
              38.69138
            ],
            [
              -75.767266,
              38.691144
            ],
            [
              -75.767226,
              38.690966
            ],
            [
              -75.765526,
              38.691202
            ]
          ]
        ]
      },
      "properties": {
        "account": "general-mills",
        "name": "General Mills - Federalsburg MD",
        "type": "Manufacturing Plant",
        "archetype": "#9",
        "archetypeName": "Gate + No GS (remote check-in)",
        "confidence": "medium",
        "zone": "dockApron",
        "index": 1
      }
    },
    {
      "type": "Feature",
      "geometry": {
        "type": "Polygon",
        "coordinates": [
          [
            [
              -95.137397,
              36.6583
            ],
            [
              -95.137123,
              36.656537
            ],
            [
              -95.134513,
              36.656758
            ],
            [
              -95.134788,
              36.65852
            ],
            [
              -95.137397,
              36.6583
            ]
          ]
        ]
      },
      "properties": {
        "account": "general-mills",
        "name": "General Mills - Vinita OK",
        "type": "Manufacturing Plant",
        "archetype": "#3",
        "archetypeName": "No Gate / No GS",
        "confidence": "high",
        "zone": "perimeter",
        "truckGate": false,
        "guardShack": false,
        "remoteGs": false,
        "fastLaneOpportunity": false,
        "backupSensitive": false,
        "dropYard": false,
        "multipleFacilities": false,
        "scale": false,
        "shipRcvSeparate": false,
        "urbanRural": "Rural",
        "dockDoors": "0-10",
        "dropArea": "0-10",
        "yardMetrics": {
          "dockDoorCount": 8,
          "trailersVisible": 1,
          "trailerParkingCapacity": 25,
          "truckGateCount": 1,
          "buildingCount": 1,
          "siteAreaAcres": 9.7,
          "railServed": false
        }
      }
    },
    {
      "type": "Feature",
      "geometry": {
        "type": "Polygon",
        "coordinates": [
          [
            [
              -95.136573,
              36.657198
            ],
            [
              -95.136505,
              36.656647
            ],
            [
              -95.134857,
              36.656758
            ],
            [
              -95.134925,
              36.657308
            ],
            [
              -95.136573,
              36.657198
            ]
          ]
        ]
      },
      "properties": {
        "account": "general-mills",
        "name": "General Mills - Vinita OK",
        "type": "Manufacturing Plant",
        "archetype": "#3",
        "archetypeName": "No Gate / No GS",
        "confidence": "high",
        "zone": "dropYard",
        "index": 1
      }
    },
    {
      "type": "Feature",
      "geometry": {
        "type": "Polygon",
        "coordinates": [
          [
            [
              -95.136299,
              36.65808
            ],
            [
              -95.13623,
              36.657749
            ],
            [
              -95.134857,
              36.657859
            ],
            [
              -95.134925,
              36.65819
            ],
            [
              -95.136299,
              36.65808
            ]
          ]
        ]
      },
      "properties": {
        "account": "general-mills",
        "name": "General Mills - Vinita OK",
        "type": "Manufacturing Plant",
        "archetype": "#3",
        "archetypeName": "No Gate / No GS",
        "confidence": "high",
        "zone": "dockApron",
        "index": 1
      }
    },
    {
      "type": "Feature",
      "geometry": {
        "type": "Polygon",
        "coordinates": [
          [
            [
              -111.264072,
              47.515478
            ],
            [
              -111.264003,
              47.514922
            ],
            [
              -111.259883,
              47.515014
            ],
            [
              -111.259952,
              47.515571
            ],
            [
              -111.264072,
              47.515478
            ]
          ]
        ]
      },
      "properties": {
        "account": "general-mills",
        "name": "General Mills - Great Falls MT (Flour Mill)",
        "type": "Flour Mill",
        "archetype": "#9",
        "archetypeName": "Gate + No GS (remote check-in)",
        "confidence": "medium",
        "zone": "perimeter",
        "truckGate": true,
        "guardShack": false,
        "remoteGs": true,
        "fastLaneOpportunity": false,
        "backupSensitive": false,
        "dropYard": false,
        "multipleFacilities": false,
        "scale": true,
        "shipRcvSeparate": false,
        "urbanRural": "Urban",
        "dockDoors": "0-10",
        "dropArea": "NONE",
        "yardMetrics": {
          "dockDoorCount": 6,
          "trailersVisible": 2,
          "trailerParkingCapacity": 8,
          "truckGateCount": 1,
          "buildingCount": 3,
          "siteAreaAcres": 12,
          "railServed": true
        }
      }
    },
    {
      "type": "Feature",
      "geometry": {
        "type": "Polygon",
        "coordinates": [
          [
            [
              -111.26366,
              47.515478
            ],
            [
              -111.26366,
              47.515246
            ],
            [
              -111.2616,
              47.515293
            ],
            [
              -111.2616,
              47.515525
            ],
            [
              -111.26366,
              47.515478
            ]
          ]
        ]
      },
      "properties": {
        "account": "general-mills",
        "name": "General Mills - Great Falls MT (Flour Mill)",
        "type": "Flour Mill",
        "archetype": "#9",
        "archetypeName": "Gate + No GS (remote check-in)",
        "confidence": "medium",
        "zone": "dockApron",
        "index": 1
      }
    },
    {
      "type": "Feature",
      "geometry": {
        "type": "Polygon",
        "coordinates": [
          [
            [
              -93.272997,
              45.050434
            ],
            [
              -93.274508,
              45.046359
            ],
            [
              -93.270113,
              45.045971
            ],
            [
              -93.268603,
              45.050046
            ],
            [
              -93.272997,
              45.050434
            ]
          ]
        ]
      },
      "properties": {
        "account": "general-mills",
        "name": "General Mills - Fridley MN (Flour Mill)",
        "type": "Flour Mill",
        "archetype": "#3",
        "archetypeName": "No Gate / No GS",
        "confidence": "high",
        "zone": "perimeter",
        "truckGate": false,
        "guardShack": false,
        "remoteGs": false,
        "fastLaneOpportunity": false,
        "backupSensitive": false,
        "dropYard": false,
        "multipleFacilities": false,
        "scale": false,
        "shipRcvSeparate": false,
        "urbanRural": "Urban",
        "dockDoors": "0-10",
        "dropArea": "0-10",
        "yardMetrics": {
          "dockDoorCount": 6,
          "trailersVisible": 4,
          "trailerParkingCapacity": 15,
          "truckGateCount": 1,
          "buildingCount": 4,
          "siteAreaAcres": 17.5,
          "railServed": true
        }
      }
    },
    {
      "type": "Feature",
      "geometry": {
        "type": "Polygon",
        "coordinates": [
          [
            [
              -93.272173,
              45.04927
            ],
            [
              -93.272311,
              45.048688
            ],
            [
              -93.269839,
              45.048494
            ],
            [
              -93.269701,
              45.049076
            ],
            [
              -93.272173,
              45.04927
            ]
          ]
        ]
      },
      "properties": {
        "account": "general-mills",
        "name": "General Mills - Fridley MN (Flour Mill)",
        "type": "Flour Mill",
        "archetype": "#3",
        "archetypeName": "No Gate / No GS",
        "confidence": "high",
        "zone": "dockApron",
        "index": 1
      }
    },
    {
      "type": "Feature",
      "geometry": {
        "type": "Polygon",
        "coordinates": [
          [
            [
              -85.385675,
              34.9935
            ],
            [
              -85.383721,
              34.992679
            ],
            [
              -85.381531,
              34.996226
            ],
            [
              -85.383485,
              34.997047
            ],
            [
              -85.385675,
              34.9935
            ]
          ]
        ]
      },
      "properties": {
        "account": "general-mills",
        "name": "General Mills - Chattanooga TN Distribution Center",
        "type": "Distribution Center",
        "archetype": "#9",
        "archetypeName": "Gate + No GS (remote check-in)",
        "confidence": "high",
        "zone": "perimeter",
        "truckGate": true,
        "guardShack": false,
        "remoteGs": true,
        "fastLaneOpportunity": false,
        "backupSensitive": false,
        "dropYard": true,
        "multipleFacilities": true,
        "scale": false,
        "shipRcvSeparate": true,
        "urbanRural": "Rural",
        "dockDoors": "50+",
        "dropArea": "50+",
        "yardMetrics": {
          "dockDoorCount": 60,
          "trailersVisible": 130,
          "trailerParkingCapacity": 110,
          "truckGateCount": 1,
          "buildingCount": 2,
          "siteAreaAcres": 28,
          "railServed": true
        }
      }
    },
    {
      "type": "Feature",
      "geometry": {
        "type": "Polygon",
        "coordinates": [
          [
            [
              -85.385774,
              34.993639
            ],
            [
              -85.385383,
              34.993474
            ],
            [
              -85.383492,
              34.996537
            ],
            [
              -85.383883,
              34.996702
            ],
            [
              -85.385774,
              34.993639
            ]
          ]
        ]
      },
      "properties": {
        "account": "general-mills",
        "name": "General Mills - Chattanooga TN Distribution Center",
        "type": "Distribution Center",
        "archetype": "#9",
        "archetypeName": "Gate + No GS (remote check-in)",
        "confidence": "high",
        "zone": "dropYard",
        "index": 1
      }
    },
    {
      "type": "Feature",
      "geometry": {
        "type": "Polygon",
        "coordinates": [
          [
            [
              -85.385408,
              34.993336
            ],
            [
              -85.385213,
              34.993254
            ],
            [
              -85.383172,
              34.996558
            ],
            [
              -85.383367,
              34.99664
            ],
            [
              -85.385408,
              34.993336
            ]
          ]
        ]
      },
      "properties": {
        "account": "general-mills",
        "name": "General Mills - Chattanooga TN Distribution Center",
        "type": "Distribution Center",
        "archetype": "#9",
        "archetypeName": "Gate + No GS (remote check-in)",
        "confidence": "high",
        "zone": "dockApron",
        "index": 1
      }
    },
    {
      "type": "Feature",
      "geometry": {
        "type": "Polygon",
        "coordinates": [
          [
            [
              -117.511121,
              34.045803
            ],
            [
              -117.511121,
              34.043755
            ],
            [
              -117.507276,
              34.043755
            ],
            [
              -117.507276,
              34.045803
            ],
            [
              -117.511121,
              34.045803
            ]
          ]
        ]
      },
      "properties": {
        "account": "general-mills",
        "name": "General Mills - Fontana CA Distribution Center",
        "type": "Distribution Center",
        "archetype": "#9",
        "archetypeName": "Gate + No GS (remote check-in)",
        "confidence": "high",
        "zone": "perimeter",
        "truckGate": true,
        "guardShack": false,
        "remoteGs": true,
        "fastLaneOpportunity": false,
        "backupSensitive": false,
        "dropYard": true,
        "multipleFacilities": false,
        "scale": false,
        "shipRcvSeparate": false,
        "urbanRural": "Urban",
        "dockDoors": "50+",
        "dropArea": "50+",
        "yardMetrics": {
          "dockDoorCount": 55,
          "trailersVisible": 70,
          "trailerParkingCapacity": 80,
          "truckGateCount": 1,
          "buildingCount": 1,
          "siteAreaAcres": 36,
          "railServed": false
        }
      }
    },
    {
      "type": "Feature",
      "geometry": {
        "type": "Polygon",
        "coordinates": [
          [
            [
              -117.508649,
              34.045576
            ],
            [
              -117.508649,
              34.043869
            ],
            [
              -117.507276,
              34.043869
            ],
            [
              -117.507276,
              34.045576
            ],
            [
              -117.508649,
              34.045576
            ]
          ]
        ]
      },
      "properties": {
        "account": "general-mills",
        "name": "General Mills - Fontana CA Distribution Center",
        "type": "Distribution Center",
        "archetype": "#9",
        "archetypeName": "Gate + No GS (remote check-in)",
        "confidence": "high",
        "zone": "dockApron",
        "index": 1
      }
    }
  ]
}
