{
  "type": "FeatureCollection",
  "features": [
    {
      "type": "Feature",
      "geometry": {
        "type": "Polygon",
        "coordinates": [
          [
            [
              -81.90374,
              33.420668
            ],
            [
              -81.907036,
              33.417688
            ],
            [
              -81.907585,
              33.414707
            ],
            [
              -81.900993,
              33.411727
            ],
            [
              -81.890281,
              33.411956
            ],
            [
              -81.891105,
              33.420668
            ],
            [
              -81.90374,
              33.420668
            ]
          ]
        ]
      },
      "properties": {
        "account": "kimberly-clark",
        "name": "K-C Beech Island Mill - Beech Island SC",
        "type": "Integrated tissue & personal care manufacturing complex (largest K-C facility globally)",
        "archetype": "#6",
        "archetypeName": "Gate + GS (not BU sens.) + campus",
        "confidence": "high",
        "zone": "perimeter",
        "truckGate": true,
        "guardShack": true,
        "remoteGs": false,
        "fastLaneOpportunity": true,
        "backupSensitive": false,
        "dropYard": true,
        "multipleFacilities": true,
        "scale": false,
        "shipRcvSeparate": true,
        "urbanRural": "Rural",
        "dockDoors": "50+",
        "dropArea": "50+",
        "yardMetrics": {
          "dockDoorCount": 90,
          "trailersVisible": 320,
          "trailerParkingCapacity": 450,
          "truckGateCount": 1,
          "buildingCount": 7,
          "siteAreaAcres": 470,
          "railServed": false
        }
      }
    },
    {
      "type": "Feature",
      "geometry": {
        "type": "Polygon",
        "coordinates": [
          [
            [
              -81.90319,
              33.420439
            ],
            [
              -81.90319,
              33.419292
            ],
            [
              -81.901542,
              33.419522
            ],
            [
              -81.901542,
              33.420668
            ],
            [
              -81.90319,
              33.420439
            ]
          ]
        ]
      },
      "properties": {
        "account": "kimberly-clark",
        "name": "K-C Beech Island Mill - Beech Island SC",
        "type": "Integrated tissue & personal care manufacturing complex (largest K-C facility globally)",
        "archetype": "#6",
        "archetypeName": "Gate + GS (not BU sens.) + campus",
        "confidence": "high",
        "zone": "truckGate"
      }
    },
    {
      "type": "Feature",
      "geometry": {
        "type": "Polygon",
        "coordinates": [
          [
            [
              -81.902916,
              33.420209
            ],
            [
              -81.902916,
              33.418605
            ],
            [
              -81.897148,
              33.418605
            ],
            [
              -81.897148,
              33.420209
            ],
            [
              -81.902916,
              33.420209
            ]
          ]
        ]
      },
      "properties": {
        "account": "kimberly-clark",
        "name": "K-C Beech Island Mill - Beech Island SC",
        "type": "Integrated tissue & personal care manufacturing complex (largest K-C facility globally)",
        "archetype": "#6",
        "archetypeName": "Gate + GS (not BU sens.) + campus",
        "confidence": "high",
        "zone": "dropYard",
        "index": 1
      }
    },
    {
      "type": "Feature",
      "geometry": {
        "type": "Polygon",
        "coordinates": [
          [
            [
              -81.900444,
              33.413332
            ],
            [
              -81.900444,
              33.412415
            ],
            [
              -81.891105,
              33.412415
            ],
            [
              -81.891105,
              33.413332
            ],
            [
              -81.900444,
              33.413332
            ]
          ]
        ]
      },
      "properties": {
        "account": "kimberly-clark",
        "name": "K-C Beech Island Mill - Beech Island SC",
        "type": "Integrated tissue & personal care manufacturing complex (largest K-C facility globally)",
        "archetype": "#6",
        "archetypeName": "Gate + GS (not BU sens.) + campus",
        "confidence": "high",
        "zone": "dockApron",
        "index": 1
      }
    },
    {
      "type": "Feature",
      "geometry": {
        "type": "Polygon",
        "coordinates": [
          [
            [
              -81.897536,
              33.420417
            ],
            [
              -81.897536,
              33.415259
            ],
            [
              -81.893417,
              33.415259
            ],
            [
              -81.893417,
              33.417322
            ],
            [
              -81.894515,
              33.420417
            ],
            [
              -81.897536,
              33.420417
            ]
          ]
        ]
      },
      "properties": {
        "account": "kimberly-clark",
        "name": "K-C Beech Island Regional Distribution Center - Beech Island SC",
        "type": "Automated regional distribution center (new ~1.1M sq ft, $200M, announced 2025)",
        "archetype": "#3",
        "archetypeName": "No Gate / No GS",
        "confidence": "low",
        "zone": "perimeter",
        "truckGate": false,
        "guardShack": false,
        "remoteGs": false,
        "fastLaneOpportunity": false,
        "backupSensitive": false,
        "dropYard": false,
        "multipleFacilities": false,
        "scale": false,
        "shipRcvSeparate": false,
        "urbanRural": "Rural",
        "dockDoors": "NONE",
        "dropArea": "NONE",
        "yardMetrics": {
          "dockDoorCount": 0,
          "trailersVisible": 0,
          "trailerParkingCapacity": 0,
          "truckGateCount": 1,
          "buildingCount": 0,
          "siteAreaAcres": 0,
          "railServed": false
        }
      }
    },
    {
      "type": "Feature",
      "geometry": {
        "type": "Polygon",
        "coordinates": [
          [
            [
              -81.895339,
              33.419615
            ],
            [
              -81.895339,
              33.418927
            ],
            [
              -81.894515,
              33.418927
            ],
            [
              -81.894515,
              33.419615
            ],
            [
              -81.895339,
              33.419615
            ]
          ]
        ]
      },
      "properties": {
        "account": "kimberly-clark",
        "name": "K-C Beech Island Regional Distribution Center - Beech Island SC",
        "type": "Automated regional distribution center (new ~1.1M sq ft, $200M, announced 2025)",
        "archetype": "#3",
        "archetypeName": "No Gate / No GS",
        "confidence": "low",
        "zone": "truckGate"
      }
    },
    {
      "type": "Feature",
      "geometry": {
        "type": "Polygon",
        "coordinates": [
          [
            [
              -81.897262,
              33.417781
            ],
            [
              -81.897262,
              33.416978
            ],
            [
              -81.89479,
              33.416978
            ],
            [
              -81.89479,
              33.417781
            ],
            [
              -81.897262,
              33.417781
            ]
          ]
        ]
      },
      "properties": {
        "account": "kimberly-clark",
        "name": "K-C Beech Island Regional Distribution Center - Beech Island SC",
        "type": "Automated regional distribution center (new ~1.1M sq ft, $200M, announced 2025)",
        "archetype": "#3",
        "archetypeName": "No Gate / No GS",
        "confidence": "low",
        "zone": "dockApron",
        "index": 1
      }
    },
    {
      "type": "Feature",
      "geometry": {
        "type": "Polygon",
        "coordinates": [
          [
            [
              -88.053547,
              30.742854
            ],
            [
              -88.054645,
              30.737661
            ],
            [
              -88.052997,
              30.731523
            ],
            [
              -88.046405,
              30.732467
            ],
            [
              -88.046405,
              30.740494
            ],
            [
              -88.053547,
              30.742854
            ]
          ]
        ]
      },
      "properties": {
        "account": "kimberly-clark",
        "name": "K-C Mobile Mill - Mobile AL",
        "type": "Tissue / paper manufacturing mill",
        "archetype": "#9",
        "archetypeName": "Gate + No GS (remote check-in)",
        "confidence": "medium",
        "zone": "perimeter",
        "truckGate": true,
        "guardShack": false,
        "remoteGs": true,
        "fastLaneOpportunity": false,
        "backupSensitive": false,
        "dropYard": true,
        "multipleFacilities": true,
        "scale": false,
        "shipRcvSeparate": false,
        "urbanRural": "Urban",
        "dockDoors": "10-25",
        "dropArea": "25-50",
        "yardMetrics": {
          "dockDoorCount": 14,
          "trailersVisible": 70,
          "trailerParkingCapacity": 120,
          "truckGateCount": 2,
          "buildingCount": 6,
          "siteAreaAcres": 95,
          "railServed": true
        }
      }
    },
    {
      "type": "Feature",
      "geometry": {
        "type": "Polygon",
        "coordinates": [
          [
            [
              -84.332667,
              35.7692
            ],
            [
              -84.333216,
              35.767194
            ],
            [
              -84.332117,
              35.764966
            ],
            [
              -84.328547,
              35.764966
            ],
            [
              -84.325525,
              35.766303
            ],
            [
              -84.32223,
              35.768531
            ],
            [
              -84.326624,
              35.769869
            ],
            [
              -84.332667,
              35.7692
            ]
          ]
        ]
      },
      "properties": {
        "account": "kimberly-clark",
        "name": "K-C Loudon Mill - Loudon TN",
        "type": "Tissue manufacturing mill (K-C Professional / consumer tissue)",
        "archetype": "#3",
        "archetypeName": "No Gate / No GS",
        "confidence": "medium",
        "zone": "perimeter",
        "truckGate": false,
        "guardShack": false,
        "remoteGs": false,
        "fastLaneOpportunity": false,
        "backupSensitive": false,
        "dropYard": true,
        "multipleFacilities": true,
        "scale": false,
        "shipRcvSeparate": true,
        "urbanRural": "Rural",
        "dockDoors": "25-50",
        "dropArea": "50+",
        "yardMetrics": {
          "dockDoorCount": 30,
          "trailersVisible": 130,
          "trailerParkingCapacity": 180,
          "truckGateCount": 1,
          "buildingCount": 4,
          "siteAreaAcres": 80,
          "railServed": false
        }
      }
    },
    {
      "type": "Feature",
      "geometry": {
        "type": "Polygon",
        "coordinates": [
          [
            [
              -84.329735,
              35.764848
            ],
            [
              -84.329775,
              35.765117
            ],
            [
              -84.330105,
              35.765084
            ],
            [
              -84.330065,
              35.764815
            ],
            [
              -84.329735,
              35.764848
            ]
          ]
        ]
      },
      "properties": {
        "account": "kimberly-clark",
        "name": "K-C Loudon Mill - Loudon TN",
        "type": "Tissue manufacturing mill (K-C Professional / consumer tissue)",
        "archetype": "#3",
        "archetypeName": "No Gate / No GS",
        "confidence": "medium",
        "zone": "truckGate"
      }
    },
    {
      "type": "Feature",
      "geometry": {
        "type": "Polygon",
        "coordinates": [
          [
            [
              -84.323007,
              35.767218
            ],
            [
              -84.322519,
              35.768609
            ],
            [
              -84.325393,
              35.769282
            ],
            [
              -84.325881,
              35.767891
            ],
            [
              -84.323007,
              35.767218
            ]
          ]
        ]
      },
      "properties": {
        "account": "kimberly-clark",
        "name": "K-C Loudon Mill - Loudon TN",
        "type": "Tissue manufacturing mill (K-C Professional / consumer tissue)",
        "archetype": "#3",
        "archetypeName": "No Gate / No GS",
        "confidence": "medium",
        "zone": "dropYard",
        "index": 1
      }
    },
    {
      "type": "Feature",
      "geometry": {
        "type": "Polygon",
        "coordinates": [
          [
            [
              -84.331188,
              35.76676
            ],
            [
              -84.330902,
              35.766781
            ],
            [
              -84.331124,
              35.768854
            ],
            [
              -84.33141,
              35.768833
            ],
            [
              -84.331188,
              35.76676
            ]
          ]
        ]
      },
      "properties": {
        "account": "kimberly-clark",
        "name": "K-C Loudon Mill - Loudon TN",
        "type": "Tissue manufacturing mill (K-C Professional / consumer tissue)",
        "archetype": "#3",
        "archetypeName": "No Gate / No GS",
        "confidence": "medium",
        "zone": "dockApron",
        "index": 1
      }
    },
    {
      "type": "Feature",
      "geometry": {
        "type": "Polygon",
        "coordinates": [
          [
            [
              -73.415258,
              41.560385
            ],
            [
              -73.414983,
              41.557816
            ],
            [
              -73.414709,
              41.555247
            ],
            [
              -73.40949,
              41.555453
            ],
            [
              -73.408666,
              41.55833
            ],
            [
              -73.409765,
              41.560385
            ],
            [
              -73.415258,
              41.560385
            ]
          ]
        ]
      },
      "properties": {
        "account": "kimberly-clark",
        "name": "K-C New Milford Mill - New Milford CT",
        "type": "Diaper & tissue manufacturing plant (Huggies, Kleenex, Scott)",
        "archetype": "#3",
        "archetypeName": "No Gate / No GS",
        "confidence": "medium",
        "zone": "perimeter",
        "truckGate": false,
        "guardShack": false,
        "remoteGs": false,
        "fastLaneOpportunity": false,
        "backupSensitive": false,
        "dropYard": true,
        "multipleFacilities": true,
        "scale": false,
        "shipRcvSeparate": true,
        "urbanRural": "Urban",
        "dockDoors": "25-50",
        "dropArea": "25-50",
        "yardMetrics": {
          "dockDoorCount": 25,
          "trailersVisible": 60,
          "trailerParkingCapacity": 110,
          "truckGateCount": 1,
          "buildingCount": 5,
          "siteAreaAcres": 75,
          "railServed": true
        }
      }
    },
    {
      "type": "Feature",
      "geometry": {
        "type": "Polygon",
        "coordinates": [
          [
            [
              -73.414709,
              41.56018
            ],
            [
              -73.414709,
              41.559666
            ],
            [
              -73.413885,
              41.559666
            ],
            [
              -73.413885,
              41.56018
            ],
            [
              -73.414709,
              41.56018
            ]
          ]
        ]
      },
      "properties": {
        "account": "kimberly-clark",
        "name": "K-C New Milford Mill - New Milford CT",
        "type": "Diaper & tissue manufacturing plant (Huggies, Kleenex, Scott)",
        "archetype": "#3",
        "archetypeName": "No Gate / No GS",
        "confidence": "medium",
        "zone": "truckGate"
      }
    },
    {
      "type": "Feature",
      "geometry": {
        "type": "Polygon",
        "coordinates": [
          [
            [
              -73.414297,
              41.559152
            ],
            [
              -73.414297,
              41.558638
            ],
            [
              -73.410589,
              41.558638
            ],
            [
              -73.410589,
              41.559152
            ],
            [
              -73.414297,
              41.559152
            ]
          ]
        ]
      },
      "properties": {
        "account": "kimberly-clark",
        "name": "K-C New Milford Mill - New Milford CT",
        "type": "Diaper & tissue manufacturing plant (Huggies, Kleenex, Scott)",
        "archetype": "#3",
        "archetypeName": "No Gate / No GS",
        "confidence": "medium",
        "zone": "dockApron",
        "index": 1
      }
    },
    {
      "type": "Feature",
      "geometry": {
        "type": "Polygon",
        "coordinates": [
          [
            [
              -73.414983,
              41.557816
            ],
            [
              -73.414709,
              41.555453
            ],
            [
              -73.412923,
              41.555453
            ],
            [
              -73.412923,
              41.557816
            ],
            [
              -73.414983,
              41.557816
            ]
          ]
        ]
      },
      "properties": {
        "account": "kimberly-clark",
        "name": "K-C New Milford Mill - New Milford CT",
        "type": "Diaper & tissue manufacturing plant (Huggies, Kleenex, Scott)",
        "archetype": "#3",
        "archetypeName": "No Gate / No GS",
        "confidence": "medium",
        "zone": "staging"
      }
    },
    {
      "type": "Feature",
      "geometry": {
        "type": "Polygon",
        "coordinates": [
          [
            [
              -87.309242,
              37.823088
            ],
            [
              -87.309517,
              37.8194
            ],
            [
              -87.307595,
              37.815928
            ],
            [
              -87.302651,
              37.815495
            ],
            [
              -87.299904,
              37.818315
            ],
            [
              -87.301827,
              37.822437
            ],
            [
              -87.309242,
              37.823088
            ]
          ]
        ]
      },
      "properties": {
        "account": "kimberly-clark",
        "name": "K-C Owensboro Plant - Owensboro KY",
        "type": "Diaper / personal care manufacturing plant",
        "archetype": "#9",
        "archetypeName": "Gate + No GS (remote check-in)",
        "confidence": "medium",
        "zone": "perimeter",
        "truckGate": true,
        "guardShack": false,
        "remoteGs": true,
        "fastLaneOpportunity": true,
        "backupSensitive": false,
        "dropYard": true,
        "multipleFacilities": true,
        "scale": false,
        "shipRcvSeparate": false,
        "urbanRural": "Rural",
        "dockDoors": "50+",
        "dropArea": "50+",
        "yardMetrics": {
          "dockDoorCount": 55,
          "trailersVisible": 160,
          "trailerParkingCapacity": 220,
          "truckGateCount": 1,
          "buildingCount": 6,
          "siteAreaAcres": 230,
          "railServed": false
        }
      }
    },
    {
      "type": "Feature",
      "geometry": {
        "type": "Polygon",
        "coordinates": [
          [
            [
              -87.305397,
              37.816145
            ],
            [
              -87.305397,
              37.815061
            ],
            [
              -87.303749,
              37.815061
            ],
            [
              -87.303749,
              37.816145
            ],
            [
              -87.305397,
              37.816145
            ]
          ]
        ]
      },
      "properties": {
        "account": "kimberly-clark",
        "name": "K-C Owensboro Plant - Owensboro KY",
        "type": "Diaper / personal care manufacturing plant",
        "archetype": "#9",
        "archetypeName": "Gate + No GS (remote check-in)",
        "confidence": "medium",
        "zone": "truckGate"
      }
    },
    {
      "type": "Feature",
      "geometry": {
        "type": "Polygon",
        "coordinates": [
          [
            [
              -87.309242,
              37.82222
            ],
            [
              -87.309517,
              37.820702
            ],
            [
              -87.306221,
              37.820268
            ],
            [
              -87.305947,
              37.821787
            ],
            [
              -87.309242,
              37.82222
            ]
          ]
        ]
      },
      "properties": {
        "account": "kimberly-clark",
        "name": "K-C Owensboro Plant - Owensboro KY",
        "type": "Diaper / personal care manufacturing plant",
        "archetype": "#9",
        "archetypeName": "Gate + No GS (remote check-in)",
        "confidence": "medium",
        "zone": "dropYard",
        "index": 1
      }
    },
    {
      "type": "Feature",
      "geometry": {
        "type": "Polygon",
        "coordinates": [
          [
            [
              -87.305397,
              37.821136
            ],
            [
              -87.305672,
              37.819834
            ],
            [
              -87.302101,
              37.819617
            ],
            [
              -87.301827,
              37.820919
            ],
            [
              -87.305397,
              37.821136
            ]
          ]
        ]
      },
      "properties": {
        "account": "kimberly-clark",
        "name": "K-C Owensboro Plant - Owensboro KY",
        "type": "Diaper / personal care manufacturing plant",
        "archetype": "#9",
        "archetypeName": "Gate + No GS (remote check-in)",
        "confidence": "medium",
        "zone": "dockApron",
        "index": 1
      }
    },
    {
      "type": "Feature",
      "geometry": {
        "type": "Polygon",
        "coordinates": [
          [
            [
              -92.395835,
              34.865395
            ],
            [
              -92.395972,
              34.86455
            ],
            [
              -92.395835,
              34.863593
            ],
            [
              -92.392539,
              34.863593
            ],
            [
              -92.392264,
              34.864269
            ],
            [
              -92.392539,
              34.865395
            ],
            [
              -92.395835,
              34.865395
            ]
          ]
        ]
      },
      "properties": {
        "account": "kimberly-clark",
        "name": "K-C Maumelle Plant - Maumelle AR",
        "type": "Huggies baby wipes manufacturing plant (~400,000 sq ft)",
        "archetype": "#1",
        "archetypeName": "Gate + GS (not BU sens.)",
        "confidence": "high",
        "zone": "perimeter",
        "truckGate": true,
        "guardShack": true,
        "remoteGs": false,
        "fastLaneOpportunity": false,
        "backupSensitive": false,
        "dropYard": true,
        "multipleFacilities": false,
        "scale": false,
        "shipRcvSeparate": false,
        "urbanRural": "Rural",
        "dockDoors": "25-50",
        "dropArea": "25-50",
        "yardMetrics": {
          "dockDoorCount": 36,
          "trailersVisible": 55,
          "trailerParkingCapacity": 70,
          "truckGateCount": 1,
          "buildingCount": 2,
          "siteAreaAcres": 33,
          "railServed": false
        }
      }
    },
    {
      "type": "Feature",
      "geometry": {
        "type": "Polygon",
        "coordinates": [
          [
            [
              -92.395972,
              34.864832
            ],
            [
              -92.395972,
              34.86455
            ],
            [
              -92.39556,
              34.86455
            ],
            [
              -92.39556,
              34.864832
            ],
            [
              -92.395972,
              34.864832
            ]
          ]
        ]
      },
      "properties": {
        "account": "kimberly-clark",
        "name": "K-C Maumelle Plant - Maumelle AR",
        "type": "Huggies baby wipes manufacturing plant (~400,000 sq ft)",
        "archetype": "#1",
        "archetypeName": "Gate + GS (not BU sens.)",
        "confidence": "high",
        "zone": "truckGate"
      }
    },
    {
      "type": "Feature",
      "geometry": {
        "type": "Polygon",
        "coordinates": [
          [
            [
              -92.394187,
              34.865959
            ],
            [
              -92.394187,
              34.865452
            ],
            [
              -92.392676,
              34.865452
            ],
            [
              -92.392676,
              34.865959
            ],
            [
              -92.394187,
              34.865959
            ]
          ]
        ]
      },
      "properties": {
        "account": "kimberly-clark",
        "name": "K-C Maumelle Plant - Maumelle AR",
        "type": "Huggies baby wipes manufacturing plant (~400,000 sq ft)",
        "archetype": "#1",
        "archetypeName": "Gate + GS (not BU sens.)",
        "confidence": "high",
        "zone": "dropYard",
        "index": 1
      }
    },
    {
      "type": "Feature",
      "geometry": {
        "type": "Polygon",
        "coordinates": [
          [
            [
              -92.395835,
              34.86348
            ],
            [
              -92.395835,
              34.863142
            ],
            [
              -92.392951,
              34.863142
            ],
            [
              -92.392951,
              34.86348
            ],
            [
              -92.395835,
              34.86348
            ]
          ]
        ]
      },
      "properties": {
        "account": "kimberly-clark",
        "name": "K-C Maumelle Plant - Maumelle AR",
        "type": "Huggies baby wipes manufacturing plant (~400,000 sq ft)",
        "archetype": "#1",
        "archetypeName": "Gate + GS (not BU sens.)",
        "confidence": "high",
        "zone": "dropYard",
        "index": 2
      }
    },
    {
      "type": "Feature",
      "geometry": {
        "type": "Polygon",
        "coordinates": [
          [
            [
              -92.392951,
              34.865283
            ],
            [
              -92.392951,
              34.864043
            ],
            [
              -92.392402,
              34.864043
            ],
            [
              -92.392402,
              34.865283
            ],
            [
              -92.392951,
              34.865283
            ]
          ]
        ]
      },
      "properties": {
        "account": "kimberly-clark",
        "name": "K-C Maumelle Plant - Maumelle AR",
        "type": "Huggies baby wipes manufacturing plant (~400,000 sq ft)",
        "archetype": "#1",
        "archetypeName": "Gate + GS (not BU sens.)",
        "confidence": "high",
        "zone": "dockApron",
        "index": 1
      }
    },
    {
      "type": "Feature",
      "geometry": {
        "type": "Polygon",
        "coordinates": [
          [
            [
              -95.596693,
              33.643016
            ],
            [
              -95.597242,
              33.640043
            ],
            [
              -95.596144,
              33.636613
            ],
            [
              -95.5912,
              33.636613
            ],
            [
              -95.589552,
              33.640043
            ],
            [
              -95.5912,
              33.643016
            ],
            [
              -95.596693,
              33.643016
            ]
          ]
        ]
      },
      "properties": {
        "account": "kimberly-clark",
        "name": "K-C Paris Plant - Paris TX",
        "type": "Diaper / personal care manufacturing plant (Huggies, Pull-Ups, Little Swimmers, Goodnites)",
        "archetype": "#9",
        "archetypeName": "Gate + No GS (remote check-in)",
        "confidence": "medium",
        "zone": "perimeter",
        "truckGate": true,
        "guardShack": false,
        "remoteGs": true,
        "fastLaneOpportunity": true,
        "backupSensitive": false,
        "dropYard": true,
        "multipleFacilities": false,
        "scale": false,
        "shipRcvSeparate": false,
        "urbanRural": "Rural",
        "dockDoors": "25-50",
        "dropArea": "50+",
        "yardMetrics": {
          "dockDoorCount": 40,
          "trailersVisible": 70,
          "trailerParkingCapacity": 110,
          "truckGateCount": 1,
          "buildingCount": 3,
          "siteAreaAcres": 200,
          "railServed": false
        }
      }
    },
    {
      "type": "Feature",
      "geometry": {
        "type": "Polygon",
        "coordinates": [
          [
            [
              -95.592848,
              33.637071
            ],
            [
              -95.592848,
              33.635927
            ],
            [
              -95.5912,
              33.635927
            ],
            [
              -95.5912,
              33.637071
            ],
            [
              -95.592848,
              33.637071
            ]
          ]
        ]
      },
      "properties": {
        "account": "kimberly-clark",
        "name": "K-C Paris Plant - Paris TX",
        "type": "Diaper / personal care manufacturing plant (Huggies, Pull-Ups, Little Swimmers, Goodnites)",
        "archetype": "#9",
        "archetypeName": "Gate + No GS (remote check-in)",
        "confidence": "medium",
        "zone": "truckGate"
      }
    },
    {
      "type": "Feature",
      "geometry": {
        "type": "Polygon",
        "coordinates": [
          [
            [
              -95.597517,
              33.637757
            ],
            [
              -95.597517,
              33.636156
            ],
            [
              -95.592299,
              33.636156
            ],
            [
              -95.592299,
              33.637757
            ],
            [
              -95.597517,
              33.637757
            ]
          ]
        ]
      },
      "properties": {
        "account": "kimberly-clark",
        "name": "K-C Paris Plant - Paris TX",
        "type": "Diaper / personal care manufacturing plant (Huggies, Pull-Ups, Little Swimmers, Goodnites)",
        "archetype": "#9",
        "archetypeName": "Gate + No GS (remote check-in)",
        "confidence": "medium",
        "zone": "dropYard",
        "index": 1
      }
    },
    {
      "type": "Feature",
      "geometry": {
        "type": "Polygon",
        "coordinates": [
          [
            [
              -95.596144,
              33.641187
            ],
            [
              -95.596144,
              33.640043
            ],
            [
              -95.5912,
              33.640043
            ],
            [
              -95.5912,
              33.641187
            ],
            [
              -95.596144,
              33.641187
            ]
          ]
        ]
      },
      "properties": {
        "account": "kimberly-clark",
        "name": "K-C Paris Plant - Paris TX",
        "type": "Diaper / personal care manufacturing plant (Huggies, Pull-Ups, Little Swimmers, Goodnites)",
        "archetype": "#9",
        "archetypeName": "Gate + No GS (remote check-in)",
        "confidence": "medium",
        "zone": "dockApron",
        "index": 1
      }
    },
    {
      "type": "Feature",
      "geometry": {
        "type": "Polygon",
        "coordinates": [
          [
            [
              -75.358873,
              39.847574
            ],
            [
              -75.359148,
              39.846098
            ],
            [
              -75.358324,
              39.843989
            ],
            [
              -75.355852,
              39.843567
            ],
            [
              -75.353105,
              39.844727
            ],
            [
              -75.353655,
              39.847152
            ],
            [
              -75.358873,
              39.847574
            ]
          ]
        ]
      },
      "properties": {
        "account": "kimberly-clark",
        "name": "K-C Chester Mill - Chester PA",
        "type": "Non-integrated tissue mill (Scott 1000 bathroom tissue; ~1.3M sq ft, ~570 employees)",
        "archetype": "#9",
        "archetypeName": "Gate + No GS (remote check-in)",
        "confidence": "medium",
        "zone": "perimeter",
        "truckGate": true,
        "guardShack": false,
        "remoteGs": true,
        "fastLaneOpportunity": false,
        "backupSensitive": true,
        "dropYard": false,
        "multipleFacilities": true,
        "scale": true,
        "shipRcvSeparate": false,
        "urbanRural": "Urban",
        "dockDoors": "10-25",
        "dropArea": "NONE",
        "yardMetrics": {
          "dockDoorCount": 18,
          "trailersVisible": 14,
          "trailerParkingCapacity": 25,
          "truckGateCount": 2,
          "buildingCount": 8,
          "siteAreaAcres": 74,
          "railServed": true
        }
      }
    },
    {
      "type": "Feature",
      "geometry": {
        "type": "Polygon",
        "coordinates": [
          [
            [
              -75.355028,
              39.847363
            ],
            [
              -75.355303,
              39.846309
            ],
            [
              -75.352007,
              39.845887
            ],
            [
              -75.351732,
              39.846941
            ],
            [
              -75.355028,
              39.847363
            ]
          ]
        ]
      },
      "properties": {
        "account": "kimberly-clark",
        "name": "K-C Chester Mill - Chester PA",
        "type": "Non-integrated tissue mill (Scott 1000 bathroom tissue; ~1.3M sq ft, ~570 employees)",
        "archetype": "#9",
        "archetypeName": "Gate + No GS (remote check-in)",
        "confidence": "medium",
        "zone": "dropYard",
        "index": 1
      }
    },
    {
      "type": "Feature",
      "geometry": {
        "type": "Polygon",
        "coordinates": [
          [
            [
              -95.930496,
              35.971945
            ],
            [
              -95.931045,
              35.969722
            ],
            [
              -95.929947,
              35.96661
            ],
            [
              -95.923355,
              35.96661
            ],
            [
              -95.921158,
              35.968833
            ],
            [
              -95.923355,
              35.9715
            ],
            [
              -95.930496,
              35.971945
            ]
          ]
        ]
      },
      "properties": {
        "account": "kimberly-clark",
        "name": "K-C Jenks Mill - Jenks OK",
        "type": "Tissue paper mill (Cottonelle, Scott bathroom tissue) with regional distribution center",
        "archetype": "#6",
        "archetypeName": "Gate + GS (not BU sens.) + campus",
        "confidence": "medium",
        "zone": "perimeter",
        "truckGate": true,
        "guardShack": true,
        "remoteGs": false,
        "fastLaneOpportunity": true,
        "backupSensitive": false,
        "dropYard": true,
        "multipleFacilities": true,
        "scale": true,
        "shipRcvSeparate": false,
        "urbanRural": "Rural",
        "dockDoors": "25-50",
        "dropArea": "50+",
        "yardMetrics": {
          "dockDoorCount": 45,
          "trailersVisible": 90,
          "trailerParkingCapacity": 140,
          "truckGateCount": 1,
          "buildingCount": 5,
          "siteAreaAcres": 320,
          "railServed": false
        }
      }
    },
    {
      "type": "Feature",
      "geometry": {
        "type": "Polygon",
        "coordinates": [
          [
            [
              -95.931045,
              35.967943
            ],
            [
              -95.931045,
              35.966832
            ],
            [
              -95.929397,
              35.966832
            ],
            [
              -95.929397,
              35.967943
            ],
            [
              -95.931045,
              35.967943
            ]
          ]
        ]
      },
      "properties": {
        "account": "kimberly-clark",
        "name": "K-C Jenks Mill - Jenks OK",
        "type": "Tissue paper mill (Cottonelle, Scott bathroom tissue) with regional distribution center",
        "archetype": "#6",
        "archetypeName": "Gate + GS (not BU sens.) + campus",
        "confidence": "medium",
        "zone": "truckGate"
      }
    },
    {
      "type": "Feature",
      "geometry": {
        "type": "Polygon",
        "coordinates": [
          [
            [
              -95.925827,
              35.968833
            ],
            [
              -95.925827,
              35.967277
            ],
            [
              -95.921707,
              35.967054
            ],
            [
              -95.921707,
              35.96861
            ],
            [
              -95.925827,
              35.968833
            ]
          ]
        ]
      },
      "properties": {
        "account": "kimberly-clark",
        "name": "K-C Jenks Mill - Jenks OK",
        "type": "Tissue paper mill (Cottonelle, Scott bathroom tissue) with regional distribution center",
        "archetype": "#6",
        "archetypeName": "Gate + GS (not BU sens.) + campus",
        "confidence": "medium",
        "zone": "dropYard",
        "index": 1
      }
    },
    {
      "type": "Feature",
      "geometry": {
        "type": "Polygon",
        "coordinates": [
          [
            [
              -95.929947,
              35.969277
            ],
            [
              -95.929947,
              35.968166
            ],
            [
              -95.923904,
              35.967943
            ],
            [
              -95.923904,
              35.969055
            ],
            [
              -95.929947,
              35.969277
            ]
          ]
        ]
      },
      "properties": {
        "account": "kimberly-clark",
        "name": "K-C Jenks Mill - Jenks OK",
        "type": "Tissue paper mill (Cottonelle, Scott bathroom tissue) with regional distribution center",
        "archetype": "#6",
        "archetypeName": "Gate + GS (not BU sens.) + campus",
        "confidence": "medium",
        "zone": "dockApron",
        "index": 1
      }
    },
    {
      "type": "Feature",
      "geometry": {
        "type": "Polygon",
        "coordinates": [
          [
            [
              -87.655071,
              45.105882
            ],
            [
              -87.654797,
              45.10375
            ],
            [
              -87.654247,
              45.101036
            ],
            [
              -87.650951,
              45.101036
            ],
            [
              -87.649853,
              45.103265
            ],
            [
              -87.650402,
              45.105689
            ],
            [
              -87.655071,
              45.105882
            ]
          ]
        ]
      },
      "properties": {
        "account": "kimberly-clark",
        "name": "K-C Marinette Mill - Marinette WI",
        "type": "Tissue / wipers manufacturing mill (Scott Shop Towels, Wypall, Viva paper towels; ~230 employees)",
        "archetype": "#7",
        "archetypeName": "Gate + GS (not BU sens.) + fast lane opp",
        "confidence": "high",
        "zone": "perimeter",
        "truckGate": true,
        "guardShack": true,
        "remoteGs": false,
        "fastLaneOpportunity": true,
        "backupSensitive": false,
        "dropYard": true,
        "multipleFacilities": false,
        "scale": false,
        "shipRcvSeparate": false,
        "urbanRural": "Rural",
        "dockDoors": "25-50",
        "dropArea": "50+",
        "yardMetrics": {
          "dockDoorCount": 28,
          "trailersVisible": 52,
          "trailerParkingCapacity": 70,
          "truckGateCount": 1,
          "buildingCount": 4,
          "siteAreaAcres": 31,
          "railServed": false
        }
      }
    },
    {
      "type": "Feature",
      "geometry": {
        "type": "Polygon",
        "coordinates": [
          [
            [
              -87.654797,
              45.104719
            ],
            [
              -87.654797,
              45.104235
            ],
            [
              -87.653973,
              45.104235
            ],
            [
              -87.653973,
              45.104719
            ],
            [
              -87.654797,
              45.104719
            ]
          ]
        ]
      },
      "properties": {
        "account": "kimberly-clark",
        "name": "K-C Marinette Mill - Marinette WI",
        "type": "Tissue / wipers manufacturing mill (Scott Shop Towels, Wypall, Viva paper towels; ~230 employees)",
        "archetype": "#7",
        "archetypeName": "Gate + GS (not BU sens.) + fast lane opp",
        "confidence": "high",
        "zone": "truckGate"
      }
    },
    {
      "type": "Feature",
      "geometry": {
        "type": "Polygon",
        "coordinates": [
          [
            [
              -87.654247,
              45.102199
            ],
            [
              -87.654247,
              45.101036
            ],
            [
              -87.651226,
              45.101036
            ],
            [
              -87.651226,
              45.102199
            ],
            [
              -87.654247,
              45.102199
            ]
          ]
        ]
      },
      "properties": {
        "account": "kimberly-clark",
        "name": "K-C Marinette Mill - Marinette WI",
        "type": "Tissue / wipers manufacturing mill (Scott Shop Towels, Wypall, Viva paper towels; ~230 employees)",
        "archetype": "#7",
        "archetypeName": "Gate + GS (not BU sens.) + fast lane opp",
        "confidence": "high",
        "zone": "dropYard",
        "index": 1
      }
    },
    {
      "type": "Feature",
      "geometry": {
        "type": "Polygon",
        "coordinates": [
          [
            [
              -87.654247,
              45.10375
            ],
            [
              -87.654247,
              45.103168
            ],
            [
              -87.651226,
              45.103071
            ],
            [
              -87.651226,
              45.103653
            ],
            [
              -87.654247,
              45.10375
            ]
          ]
        ]
      },
      "properties": {
        "account": "kimberly-clark",
        "name": "K-C Marinette Mill - Marinette WI",
        "type": "Tissue / wipers manufacturing mill (Scott Shop Towels, Wypall, Viva paper towels; ~230 employees)",
        "archetype": "#7",
        "archetypeName": "Gate + GS (not BU sens.) + fast lane opp",
        "confidence": "high",
        "zone": "dockApron",
        "index": 1
      }
    },
    {
      "type": "Feature",
      "geometry": {
        "type": "Polygon",
        "coordinates": [
          [
            [
              -88.464797,
              44.188792
            ],
            [
              -88.464935,
              44.187906
            ],
            [
              -88.463149,
              44.187709
            ],
            [
              -88.461501,
              44.188103
            ],
            [
              -88.461913,
              44.188989
            ],
            [
              -88.464797,
              44.188792
            ]
          ]
        ]
      },
      "properties": {
        "account": "kimberly-clark",
        "name": "K-C Neenah Experimental Mill - Neenah WI",
        "type": "Manufacturing / experimental mill (product & process innovation, Family Care)",
        "archetype": "#9",
        "archetypeName": "Gate + No GS (remote check-in)",
        "confidence": "medium",
        "zone": "perimeter",
        "truckGate": true,
        "guardShack": false,
        "remoteGs": true,
        "fastLaneOpportunity": false,
        "backupSensitive": true,
        "dropYard": false,
        "multipleFacilities": true,
        "scale": false,
        "shipRcvSeparate": false,
        "urbanRural": "Urban",
        "dockDoors": "0-10",
        "dropArea": "NONE",
        "yardMetrics": {
          "dockDoorCount": 8,
          "trailersVisible": 0,
          "trailerParkingCapacity": 4,
          "truckGateCount": 1,
          "buildingCount": 5,
          "siteAreaAcres": 14,
          "railServed": false
        }
      }
    },
    {
      "type": "Feature",
      "geometry": {
        "type": "Polygon",
        "coordinates": [
          [
            [
              -82.471821,
              35.347868
            ],
            [
              -82.472096,
              35.34574
            ],
            [
              -82.471272,
              35.343388
            ],
            [
              -82.467976,
              35.343164
            ],
            [
              -82.467152,
              35.345404
            ],
            [
              -82.467701,
              35.34742
            ],
            [
              -82.471821,
              35.347868
            ]
          ]
        ]
      },
      "properties": {
        "account": "kimberly-clark",
        "name": "K-C Hendersonville Nonwovens Plant (Berkeley Mill) - Hendersonville NC",
        "type": "Nonwovens manufacturing plant (materials for Depend, Poise, U by Kotex)",
        "archetype": "#9",
        "archetypeName": "Gate + No GS (remote check-in)",
        "confidence": "high",
        "zone": "perimeter",
        "truckGate": true,
        "guardShack": false,
        "remoteGs": true,
        "fastLaneOpportunity": true,
        "backupSensitive": false,
        "dropYard": true,
        "multipleFacilities": false,
        "scale": false,
        "shipRcvSeparate": true,
        "urbanRural": "Rural",
        "dockDoors": "25-50",
        "dropArea": "50+",
        "yardMetrics": {
          "dockDoorCount": 36,
          "trailersVisible": 240,
          "trailerParkingCapacity": 320,
          "truckGateCount": 1,
          "buildingCount": 3,
          "siteAreaAcres": 78,
          "railServed": true
        }
      }
    },
    {
      "type": "Feature",
      "geometry": {
        "type": "Polygon",
        "coordinates": [
          [
            [
              -82.471821,
              35.3463
            ],
            [
              -82.471821,
              35.34574
            ],
            [
              -82.470997,
              35.34574
            ],
            [
              -82.470997,
              35.3463
            ],
            [
              -82.471821,
              35.3463
            ]
          ]
        ]
      },
      "properties": {
        "account": "kimberly-clark",
        "name": "K-C Hendersonville Nonwovens Plant (Berkeley Mill) - Hendersonville NC",
        "type": "Nonwovens manufacturing plant (materials for Depend, Poise, U by Kotex)",
        "archetype": "#9",
        "archetypeName": "Gate + No GS (remote check-in)",
        "confidence": "high",
        "zone": "truckGate"
      }
    },
    {
      "type": "Feature",
      "geometry": {
        "type": "Polygon",
        "coordinates": [
          [
            [
              -82.469349,
              35.347644
            ],
            [
              -82.469487,
              35.346524
            ],
            [
              -82.467015,
              35.3463
            ],
            [
              -82.466877,
              35.34742
            ],
            [
              -82.469349,
              35.347644
            ]
          ]
        ]
      },
      "properties": {
        "account": "kimberly-clark",
        "name": "K-C Hendersonville Nonwovens Plant (Berkeley Mill) - Hendersonville NC",
        "type": "Nonwovens manufacturing plant (materials for Depend, Poise, U by Kotex)",
        "archetype": "#9",
        "archetypeName": "Gate + No GS (remote check-in)",
        "confidence": "high",
        "zone": "dropYard",
        "index": 1
      }
    },
    {
      "type": "Feature",
      "geometry": {
        "type": "Polygon",
        "coordinates": [
          [
            [
              -82.471272,
              35.346076
            ],
            [
              -82.471409,
              35.345404
            ],
            [
              -82.468388,
              35.34518
            ],
            [
              -82.468251,
              35.345852
            ],
            [
              -82.471272,
              35.346076
            ]
          ]
        ]
      },
      "properties": {
        "account": "kimberly-clark",
        "name": "K-C Hendersonville Nonwovens Plant (Berkeley Mill) - Hendersonville NC",
        "type": "Nonwovens manufacturing plant (materials for Depend, Poise, U by Kotex)",
        "archetype": "#9",
        "archetypeName": "Gate + No GS (remote check-in)",
        "confidence": "high",
        "zone": "dockApron",
        "index": 1
      }
    },
    {
      "type": "Feature",
      "geometry": {
        "type": "Polygon",
        "coordinates": [
          [
            [
              -88.492379,
              34.936895
            ],
            [
              -88.492379,
              34.934024
            ],
            [
              -88.489152,
              34.934024
            ],
            [
              -88.489152,
              34.936838
            ],
            [
              -88.492379,
              34.936895
            ]
          ]
        ]
      },
      "properties": {
        "account": "kimberly-clark",
        "name": "K-C Corinth Plant - Corinth MS",
        "type": "Manufacturing plant (nonwovens components for Huggies, Pull-Ups, Poise, Depend, WypAll)",
        "archetype": "#9",
        "archetypeName": "Gate + No GS (remote check-in)",
        "confidence": "high",
        "zone": "perimeter",
        "truckGate": true,
        "guardShack": false,
        "remoteGs": true,
        "fastLaneOpportunity": false,
        "backupSensitive": false,
        "dropYard": true,
        "multipleFacilities": true,
        "scale": false,
        "shipRcvSeparate": false,
        "urbanRural": "Rural",
        "dockDoors": "10-25",
        "dropArea": "50+",
        "yardMetrics": {
          "dockDoorCount": 22,
          "trailersVisible": 70,
          "trailerParkingCapacity": 95,
          "truckGateCount": 2,
          "buildingCount": 9,
          "siteAreaAcres": 24,
          "railServed": false
        }
      }
    },
    {
      "type": "Feature",
      "geometry": {
        "type": "Polygon",
        "coordinates": [
          [
            [
              -88.492173,
              34.934362
            ],
            [
              -88.492173,
              34.93408
            ],
            [
              -88.491761,
              34.93408
            ],
            [
              -88.491761,
              34.934362
            ],
            [
              -88.492173,
              34.934362
            ]
          ]
        ]
      },
      "properties": {
        "account": "kimberly-clark",
        "name": "K-C Corinth Plant - Corinth MS",
        "type": "Manufacturing plant (nonwovens components for Huggies, Pull-Ups, Poise, Depend, WypAll)",
        "archetype": "#9",
        "archetypeName": "Gate + No GS (remote check-in)",
        "confidence": "high",
        "zone": "truckGate"
      }
    },
    {
      "type": "Feature",
      "geometry": {
        "type": "Polygon",
        "coordinates": [
          [
            [
              -88.491487,
              34.934699
            ],
            [
              -88.491487,
              34.934362
            ],
            [
              -88.489152,
              34.934249
            ],
            [
              -88.489152,
              34.934587
            ],
            [
              -88.491487,
              34.934699
            ]
          ]
        ]
      },
      "properties": {
        "account": "kimberly-clark",
        "name": "K-C Corinth Plant - Corinth MS",
        "type": "Manufacturing plant (nonwovens components for Huggies, Pull-Ups, Poise, Depend, WypAll)",
        "archetype": "#9",
        "archetypeName": "Gate + No GS (remote check-in)",
        "confidence": "high",
        "zone": "dropYard",
        "index": 1
      }
    },
    {
      "type": "Feature",
      "geometry": {
        "type": "Polygon",
        "coordinates": [
          [
            [
              -88.491143,
              34.93605
            ],
            [
              -88.491143,
              34.9356
            ],
            [
              -88.489701,
              34.9356
            ],
            [
              -88.489701,
              34.93605
            ],
            [
              -88.491143,
              34.93605
            ]
          ]
        ]
      },
      "properties": {
        "account": "kimberly-clark",
        "name": "K-C Corinth Plant - Corinth MS",
        "type": "Manufacturing plant (nonwovens components for Huggies, Pull-Ups, Poise, Depend, WypAll)",
        "archetype": "#9",
        "archetypeName": "Gate + No GS (remote check-in)",
        "confidence": "high",
        "zone": "dockApron",
        "index": 1
      }
    },
    {
      "type": "Feature",
      "geometry": {
        "type": "Polygon",
        "coordinates": [
          [
            [
              -80.816993,
              41.21441
            ],
            [
              -80.816993,
              41.209451
            ],
            [
              -80.8115,
              41.208624
            ],
            [
              -80.807105,
              41.210277
            ],
            [
              -80.808204,
              41.21441
            ],
            [
              -80.816993,
              41.21441
            ]
          ]
        ]
      },
      "properties": {
        "account": "kimberly-clark",
        "name": "K-C Warren Advanced Manufacturing Facility - Warren OH",
        "type": "New advanced manufacturing facility (Huggies, Pull-Ups, Kleenex, Scott, Viva, Kotex, Poise, Depend; ~1.2M sq ft, $800M, under construction)",
        "archetype": "#3",
        "archetypeName": "No Gate / No GS",
        "confidence": "low",
        "zone": "perimeter",
        "truckGate": false,
        "guardShack": false,
        "remoteGs": false,
        "fastLaneOpportunity": false,
        "backupSensitive": false,
        "dropYard": false,
        "multipleFacilities": false,
        "scale": false,
        "shipRcvSeparate": false,
        "urbanRural": "Urban",
        "dockDoors": "NONE",
        "dropArea": "NONE",
        "yardMetrics": {
          "dockDoorCount": 0,
          "trailersVisible": 0,
          "trailerParkingCapacity": 0,
          "truckGateCount": 0,
          "buildingCount": 0,
          "siteAreaAcres": 560,
          "railServed": true
        }
      }
    },
    {
      "type": "Feature",
      "geometry": {
        "type": "Polygon",
        "coordinates": [
          [
            [
              -75.418993,
              39.741457
            ],
            [
              -75.419542,
              39.737444
            ],
            [
              -75.417895,
              39.733431
            ],
            [
              -75.411852,
              39.733853
            ],
            [
              -75.410204,
              39.737444
            ],
            [
              -75.411303,
              39.741034
            ],
            [
              -75.418993,
              39.741457
            ]
          ]
        ]
      },
      "properties": {
        "account": "kimberly-clark",
        "name": "K-C Logan Township Distribution Center - Logan Township NJ",
        "type": "Distribution center (~600,000 sq ft, LEED-certified)",
        "archetype": "#3",
        "archetypeName": "No Gate / No GS",
        "confidence": "medium",
        "zone": "perimeter",
        "truckGate": false,
        "guardShack": false,
        "remoteGs": false,
        "fastLaneOpportunity": true,
        "backupSensitive": false,
        "dropYard": true,
        "multipleFacilities": false,
        "scale": false,
        "shipRcvSeparate": true,
        "urbanRural": "Rural",
        "dockDoors": "50+",
        "dropArea": "50+",
        "yardMetrics": {
          "dockDoorCount": 110,
          "trailersVisible": 130,
          "trailerParkingCapacity": 150,
          "truckGateCount": 1,
          "buildingCount": 1,
          "siteAreaAcres": 101,
          "railServed": false
        }
      }
    },
    {
      "type": "Feature",
      "geometry": {
        "type": "Polygon",
        "coordinates": [
          [
            [
              -75.416247,
              39.733853
            ],
            [
              -75.416247,
              39.732797
            ],
            [
              -75.414599,
              39.732797
            ],
            [
              -75.414599,
              39.733853
            ],
            [
              -75.416247,
              39.733853
            ]
          ]
        ]
      },
      "properties": {
        "account": "kimberly-clark",
        "name": "K-C Logan Township Distribution Center - Logan Township NJ",
        "type": "Distribution center (~600,000 sq ft, LEED-certified)",
        "archetype": "#3",
        "archetypeName": "No Gate / No GS",
        "confidence": "medium",
        "zone": "truckGate"
      }
    },
    {
      "type": "Feature",
      "geometry": {
        "type": "Polygon",
        "coordinates": [
          [
            [
              -75.412127,
              39.740612
            ],
            [
              -75.412401,
              39.737655
            ],
            [
              -75.40938,
              39.737444
            ],
            [
              -75.409105,
              39.740401
            ],
            [
              -75.412127,
              39.740612
            ]
          ]
        ]
      },
      "properties": {
        "account": "kimberly-clark",
        "name": "K-C Logan Township Distribution Center - Logan Township NJ",
        "type": "Distribution center (~600,000 sq ft, LEED-certified)",
        "archetype": "#3",
        "archetypeName": "No Gate / No GS",
        "confidence": "medium",
        "zone": "dropYard",
        "index": 1
      }
    },
    {
      "type": "Feature",
      "geometry": {
        "type": "Polygon",
        "coordinates": [
          [
            [
              -75.417895,
              39.740612
            ],
            [
              -75.418169,
              39.735543
            ],
            [
              -75.413225,
              39.735121
            ],
            [
              -75.412951,
              39.74019
            ],
            [
              -75.417895,
              39.740612
            ]
          ]
        ]
      },
      "properties": {
        "account": "kimberly-clark",
        "name": "K-C Logan Township Distribution Center - Logan Township NJ",
        "type": "Distribution center (~600,000 sq ft, LEED-certified)",
        "archetype": "#3",
        "archetypeName": "No Gate / No GS",
        "confidence": "medium",
        "zone": "dockApron",
        "index": 1
      }
    },
    {
      "type": "Feature",
      "geometry": {
        "type": "Polygon",
        "coordinates": [
          [
            [
              -81.849473,
              33.626337
            ],
            [
              -81.850022,
              33.625194
            ],
            [
              -81.850297,
              33.623593
            ],
            [
              -81.848099,
              33.62222
            ],
            [
              -81.846177,
              33.623478
            ],
            [
              -81.846726,
              33.626108
            ],
            [
              -81.849473,
              33.626337
            ]
          ]
        ]
      },
      "properties": {
        "account": "kimberly-clark",
        "name": "K-C Graniteville Distribution Center - Graniteville SC",
        "type": "Distribution center",
        "archetype": "#10",
        "archetypeName": "Ship/Rcv Separate (Gate+GS)",
        "confidence": "high",
        "zone": "perimeter",
        "truckGate": true,
        "guardShack": true,
        "remoteGs": false,
        "fastLaneOpportunity": false,
        "backupSensitive": false,
        "dropYard": true,
        "multipleFacilities": false,
        "scale": false,
        "shipRcvSeparate": true,
        "urbanRural": "Rural",
        "dockDoors": "50+",
        "dropArea": "25-50",
        "yardMetrics": {
          "dockDoorCount": 120,
          "trailersVisible": 55,
          "trailerParkingCapacity": 70,
          "truckGateCount": 1,
          "buildingCount": 1,
          "siteAreaAcres": 30.1,
          "railServed": false
        }
      }
    },
    {
      "type": "Feature",
      "geometry": {
        "type": "Polygon",
        "coordinates": [
          [
            [
              -81.849473,
              33.622678
            ],
            [
              -81.849473,
              33.622106
            ],
            [
              -81.848649,
              33.622106
            ],
            [
              -81.848649,
              33.622678
            ],
            [
              -81.849473,
              33.622678
            ]
          ]
        ]
      },
      "properties": {
        "account": "kimberly-clark",
        "name": "K-C Graniteville Distribution Center - Graniteville SC",
        "type": "Distribution center",
        "archetype": "#10",
        "archetypeName": "Ship/Rcv Separate (Gate+GS)",
        "confidence": "high",
        "zone": "truckGate"
      }
    },
    {
      "type": "Feature",
      "geometry": {
        "type": "Polygon",
        "coordinates": [
          [
            [
              -81.849747,
              33.625651
            ],
            [
              -81.850022,
              33.623364
            ],
            [
              -81.847275,
              33.623135
            ],
            [
              -81.847001,
              33.625422
            ],
            [
              -81.849747,
              33.625651
            ]
          ]
        ]
      },
      "properties": {
        "account": "kimberly-clark",
        "name": "K-C Graniteville Distribution Center - Graniteville SC",
        "type": "Distribution center",
        "archetype": "#10",
        "archetypeName": "Ship/Rcv Separate (Gate+GS)",
        "confidence": "high",
        "zone": "dockApron",
        "index": 1
      }
    },
    {
      "type": "Feature",
      "geometry": {
        "type": "Polygon",
        "coordinates": [
          [
            [
              -122.641571,
              47.115043
            ],
            [
              -122.641571,
              47.109248
            ],
            [
              -122.636901,
              47.109248
            ],
            [
              -122.636901,
              47.115043
            ],
            [
              -122.641571,
              47.115043
            ]
          ]
        ]
      },
      "properties": {
        "account": "kimberly-clark",
        "name": "K-C DuPont Distribution Center (KCDC) - DuPont WA",
        "type": "Distribution center",
        "archetype": "#10",
        "archetypeName": "Ship/Rcv Separate (Gate+GS)",
        "confidence": "high",
        "zone": "perimeter",
        "truckGate": true,
        "guardShack": true,
        "remoteGs": false,
        "fastLaneOpportunity": true,
        "backupSensitive": false,
        "dropYard": true,
        "multipleFacilities": false,
        "scale": false,
        "shipRcvSeparate": true,
        "urbanRural": "Rural",
        "dockDoors": "50+",
        "dropArea": "50+",
        "yardMetrics": {
          "dockDoorCount": 130,
          "trailersVisible": 90,
          "trailerParkingCapacity": 130,
          "truckGateCount": 1,
          "buildingCount": 1,
          "siteAreaAcres": 54,
          "railServed": false
        }
      }
    },
    {
      "type": "Feature",
      "geometry": {
        "type": "Polygon",
        "coordinates": [
          [
            [
              -122.641571,
              47.110183
            ],
            [
              -122.641571,
              47.109716
            ],
            [
              -122.640747,
              47.109716
            ],
            [
              -122.640747,
              47.110183
            ],
            [
              -122.641571,
              47.110183
            ]
          ]
        ]
      },
      "properties": {
        "account": "kimberly-clark",
        "name": "K-C DuPont Distribution Center (KCDC) - DuPont WA",
        "type": "Distribution center",
        "archetype": "#10",
        "archetypeName": "Ship/Rcv Separate (Gate+GS)",
        "confidence": "high",
        "zone": "truckGate"
      }
    },
    {
      "type": "Feature",
      "geometry": {
        "type": "Polygon",
        "coordinates": [
          [
            [
              -122.641296,
              47.114669
            ],
            [
              -122.641296,
              47.109435
            ],
            [
              -122.640472,
              47.109435
            ],
            [
              -122.640472,
              47.114669
            ],
            [
              -122.641296,
              47.114669
            ]
          ]
        ]
      },
      "properties": {
        "account": "kimberly-clark",
        "name": "K-C DuPont Distribution Center (KCDC) - DuPont WA",
        "type": "Distribution center",
        "archetype": "#10",
        "archetypeName": "Ship/Rcv Separate (Gate+GS)",
        "confidence": "high",
        "zone": "dockApron",
        "index": 1
      }
    },
    {
      "type": "Feature",
      "geometry": {
        "type": "Polygon",
        "coordinates": [
          [
            [
              -122.638,
              47.114669
            ],
            [
              -122.638,
              47.109435
            ],
            [
              -122.637176,
              47.109435
            ],
            [
              -122.637176,
              47.114669
            ],
            [
              -122.638,
              47.114669
            ]
          ]
        ]
      },
      "properties": {
        "account": "kimberly-clark",
        "name": "K-C DuPont Distribution Center (KCDC) - DuPont WA",
        "type": "Distribution center",
        "archetype": "#10",
        "archetypeName": "Ship/Rcv Separate (Gate+GS)",
        "confidence": "high",
        "zone": "dockApron",
        "index": 2
      }
    }
  ]
}
