{
  "type": "FeatureCollection",
  "features": [
    {
      "type": "Feature",
      "geometry": {
        "type": "Polygon",
        "coordinates": [
          [
            [
              -85.77455,
              40.00045
            ],
            [
              -85.7746,
              39.99685
            ],
            [
              -85.771,
              39.9962
            ],
            [
              -85.7708,
              39.9995
            ],
            [
              -85.77095,
              40.00065
            ],
            [
              -85.77455,
              40.00045
            ]
          ]
        ]
      },
      "properties": {
        "account": "tractor-supply",
        "name": "Tractor Supply Distribution Center Pendleton IN",
        "type": "Distribution Center",
        "archetype": "#9",
        "archetypeName": "Gate + No GS (remote check-in)",
        "confidence": "high",
        "zone": "perimeter",
        "truckGate": true,
        "guardShack": false,
        "remoteGs": true,
        "fastLaneOpportunity": true,
        "backupSensitive": false,
        "dropYard": true,
        "multipleFacilities": false,
        "scale": false,
        "shipRcvSeparate": true,
        "urbanRural": "Rural",
        "dockDoors": "50+",
        "dropArea": "50+",
        "yardMetrics": {
          "dockDoorCount": 180,
          "trailersVisible": 240,
          "trailerParkingCapacity": 320,
          "truckGateCount": 1,
          "buildingCount": 1,
          "siteAreaAcres": 34.9,
          "railServed": false
        }
      }
    },
    {
      "type": "Feature",
      "geometry": {
        "type": "Polygon",
        "coordinates": [
          [
            [
              -85.77135,
              39.99995
            ],
            [
              -85.7712,
              39.99945
            ],
            [
              -85.7708,
              39.99955
            ],
            [
              -85.77095,
              40.00005
            ],
            [
              -85.77135,
              39.99995
            ]
          ]
        ]
      },
      "properties": {
        "account": "tractor-supply",
        "name": "Tractor Supply Distribution Center Pendleton IN",
        "type": "Distribution Center",
        "archetype": "#9",
        "archetypeName": "Gate + No GS (remote check-in)",
        "confidence": "high",
        "zone": "truckGate"
      }
    },
    {
      "type": "Feature",
      "geometry": {
        "type": "Polygon",
        "coordinates": [
          [
            [
              -85.7714,
              39.9994
            ],
            [
              -85.7716,
              39.99635
            ],
            [
              -85.77105,
              39.9963
            ],
            [
              -85.77085,
              39.99935
            ],
            [
              -85.7714,
              39.9994
            ]
          ]
        ]
      },
      "properties": {
        "account": "tractor-supply",
        "name": "Tractor Supply Distribution Center Pendleton IN",
        "type": "Distribution Center",
        "archetype": "#9",
        "archetypeName": "Gate + No GS (remote check-in)",
        "confidence": "high",
        "zone": "dropYard",
        "index": 1
      }
    },
    {
      "type": "Feature",
      "geometry": {
        "type": "Polygon",
        "coordinates": [
          [
            [
              -85.77445,
              39.9972
            ],
            [
              -85.77445,
              39.9969
            ],
            [
              -85.7717,
              39.9969
            ],
            [
              -85.7717,
              39.9972
            ],
            [
              -85.77445,
              39.9972
            ]
          ]
        ]
      },
      "properties": {
        "account": "tractor-supply",
        "name": "Tractor Supply Distribution Center Pendleton IN",
        "type": "Distribution Center",
        "archetype": "#9",
        "archetypeName": "Gate + No GS (remote check-in)",
        "confidence": "high",
        "zone": "dropYard",
        "index": 2
      }
    },
    {
      "type": "Feature",
      "geometry": {
        "type": "Polygon",
        "coordinates": [
          [
            [
              -85.77455,
              40.00015
            ],
            [
              -85.7744,
              39.9971
            ],
            [
              -85.77405,
              39.9971
            ],
            [
              -85.7742,
              40.00015
            ],
            [
              -85.77455,
              40.00015
            ]
          ]
        ]
      },
      "properties": {
        "account": "tractor-supply",
        "name": "Tractor Supply Distribution Center Pendleton IN",
        "type": "Distribution Center",
        "archetype": "#9",
        "archetypeName": "Gate + No GS (remote check-in)",
        "confidence": "high",
        "zone": "dockApron",
        "index": 1
      }
    },
    {
      "type": "Feature",
      "geometry": {
        "type": "Polygon",
        "coordinates": [
          [
            [
              -85.7743,
              39.997
            ],
            [
              -85.7743,
              39.9968
            ],
            [
              -85.7713,
              39.9968
            ],
            [
              -85.7713,
              39.997
            ],
            [
              -85.7743,
              39.997
            ]
          ]
        ]
      },
      "properties": {
        "account": "tractor-supply",
        "name": "Tractor Supply Distribution Center Pendleton IN",
        "type": "Distribution Center",
        "archetype": "#9",
        "archetypeName": "Gate + No GS (remote check-in)",
        "confidence": "high",
        "zone": "dockApron",
        "index": 2
      }
    },
    {
      "type": "Feature",
      "geometry": {
        "type": "Polygon",
        "coordinates": [
          [
            [
              -85.77145,
              39.9994
            ],
            [
              -85.77175,
              39.9994
            ],
            [
              -85.77185,
              39.9972
            ],
            [
              -85.77155,
              39.9972
            ],
            [
              -85.77145,
              39.9994
            ]
          ]
        ]
      },
      "properties": {
        "account": "tractor-supply",
        "name": "Tractor Supply Distribution Center Pendleton IN",
        "type": "Distribution Center",
        "archetype": "#9",
        "archetypeName": "Gate + No GS (remote check-in)",
        "confidence": "high",
        "zone": "dockApron",
        "index": 3
      }
    },
    {
      "type": "Feature",
      "geometry": {
        "type": "Polygon",
        "coordinates": [
          [
            [
              -85.77135,
              40.0001
            ],
            [
              -85.7713,
              39.9999
            ],
            [
              -85.7708,
              39.99998
            ],
            [
              -85.77085,
              40.0002
            ],
            [
              -85.77135,
              40.0001
            ]
          ]
        ]
      },
      "properties": {
        "account": "tractor-supply",
        "name": "Tractor Supply Distribution Center Pendleton IN",
        "type": "Distribution Center",
        "archetype": "#9",
        "archetypeName": "Gate + No GS (remote check-in)",
        "confidence": "high",
        "zone": "staging"
      }
    },
    {
      "type": "Feature",
      "geometry": {
        "type": "Polygon",
        "coordinates": [
          [
            [
              -97.160618,
              31.488336
            ],
            [
              -97.163408,
              31.486232
            ],
            [
              -97.163483,
              31.485518
            ],
            [
              -97.162174,
              31.484603
            ],
            [
              -97.158741,
              31.485152
            ],
            [
              -97.157936,
              31.485774
            ],
            [
              -97.158655,
              31.486433
            ],
            [
              -97.160618,
              31.488336
            ]
          ]
        ]
      },
      "properties": {
        "account": "tractor-supply",
        "name": "Tractor Supply Distribution Center Waco TX",
        "type": "Distribution Center",
        "archetype": "#10",
        "archetypeName": "Ship/Rcv Separate (Gate+GS)",
        "confidence": "high",
        "zone": "perimeter",
        "truckGate": true,
        "guardShack": true,
        "remoteGs": false,
        "fastLaneOpportunity": false,
        "backupSensitive": false,
        "dropYard": true,
        "multipleFacilities": false,
        "scale": false,
        "shipRcvSeparate": true,
        "urbanRural": "Rural",
        "dockDoors": "50+",
        "dropArea": "50+",
        "yardMetrics": {
          "dockDoorCount": 110,
          "trailersVisible": 220,
          "trailerParkingCapacity": 180,
          "truckGateCount": 1,
          "buildingCount": 1,
          "siteAreaAcres": 31,
          "railServed": true
        }
      }
    },
    {
      "type": "Feature",
      "geometry": {
        "type": "Polygon",
        "coordinates": [
          [
            [
              -97.158934,
              31.48657
            ],
            [
              -97.159041,
              31.486332
            ],
            [
              -97.158676,
              31.486195
            ],
            [
              -97.158569,
              31.486433
            ],
            [
              -97.158934,
              31.48657
            ]
          ]
        ]
      },
      "properties": {
        "account": "tractor-supply",
        "name": "Tractor Supply Distribution Center Waco TX",
        "type": "Distribution Center",
        "archetype": "#10",
        "archetypeName": "Ship/Rcv Separate (Gate+GS)",
        "confidence": "high",
        "zone": "truckGate"
      }
    },
    {
      "type": "Feature",
      "geometry": {
        "type": "Polygon",
        "coordinates": [
          [
            [
              -97.163354,
              31.48614
            ],
            [
              -97.163461,
              31.4855
            ],
            [
              -97.162174,
              31.484621
            ],
            [
              -97.160565,
              31.484878
            ],
            [
              -97.160243,
              31.48593
            ],
            [
              -97.163354,
              31.48614
            ]
          ]
        ]
      },
      "properties": {
        "account": "tractor-supply",
        "name": "Tractor Supply Distribution Center Waco TX",
        "type": "Distribution Center",
        "archetype": "#10",
        "archetypeName": "Ship/Rcv Separate (Gate+GS)",
        "confidence": "high",
        "zone": "dropYard",
        "index": 1
      }
    },
    {
      "type": "Feature",
      "geometry": {
        "type": "Polygon",
        "coordinates": [
          [
            [
              -97.161015,
              31.48808
            ],
            [
              -97.158955,
              31.486433
            ],
            [
              -97.158741,
              31.48657
            ],
            [
              -97.160565,
              31.488098
            ],
            [
              -97.161015,
              31.48808
            ]
          ]
        ]
      },
      "properties": {
        "account": "tractor-supply",
        "name": "Tractor Supply Distribution Center Waco TX",
        "type": "Distribution Center",
        "archetype": "#10",
        "archetypeName": "Ship/Rcv Separate (Gate+GS)",
        "confidence": "high",
        "zone": "dockApron",
        "index": 1
      }
    },
    {
      "type": "Feature",
      "geometry": {
        "type": "Polygon",
        "coordinates": [
          [
            [
              -97.16271,
              31.486433
            ],
            [
              -97.162764,
              31.486177
            ],
            [
              -97.160028,
              31.485866
            ],
            [
              -97.159974,
              31.486113
            ],
            [
              -97.16271,
              31.486433
            ]
          ]
        ]
      },
      "properties": {
        "account": "tractor-supply",
        "name": "Tractor Supply Distribution Center Waco TX",
        "type": "Distribution Center",
        "archetype": "#10",
        "archetypeName": "Ship/Rcv Separate (Gate+GS)",
        "confidence": "high",
        "zone": "dockApron",
        "index": 2
      }
    },
    {
      "type": "Feature",
      "geometry": {
        "type": "Polygon",
        "coordinates": [
          [
            [
              -97.159277,
              31.486433
            ],
            [
              -97.159406,
              31.48614
            ],
            [
              -97.159063,
              31.486021
            ],
            [
              -97.158934,
              31.486341
            ],
            [
              -97.159277,
              31.486433
            ]
          ]
        ]
      },
      "properties": {
        "account": "tractor-supply",
        "name": "Tractor Supply Distribution Center Waco TX",
        "type": "Distribution Center",
        "archetype": "#10",
        "archetypeName": "Ship/Rcv Separate (Gate+GS)",
        "confidence": "high",
        "zone": "staging"
      }
    },
    {
      "type": "Feature",
      "geometry": {
        "type": "Polygon",
        "coordinates": [
          [
            [
              -83.7314,
              32.7286
            ],
            [
              -83.73385,
              32.7282
            ],
            [
              -83.73575,
              32.7257
            ],
            [
              -83.7352,
              32.724
            ],
            [
              -83.7323,
              32.72345
            ],
            [
              -83.72985,
              32.7238
            ],
            [
              -83.7296,
              32.727
            ],
            [
              -83.72995,
              32.7284
            ],
            [
              -83.7314,
              32.7286
            ]
          ]
        ]
      },
      "properties": {
        "account": "tractor-supply",
        "name": "Tractor Supply Distribution Center Macon GA",
        "type": "Distribution Center",
        "archetype": "#10",
        "archetypeName": "Ship/Rcv Separate (Gate+GS)",
        "confidence": "high",
        "zone": "perimeter",
        "truckGate": true,
        "guardShack": true,
        "remoteGs": false,
        "fastLaneOpportunity": true,
        "backupSensitive": false,
        "dropYard": true,
        "multipleFacilities": false,
        "scale": true,
        "shipRcvSeparate": true,
        "urbanRural": "Rural",
        "dockDoors": "50+",
        "dropArea": "50+",
        "yardMetrics": {
          "dockDoorCount": 110,
          "trailersVisible": 230,
          "trailerParkingCapacity": 320,
          "truckGateCount": 1,
          "buildingCount": 1,
          "siteAreaAcres": 64.7,
          "railServed": false
        }
      }
    },
    {
      "type": "Feature",
      "geometry": {
        "type": "Polygon",
        "coordinates": [
          [
            [
              -83.7304,
              32.72846
            ],
            [
              -83.73048,
              32.728
            ],
            [
              -83.73003,
              32.72792
            ],
            [
              -83.72995,
              32.72838
            ],
            [
              -83.7304,
              32.72846
            ]
          ]
        ]
      },
      "properties": {
        "account": "tractor-supply",
        "name": "Tractor Supply Distribution Center Macon GA",
        "type": "Distribution Center",
        "archetype": "#10",
        "archetypeName": "Ship/Rcv Separate (Gate+GS)",
        "confidence": "high",
        "zone": "truckGate"
      }
    },
    {
      "type": "Feature",
      "geometry": {
        "type": "Polygon",
        "coordinates": [
          [
            [
              -83.7343,
              32.7276
            ],
            [
              -83.7352,
              32.7263
            ],
            [
              -83.7337,
              32.7256
            ],
            [
              -83.7328,
              32.7269
            ],
            [
              -83.7343,
              32.7276
            ]
          ]
        ]
      },
      "properties": {
        "account": "tractor-supply",
        "name": "Tractor Supply Distribution Center Macon GA",
        "type": "Distribution Center",
        "archetype": "#10",
        "archetypeName": "Ship/Rcv Separate (Gate+GS)",
        "confidence": "high",
        "zone": "dropYard",
        "index": 1
      }
    },
    {
      "type": "Feature",
      "geometry": {
        "type": "Polygon",
        "coordinates": [
          [
            [
              -83.7351,
              32.7256
            ],
            [
              -83.7356,
              32.72475
            ],
            [
              -83.7344,
              32.7242
            ],
            [
              -83.73385,
              32.725
            ],
            [
              -83.7351,
              32.7256
            ]
          ]
        ]
      },
      "properties": {
        "account": "tractor-supply",
        "name": "Tractor Supply Distribution Center Macon GA",
        "type": "Distribution Center",
        "archetype": "#10",
        "archetypeName": "Ship/Rcv Separate (Gate+GS)",
        "confidence": "high",
        "zone": "dropYard",
        "index": 2
      }
    },
    {
      "type": "Feature",
      "geometry": {
        "type": "Polygon",
        "coordinates": [
          [
            [
              -83.73175,
              32.72685
            ],
            [
              -83.7319,
              32.72665
            ],
            [
              -83.73055,
              32.726
            ],
            [
              -83.7304,
              32.7262
            ],
            [
              -83.73175,
              32.72685
            ]
          ]
        ]
      },
      "properties": {
        "account": "tractor-supply",
        "name": "Tractor Supply Distribution Center Macon GA",
        "type": "Distribution Center",
        "archetype": "#10",
        "archetypeName": "Ship/Rcv Separate (Gate+GS)",
        "confidence": "high",
        "zone": "dockApron",
        "index": 1
      }
    },
    {
      "type": "Feature",
      "geometry": {
        "type": "Polygon",
        "coordinates": [
          [
            [
              -83.7343,
              32.7247
            ],
            [
              -83.73445,
              32.7245
            ],
            [
              -83.73315,
              32.72385
            ],
            [
              -83.733,
              32.72405
            ],
            [
              -83.7343,
              32.7247
            ]
          ]
        ]
      },
      "properties": {
        "account": "tractor-supply",
        "name": "Tractor Supply Distribution Center Macon GA",
        "type": "Distribution Center",
        "archetype": "#10",
        "archetypeName": "Ship/Rcv Separate (Gate+GS)",
        "confidence": "high",
        "zone": "dockApron",
        "index": 2
      }
    },
    {
      "type": "Feature",
      "geometry": {
        "type": "Polygon",
        "coordinates": [
          [
            [
              -83.7313,
              32.7279
            ],
            [
              -83.7314,
              32.7275
            ],
            [
              -83.73065,
              32.72735
            ],
            [
              -83.73055,
              32.72775
            ],
            [
              -83.7313,
              32.7279
            ]
          ]
        ]
      },
      "properties": {
        "account": "tractor-supply",
        "name": "Tractor Supply Distribution Center Macon GA",
        "type": "Distribution Center",
        "archetype": "#10",
        "archetypeName": "Ship/Rcv Separate (Gate+GS)",
        "confidence": "high",
        "zone": "staging"
      }
    },
    {
      "type": "Feature",
      "geometry": {
        "type": "Polygon",
        "coordinates": [
          [
            [
              -111.791135,
              32.864343
            ],
            [
              -111.79105,
              32.8589
            ],
            [
              -111.78635,
              32.8589
            ],
            [
              -111.78635,
              32.86406
            ],
            [
              -111.791135,
              32.864343
            ]
          ]
        ]
      },
      "properties": {
        "account": "tractor-supply",
        "name": "Tractor Supply Distribution Center Casa Grande AZ",
        "type": "Distribution Center",
        "archetype": "#10",
        "archetypeName": "Ship/Rcv Separate (Gate+GS)",
        "confidence": "high",
        "zone": "perimeter",
        "truckGate": true,
        "guardShack": true,
        "remoteGs": false,
        "fastLaneOpportunity": true,
        "backupSensitive": false,
        "dropYard": true,
        "multipleFacilities": false,
        "scale": false,
        "shipRcvSeparate": true,
        "urbanRural": "Rural",
        "dockDoors": "50+",
        "dropArea": "50+",
        "yardMetrics": {
          "dockDoorCount": 90,
          "trailersVisible": 140,
          "trailerParkingCapacity": 220,
          "truckGateCount": 1,
          "buildingCount": 2,
          "siteAreaAcres": 64.7,
          "railServed": false
        }
      }
    },
    {
      "type": "Feature",
      "geometry": {
        "type": "Polygon",
        "coordinates": [
          [
            [
              -111.78808,
              32.864043
            ],
            [
              -111.78808,
              32.863368
            ],
            [
              -111.78749,
              32.863368
            ],
            [
              -111.78749,
              32.864043
            ],
            [
              -111.78808,
              32.864043
            ]
          ]
        ]
      },
      "properties": {
        "account": "tractor-supply",
        "name": "Tractor Supply Distribution Center Casa Grande AZ",
        "type": "Distribution Center",
        "archetype": "#10",
        "archetypeName": "Ship/Rcv Separate (Gate+GS)",
        "confidence": "high",
        "zone": "truckGate"
      }
    },
    {
      "type": "Feature",
      "geometry": {
        "type": "Polygon",
        "coordinates": [
          [
            [
              -111.79076,
              32.86305
            ],
            [
              -111.79076,
              32.85915
            ],
            [
              -111.79018,
              32.85915
            ],
            [
              -111.79018,
              32.86305
            ],
            [
              -111.79076,
              32.86305
            ]
          ]
        ]
      },
      "properties": {
        "account": "tractor-supply",
        "name": "Tractor Supply Distribution Center Casa Grande AZ",
        "type": "Distribution Center",
        "archetype": "#10",
        "archetypeName": "Ship/Rcv Separate (Gate+GS)",
        "confidence": "high",
        "zone": "dropYard",
        "index": 1
      }
    },
    {
      "type": "Feature",
      "geometry": {
        "type": "Polygon",
        "coordinates": [
          [
            [
              -111.7879,
              32.8634
            ],
            [
              -111.7879,
              32.8601
            ],
            [
              -111.78715,
              32.8601
            ],
            [
              -111.78715,
              32.8634
            ],
            [
              -111.7879,
              32.8634
            ]
          ]
        ]
      },
      "properties": {
        "account": "tractor-supply",
        "name": "Tractor Supply Distribution Center Casa Grande AZ",
        "type": "Distribution Center",
        "archetype": "#10",
        "archetypeName": "Ship/Rcv Separate (Gate+GS)",
        "confidence": "high",
        "zone": "dropYard",
        "index": 2
      }
    },
    {
      "type": "Feature",
      "geometry": {
        "type": "Polygon",
        "coordinates": [
          [
            [
              -111.79004,
              32.8636
            ],
            [
              -111.79004,
              32.85995
            ],
            [
              -111.78976,
              32.85995
            ],
            [
              -111.78976,
              32.8636
            ],
            [
              -111.79004,
              32.8636
            ]
          ]
        ]
      },
      "properties": {
        "account": "tractor-supply",
        "name": "Tractor Supply Distribution Center Casa Grande AZ",
        "type": "Distribution Center",
        "archetype": "#10",
        "archetypeName": "Ship/Rcv Separate (Gate+GS)",
        "confidence": "high",
        "zone": "dockApron",
        "index": 1
      }
    },
    {
      "type": "Feature",
      "geometry": {
        "type": "Polygon",
        "coordinates": [
          [
            [
              -111.78813,
              32.8636
            ],
            [
              -111.78813,
              32.8601
            ],
            [
              -111.78785,
              32.8601
            ],
            [
              -111.78785,
              32.8636
            ],
            [
              -111.78813,
              32.8636
            ]
          ]
        ]
      },
      "properties": {
        "account": "tractor-supply",
        "name": "Tractor Supply Distribution Center Casa Grande AZ",
        "type": "Distribution Center",
        "archetype": "#10",
        "archetypeName": "Ship/Rcv Separate (Gate+GS)",
        "confidence": "high",
        "zone": "dockApron",
        "index": 2
      }
    },
    {
      "type": "Feature",
      "geometry": {
        "type": "Polygon",
        "coordinates": [
          [
            [
              -111.7884,
              32.86406
            ],
            [
              -111.7884,
              32.86355
            ],
            [
              -111.78715,
              32.86355
            ],
            [
              -111.78715,
              32.86406
            ],
            [
              -111.7884,
              32.86406
            ]
          ]
        ]
      },
      "properties": {
        "account": "tractor-supply",
        "name": "Tractor Supply Distribution Center Casa Grande AZ",
        "type": "Distribution Center",
        "archetype": "#10",
        "archetypeName": "Ship/Rcv Separate (Gate+GS)",
        "confidence": "high",
        "zone": "staging"
      }
    },
    {
      "type": "Feature",
      "geometry": {
        "type": "Polygon",
        "coordinates": [
          [
            [
              -86.5156,
              36.7108
            ],
            [
              -86.5166,
              36.7079
            ],
            [
              -86.5165,
              36.7047
            ],
            [
              -86.5133,
              36.7043
            ],
            [
              -86.5115,
              36.7045
            ],
            [
              -86.5111,
              36.7097
            ],
            [
              -86.5119,
              36.7109
            ],
            [
              -86.5156,
              36.7108
            ]
          ]
        ]
      },
      "properties": {
        "account": "tractor-supply",
        "name": "Tractor Supply Distribution Center Franklin KY",
        "type": "Distribution Center",
        "archetype": "#10",
        "archetypeName": "Ship/Rcv Separate (Gate+GS)",
        "confidence": "high",
        "zone": "perimeter",
        "truckGate": true,
        "guardShack": true,
        "remoteGs": false,
        "fastLaneOpportunity": true,
        "backupSensitive": false,
        "dropYard": true,
        "multipleFacilities": false,
        "scale": false,
        "shipRcvSeparate": true,
        "urbanRural": "Rural",
        "dockDoors": "50+",
        "dropArea": "50+",
        "yardMetrics": {
          "dockDoorCount": 120,
          "trailersVisible": 140,
          "trailerParkingCapacity": 220,
          "truckGateCount": 1,
          "buildingCount": 1,
          "siteAreaAcres": 78.4,
          "railServed": false
        }
      }
    },
    {
      "type": "Feature",
      "geometry": {
        "type": "Polygon",
        "coordinates": [
          [
            [
              -86.5133,
              36.71065
            ],
            [
              -86.5133,
              36.71025
            ],
            [
              -86.51275,
              36.71025
            ],
            [
              -86.51275,
              36.71065
            ],
            [
              -86.5133,
              36.71065
            ]
          ]
        ]
      },
      "properties": {
        "account": "tractor-supply",
        "name": "Tractor Supply Distribution Center Franklin KY",
        "type": "Distribution Center",
        "archetype": "#10",
        "archetypeName": "Ship/Rcv Separate (Gate+GS)",
        "confidence": "high",
        "zone": "truckGate"
      }
    },
    {
      "type": "Feature",
      "geometry": {
        "type": "Polygon",
        "coordinates": [
          [
            [
              -86.5159,
              36.7093
            ],
            [
              -86.5164,
              36.7052
            ],
            [
              -86.5156,
              36.7051
            ],
            [
              -86.5151,
              36.7092
            ],
            [
              -86.5159,
              36.7093
            ]
          ]
        ]
      },
      "properties": {
        "account": "tractor-supply",
        "name": "Tractor Supply Distribution Center Franklin KY",
        "type": "Distribution Center",
        "archetype": "#10",
        "archetypeName": "Ship/Rcv Separate (Gate+GS)",
        "confidence": "high",
        "zone": "dropYard",
        "index": 1
      }
    },
    {
      "type": "Feature",
      "geometry": {
        "type": "Polygon",
        "coordinates": [
          [
            [
              -86.5154,
              36.7051
            ],
            [
              -86.515,
              36.7044
            ],
            [
              -86.5128,
              36.7045
            ],
            [
              -86.5133,
              36.7051
            ],
            [
              -86.5154,
              36.7051
            ]
          ]
        ]
      },
      "properties": {
        "account": "tractor-supply",
        "name": "Tractor Supply Distribution Center Franklin KY",
        "type": "Distribution Center",
        "archetype": "#10",
        "archetypeName": "Ship/Rcv Separate (Gate+GS)",
        "confidence": "high",
        "zone": "dropYard",
        "index": 2
      }
    },
    {
      "type": "Feature",
      "geometry": {
        "type": "Polygon",
        "coordinates": [
          [
            [
              -86.5126,
              36.7088
            ],
            [
              -86.5133,
              36.7052
            ],
            [
              -86.512,
              36.7051
            ],
            [
              -86.5116,
              36.7087
            ],
            [
              -86.5126,
              36.7088
            ]
          ]
        ]
      },
      "properties": {
        "account": "tractor-supply",
        "name": "Tractor Supply Distribution Center Franklin KY",
        "type": "Distribution Center",
        "archetype": "#10",
        "archetypeName": "Ship/Rcv Separate (Gate+GS)",
        "confidence": "high",
        "zone": "dropYard",
        "index": 3
      }
    },
    {
      "type": "Feature",
      "geometry": {
        "type": "Polygon",
        "coordinates": [
          [
            [
              -86.5149,
              36.7095
            ],
            [
              -86.5155,
              36.7052
            ],
            [
              -86.5149,
              36.705
            ],
            [
              -86.5143,
              36.7093
            ],
            [
              -86.5149,
              36.7095
            ]
          ]
        ]
      },
      "properties": {
        "account": "tractor-supply",
        "name": "Tractor Supply Distribution Center Franklin KY",
        "type": "Distribution Center",
        "archetype": "#10",
        "archetypeName": "Ship/Rcv Separate (Gate+GS)",
        "confidence": "high",
        "zone": "dockApron",
        "index": 1
      }
    },
    {
      "type": "Feature",
      "geometry": {
        "type": "Polygon",
        "coordinates": [
          [
            [
              -86.5127,
              36.7091
            ],
            [
              -86.5133,
              36.70895
            ],
            [
              -86.5141,
              36.70485
            ],
            [
              -86.5135,
              36.705
            ],
            [
              -86.5127,
              36.7091
            ]
          ]
        ]
      },
      "properties": {
        "account": "tractor-supply",
        "name": "Tractor Supply Distribution Center Franklin KY",
        "type": "Distribution Center",
        "archetype": "#10",
        "archetypeName": "Ship/Rcv Separate (Gate+GS)",
        "confidence": "high",
        "zone": "dockApron",
        "index": 2
      }
    },
    {
      "type": "Feature",
      "geometry": {
        "type": "Polygon",
        "coordinates": [
          [
            [
              -86.5142,
              36.7099
            ],
            [
              -86.5142,
              36.7094
            ],
            [
              -86.5125,
              36.7094
            ],
            [
              -86.5125,
              36.7099
            ],
            [
              -86.5142,
              36.7099
            ]
          ]
        ]
      },
      "properties": {
        "account": "tractor-supply",
        "name": "Tractor Supply Distribution Center Franklin KY",
        "type": "Distribution Center",
        "archetype": "#10",
        "archetypeName": "Ship/Rcv Separate (Gate+GS)",
        "confidence": "high",
        "zone": "staging"
      }
    },
    {
      "type": "Feature",
      "geometry": {
        "type": "Polygon",
        "coordinates": [
          [
            [
              -77.76755,
              39.64205
            ],
            [
              -77.7696,
              39.6414
            ],
            [
              -77.7711,
              39.6393
            ],
            [
              -77.7707,
              39.6376
            ],
            [
              -77.7679,
              39.6377
            ],
            [
              -77.766,
              39.6384
            ],
            [
              -77.7652,
              39.6412
            ],
            [
              -77.76755,
              39.64205
            ]
          ]
        ]
      },
      "properties": {
        "account": "tractor-supply",
        "name": "Tractor Supply Distribution Center Hagerstown MD",
        "type": "Distribution Center",
        "archetype": "#3",
        "archetypeName": "No Gate / No GS",
        "confidence": "high",
        "zone": "perimeter",
        "truckGate": false,
        "guardShack": false,
        "remoteGs": false,
        "fastLaneOpportunity": true,
        "backupSensitive": false,
        "dropYard": true,
        "multipleFacilities": false,
        "scale": false,
        "shipRcvSeparate": true,
        "urbanRural": "Rural",
        "dockDoors": "50+",
        "dropArea": "50+",
        "yardMetrics": {
          "dockDoorCount": 120,
          "trailersVisible": 220,
          "trailerParkingCapacity": 260,
          "truckGateCount": 1,
          "buildingCount": 2,
          "siteAreaAcres": 44.7,
          "railServed": false
        }
      }
    },
    {
      "type": "Feature",
      "geometry": {
        "type": "Polygon",
        "coordinates": [
          [
            [
              -77.77075,
              39.63905
            ],
            [
              -77.77095,
              39.63871
            ],
            [
              -77.77055,
              39.63858
            ],
            [
              -77.77035,
              39.63892
            ],
            [
              -77.77075,
              39.63905
            ]
          ]
        ]
      },
      "properties": {
        "account": "tractor-supply",
        "name": "Tractor Supply Distribution Center Hagerstown MD",
        "type": "Distribution Center",
        "archetype": "#3",
        "archetypeName": "No Gate / No GS",
        "confidence": "high",
        "zone": "truckGate"
      }
    },
    {
      "type": "Feature",
      "geometry": {
        "type": "Polygon",
        "coordinates": [
          [
            [
              -77.76995,
              39.63905
            ],
            [
              -77.7703,
              39.63855
            ],
            [
              -77.7688,
              39.63792
            ],
            [
              -77.76845,
              39.63842
            ],
            [
              -77.76995,
              39.63905
            ]
          ]
        ]
      },
      "properties": {
        "account": "tractor-supply",
        "name": "Tractor Supply Distribution Center Hagerstown MD",
        "type": "Distribution Center",
        "archetype": "#3",
        "archetypeName": "No Gate / No GS",
        "confidence": "high",
        "zone": "dropYard",
        "index": 1
      }
    },
    {
      "type": "Feature",
      "geometry": {
        "type": "Polygon",
        "coordinates": [
          [
            [
              -77.76935,
              39.64135
            ],
            [
              -77.76965,
              39.64093
            ],
            [
              -77.7683,
              39.64038
            ],
            [
              -77.768,
              39.6408
            ],
            [
              -77.76935,
              39.64135
            ]
          ]
        ]
      },
      "properties": {
        "account": "tractor-supply",
        "name": "Tractor Supply Distribution Center Hagerstown MD",
        "type": "Distribution Center",
        "archetype": "#3",
        "archetypeName": "No Gate / No GS",
        "confidence": "high",
        "zone": "dropYard",
        "index": 2
      }
    },
    {
      "type": "Feature",
      "geometry": {
        "type": "Polygon",
        "coordinates": [
          [
            [
              -77.7677,
              39.6409
            ],
            [
              -77.768,
              39.64075
            ],
            [
              -77.767,
              39.6389
            ],
            [
              -77.7667,
              39.63905
            ],
            [
              -77.7677,
              39.6409
            ]
          ]
        ]
      },
      "properties": {
        "account": "tractor-supply",
        "name": "Tractor Supply Distribution Center Hagerstown MD",
        "type": "Distribution Center",
        "archetype": "#3",
        "archetypeName": "No Gate / No GS",
        "confidence": "high",
        "zone": "dockApron",
        "index": 1
      }
    },
    {
      "type": "Feature",
      "geometry": {
        "type": "Polygon",
        "coordinates": [
          [
            [
              -77.7666,
              39.6405
            ],
            [
              -77.76692,
              39.64037
            ],
            [
              -77.76622,
              39.63862
            ],
            [
              -77.7659,
              39.63875
            ],
            [
              -77.7666,
              39.6405
            ]
          ]
        ]
      },
      "properties": {
        "account": "tractor-supply",
        "name": "Tractor Supply Distribution Center Hagerstown MD",
        "type": "Distribution Center",
        "archetype": "#3",
        "archetypeName": "No Gate / No GS",
        "confidence": "high",
        "zone": "dockApron",
        "index": 2
      }
    },
    {
      "type": "Feature",
      "geometry": {
        "type": "Polygon",
        "coordinates": [
          [
            [
              -77.7701,
              39.6393
            ],
            [
              -77.77032,
              39.63893
            ],
            [
              -77.7697,
              39.63868
            ],
            [
              -77.76948,
              39.63905
            ],
            [
              -77.7701,
              39.6393
            ]
          ]
        ]
      },
      "properties": {
        "account": "tractor-supply",
        "name": "Tractor Supply Distribution Center Hagerstown MD",
        "type": "Distribution Center",
        "archetype": "#3",
        "archetypeName": "No Gate / No GS",
        "confidence": "high",
        "zone": "staging"
      }
    },
    {
      "type": "Feature",
      "geometry": {
        "type": "Polygon",
        "coordinates": [
          [
            [
              -75.091835,
              43.036809
            ],
            [
              -75.092247,
              43.034952
            ],
            [
              -75.088813,
              43.032844
            ],
            [
              -75.085243,
              43.03179
            ],
            [
              -75.084487,
              43.035002
            ],
            [
              -75.086204,
              43.036809
            ],
            [
              -75.088401,
              43.037963
            ],
            [
              -75.091835,
              43.036809
            ]
          ]
        ]
      },
      "properties": {
        "account": "tractor-supply",
        "name": "Tractor Supply Distribution Center Frankfort NY",
        "type": "Distribution Center",
        "archetype": "#10",
        "archetypeName": "Ship/Rcv Separate (Gate+GS)",
        "confidence": "high",
        "zone": "perimeter",
        "truckGate": true,
        "guardShack": true,
        "remoteGs": false,
        "fastLaneOpportunity": true,
        "backupSensitive": false,
        "dropYard": true,
        "multipleFacilities": false,
        "scale": false,
        "shipRcvSeparate": true,
        "urbanRural": "Rural",
        "dockDoors": "50+",
        "dropArea": "50+",
        "yardMetrics": {
          "dockDoorCount": 70,
          "trailersVisible": 95,
          "trailerParkingCapacity": 150,
          "truckGateCount": 1,
          "buildingCount": 2,
          "siteAreaAcres": 67,
          "railServed": false
        }
      }
    },
    {
      "type": "Feature",
      "geometry": {
        "type": "Polygon",
        "coordinates": [
          [
            [
              -75.089967,
              43.0368
            ],
            [
              -75.089899,
              43.036649
            ],
            [
              -75.089487,
              43.03675
            ],
            [
              -75.089555,
              43.0369
            ],
            [
              -75.089967,
              43.0368
            ]
          ]
        ]
      },
      "properties": {
        "account": "tractor-supply",
        "name": "Tractor Supply Distribution Center Frankfort NY",
        "type": "Distribution Center",
        "archetype": "#10",
        "archetypeName": "Ship/Rcv Separate (Gate+GS)",
        "confidence": "high",
        "zone": "truckGate"
      }
    },
    {
      "type": "Feature",
      "geometry": {
        "type": "Polygon",
        "coordinates": [
          [
            [
              -75.089487,
              43.036925
            ],
            [
              -75.089487,
              43.03675
            ],
            [
              -75.087255,
              43.037202
            ],
            [
              -75.087255,
              43.037377
            ],
            [
              -75.089487,
              43.036925
            ]
          ]
        ]
      },
      "properties": {
        "account": "tractor-supply",
        "name": "Tractor Supply Distribution Center Frankfort NY",
        "type": "Distribution Center",
        "archetype": "#10",
        "archetypeName": "Ship/Rcv Separate (Gate+GS)",
        "confidence": "high",
        "zone": "dropYard",
        "index": 1
      }
    },
    {
      "type": "Feature",
      "geometry": {
        "type": "Polygon",
        "coordinates": [
          [
            [
              -75.089045,
              43.033251
            ],
            [
              -75.089045,
              43.03305
            ],
            [
              -75.086745,
              43.032122
            ],
            [
              -75.086745,
              43.032322
            ],
            [
              -75.089045,
              43.033251
            ]
          ]
        ]
      },
      "properties": {
        "account": "tractor-supply",
        "name": "Tractor Supply Distribution Center Frankfort NY",
        "type": "Distribution Center",
        "archetype": "#10",
        "archetypeName": "Ship/Rcv Separate (Gate+GS)",
        "confidence": "high",
        "zone": "dropYard",
        "index": 2
      }
    },
    {
      "type": "Feature",
      "geometry": {
        "type": "Polygon",
        "coordinates": [
          [
            [
              -75.090345,
              43.036298
            ],
            [
              -75.087186,
              43.03675
            ],
            [
              -75.087186,
              43.037001
            ],
            [
              -75.090345,
              43.036549
            ],
            [
              -75.090345,
              43.036298
            ]
          ]
        ]
      },
      "properties": {
        "account": "tractor-supply",
        "name": "Tractor Supply Distribution Center Frankfort NY",
        "type": "Distribution Center",
        "archetype": "#10",
        "archetypeName": "Ship/Rcv Separate (Gate+GS)",
        "confidence": "high",
        "zone": "dockApron",
        "index": 1
      }
    },
    {
      "type": "Feature",
      "geometry": {
        "type": "Polygon",
        "coordinates": [
          [
            [
              -75.089148,
              43.033652
            ],
            [
              -75.089148,
              43.033402
            ],
            [
              -75.08647,
              43.032498
            ],
            [
              -75.08647,
              43.032749
            ],
            [
              -75.089148,
              43.033652
            ]
          ]
        ]
      },
      "properties": {
        "account": "tractor-supply",
        "name": "Tractor Supply Distribution Center Frankfort NY",
        "type": "Distribution Center",
        "archetype": "#10",
        "archetypeName": "Ship/Rcv Separate (Gate+GS)",
        "confidence": "high",
        "zone": "dockApron",
        "index": 2
      }
    },
    {
      "type": "Feature",
      "geometry": {
        "type": "Polygon",
        "coordinates": [
          [
            [
              -96.54878,
              40.90418
            ],
            [
              -96.5488,
              40.9033
            ],
            [
              -96.54905,
              40.90328
            ],
            [
              -96.54895,
              40.89952
            ],
            [
              -96.54635,
              40.89958
            ],
            [
              -96.54648,
              40.90332
            ],
            [
              -96.54612,
              40.9033
            ],
            [
              -96.54618,
              40.9043
            ],
            [
              -96.54878,
              40.90418
            ]
          ]
        ]
      },
      "properties": {
        "account": "tractor-supply",
        "name": "Tractor Supply Distribution Center Waverly NE",
        "type": "Distribution Center",
        "archetype": "#10",
        "archetypeName": "Ship/Rcv Separate (Gate+GS)",
        "confidence": "high",
        "zone": "perimeter",
        "truckGate": true,
        "guardShack": true,
        "remoteGs": false,
        "fastLaneOpportunity": true,
        "backupSensitive": false,
        "dropYard": true,
        "multipleFacilities": false,
        "scale": false,
        "shipRcvSeparate": true,
        "urbanRural": "Rural",
        "dockDoors": "50+",
        "dropArea": "50+",
        "yardMetrics": {
          "dockDoorCount": 110,
          "trailersVisible": 230,
          "trailerParkingCapacity": 180,
          "truckGateCount": 1,
          "buildingCount": 2,
          "siteAreaAcres": 78,
          "railServed": false
        }
      }
    },
    {
      "type": "Feature",
      "geometry": {
        "type": "Polygon",
        "coordinates": [
          [
            [
              -96.54772,
              40.90372
            ],
            [
              -96.54772,
              40.90338
            ],
            [
              -96.54738,
              40.90338
            ],
            [
              -96.54738,
              40.90372
            ],
            [
              -96.54772,
              40.90372
            ]
          ]
        ]
      },
      "properties": {
        "account": "tractor-supply",
        "name": "Tractor Supply Distribution Center Waverly NE",
        "type": "Distribution Center",
        "archetype": "#10",
        "archetypeName": "Ship/Rcv Separate (Gate+GS)",
        "confidence": "high",
        "zone": "truckGate"
      }
    },
    {
      "type": "Feature",
      "geometry": {
        "type": "Polygon",
        "coordinates": [
          [
            [
              -96.54838,
              40.90428
            ],
            [
              -96.54836,
              40.9038
            ],
            [
              -96.5463,
              40.90382
            ],
            [
              -96.54632,
              40.9043
            ],
            [
              -96.54838,
              40.90428
            ]
          ]
        ]
      },
      "properties": {
        "account": "tractor-supply",
        "name": "Tractor Supply Distribution Center Waverly NE",
        "type": "Distribution Center",
        "archetype": "#10",
        "archetypeName": "Ship/Rcv Separate (Gate+GS)",
        "confidence": "high",
        "zone": "dropYard",
        "index": 1
      }
    },
    {
      "type": "Feature",
      "geometry": {
        "type": "Polygon",
        "coordinates": [
          [
            [
              -96.54836,
              40.90378
            ],
            [
              -96.54836,
              40.90338
            ],
            [
              -96.54632,
              40.90338
            ],
            [
              -96.54632,
              40.90378
            ],
            [
              -96.54836,
              40.90378
            ]
          ]
        ]
      },
      "properties": {
        "account": "tractor-supply",
        "name": "Tractor Supply Distribution Center Waverly NE",
        "type": "Distribution Center",
        "archetype": "#10",
        "archetypeName": "Ship/Rcv Separate (Gate+GS)",
        "confidence": "high",
        "zone": "dropYard",
        "index": 2
      }
    },
    {
      "type": "Feature",
      "geometry": {
        "type": "Polygon",
        "coordinates": [
          [
            [
              -96.54878,
              40.90318
            ],
            [
              -96.54875,
              40.89962
            ],
            [
              -96.54845,
              40.89962
            ],
            [
              -96.54848,
              40.90318
            ],
            [
              -96.54878,
              40.90318
            ]
          ]
        ]
      },
      "properties": {
        "account": "tractor-supply",
        "name": "Tractor Supply Distribution Center Waverly NE",
        "type": "Distribution Center",
        "archetype": "#10",
        "archetypeName": "Ship/Rcv Separate (Gate+GS)",
        "confidence": "high",
        "zone": "dockApron",
        "index": 1
      }
    },
    {
      "type": "Feature",
      "geometry": {
        "type": "Polygon",
        "coordinates": [
          [
            [
              -96.54652,
              40.9032
            ],
            [
              -96.5465,
              40.89964
            ],
            [
              -96.5462,
              40.89964
            ],
            [
              -96.54622,
              40.9032
            ],
            [
              -96.54652,
              40.9032
            ]
          ]
        ]
      },
      "properties": {
        "account": "tractor-supply",
        "name": "Tractor Supply Distribution Center Waverly NE",
        "type": "Distribution Center",
        "archetype": "#10",
        "archetypeName": "Ship/Rcv Separate (Gate+GS)",
        "confidence": "high",
        "zone": "dockApron",
        "index": 2
      }
    },
    {
      "type": "Feature",
      "geometry": {
        "type": "Polygon",
        "coordinates": [
          [
            [
              -96.54838,
              40.90332
            ],
            [
              -96.54838,
              40.9025
            ],
            [
              -96.54652,
              40.9025
            ],
            [
              -96.54652,
              40.90332
            ],
            [
              -96.54838,
              40.90332
            ]
          ]
        ]
      },
      "properties": {
        "account": "tractor-supply",
        "name": "Tractor Supply Distribution Center Waverly NE",
        "type": "Distribution Center",
        "archetype": "#10",
        "archetypeName": "Ship/Rcv Separate (Gate+GS)",
        "confidence": "high",
        "zone": "staging"
      }
    },
    {
      "type": "Feature",
      "geometry": {
        "type": "Polygon",
        "coordinates": [
          [
            [
              -81.51126,
              40.73642
            ],
            [
              -81.5116,
              40.7339
            ],
            [
              -81.51122,
              40.73085
            ],
            [
              -81.50971,
              40.72997
            ],
            [
              -81.50731,
              40.73062
            ],
            [
              -81.50654,
              40.73211
            ],
            [
              -81.5065,
              40.73553
            ],
            [
              -81.50667,
              40.73647
            ],
            [
              -81.51126,
              40.73642
            ]
          ]
        ]
      },
      "properties": {
        "account": "tractor-supply",
        "name": "Tractor Supply Distribution Center Navarre OH",
        "type": "Distribution Center",
        "archetype": "#9",
        "archetypeName": "Gate + No GS (remote check-in)",
        "confidence": "high",
        "zone": "perimeter",
        "truckGate": true,
        "guardShack": false,
        "remoteGs": true,
        "fastLaneOpportunity": true,
        "backupSensitive": false,
        "dropYard": true,
        "multipleFacilities": false,
        "scale": false,
        "shipRcvSeparate": true,
        "urbanRural": "Rural",
        "dockDoors": "50+",
        "dropArea": "50+",
        "yardMetrics": {
          "dockDoorCount": 89,
          "trailersVisible": 180,
          "trailerParkingCapacity": 220,
          "truckGateCount": 1,
          "buildingCount": 1,
          "siteAreaAcres": 67.1,
          "railServed": false
        }
      }
    },
    {
      "type": "Feature",
      "geometry": {
        "type": "Polygon",
        "coordinates": [
          [
            [
              -81.50682,
              40.73642
            ],
            [
              -81.5071,
              40.73553
            ],
            [
              -81.5065,
              40.73529
            ],
            [
              -81.50624,
              40.73605
            ],
            [
              -81.50682,
              40.73642
            ]
          ]
        ]
      },
      "properties": {
        "account": "tractor-supply",
        "name": "Tractor Supply Distribution Center Navarre OH",
        "type": "Distribution Center",
        "archetype": "#9",
        "archetypeName": "Gate + No GS (remote check-in)",
        "confidence": "high",
        "zone": "truckGate"
      }
    },
    {
      "type": "Feature",
      "geometry": {
        "type": "Polygon",
        "coordinates": [
          [
            [
              -81.51089,
              40.73621
            ],
            [
              -81.51089,
              40.73553
            ],
            [
              -81.50682,
              40.73569
            ],
            [
              -81.50682,
              40.73626
            ],
            [
              -81.51089,
              40.73621
            ]
          ]
        ]
      },
      "properties": {
        "account": "tractor-supply",
        "name": "Tractor Supply Distribution Center Navarre OH",
        "type": "Distribution Center",
        "archetype": "#9",
        "archetypeName": "Gate + No GS (remote check-in)",
        "confidence": "high",
        "zone": "dropYard",
        "index": 1
      }
    },
    {
      "type": "Feature",
      "geometry": {
        "type": "Polygon",
        "coordinates": [
          [
            [
              -81.5074,
              40.73524
            ],
            [
              -81.50783,
              40.73244
            ],
            [
              -81.50718,
              40.73211
            ],
            [
              -81.50671,
              40.73488
            ],
            [
              -81.5074,
              40.73524
            ]
          ]
        ]
      },
      "properties": {
        "account": "tractor-supply",
        "name": "Tractor Supply Distribution Center Navarre OH",
        "type": "Distribution Center",
        "archetype": "#9",
        "archetypeName": "Gate + No GS (remote check-in)",
        "confidence": "high",
        "zone": "dropYard",
        "index": 2
      }
    },
    {
      "type": "Feature",
      "geometry": {
        "type": "Polygon",
        "coordinates": [
          [
            [
              -81.50761,
              40.73524
            ],
            [
              -81.5098,
              40.73146
            ],
            [
              -81.50939,
              40.73122
            ],
            [
              -81.50718,
              40.73504
            ],
            [
              -81.50761,
              40.73524
            ]
          ]
        ]
      },
      "properties": {
        "account": "tractor-supply",
        "name": "Tractor Supply Distribution Center Navarre OH",
        "type": "Distribution Center",
        "archetype": "#9",
        "archetypeName": "Gate + No GS (remote check-in)",
        "confidence": "high",
        "zone": "dockApron",
        "index": 1
      }
    },
    {
      "type": "Feature",
      "geometry": {
        "type": "Polygon",
        "coordinates": [
          [
            [
              -81.51089,
              40.7352
            ],
            [
              -81.5116,
              40.73133
            ],
            [
              -81.51126,
              40.73114
            ],
            [
              -81.51053,
              40.73507
            ],
            [
              -81.51089,
              40.7352
            ]
          ]
        ]
      },
      "properties": {
        "account": "tractor-supply",
        "name": "Tractor Supply Distribution Center Navarre OH",
        "type": "Distribution Center",
        "archetype": "#9",
        "archetypeName": "Gate + No GS (remote check-in)",
        "confidence": "high",
        "zone": "dockApron",
        "index": 2
      }
    },
    {
      "type": "Feature",
      "geometry": {
        "type": "Polygon",
        "coordinates": [
          [
            [
              -81.5074,
              40.73553
            ],
            [
              -81.50772,
              40.73337
            ],
            [
              -81.50718,
              40.73309
            ],
            [
              -81.50682,
              40.73524
            ],
            [
              -81.5074,
              40.73553
            ]
          ]
        ]
      },
      "properties": {
        "account": "tractor-supply",
        "name": "Tractor Supply Distribution Center Navarre OH",
        "type": "Distribution Center",
        "archetype": "#9",
        "archetypeName": "Gate + No GS (remote check-in)",
        "confidence": "high",
        "zone": "staging"
      }
    },
    {
      "type": "Feature",
      "geometry": {
        "type": "Polygon",
        "coordinates": [
          [
            [
              -92.3833,
              34.8713
            ],
            [
              -92.3843,
              34.8692
            ],
            [
              -92.3841,
              34.86655
            ],
            [
              -92.3825,
              34.8666
            ],
            [
              -92.3788,
              34.8677
            ],
            [
              -92.3773,
              34.86835
            ],
            [
              -92.37745,
              34.8715
            ],
            [
              -92.3833,
              34.8713
            ]
          ]
        ]
      },
      "properties": {
        "account": "tractor-supply",
        "name": "Tractor Supply Distribution Center Maumelle AR",
        "type": "Distribution Center",
        "archetype": "#10",
        "archetypeName": "Ship/Rcv Separate (Gate+GS)",
        "confidence": "high",
        "zone": "perimeter",
        "truckGate": true,
        "guardShack": true,
        "remoteGs": false,
        "fastLaneOpportunity": true,
        "backupSensitive": false,
        "dropYard": true,
        "multipleFacilities": false,
        "scale": false,
        "shipRcvSeparate": true,
        "urbanRural": "Rural",
        "dockDoors": "50+",
        "dropArea": "50+",
        "yardMetrics": {
          "dockDoorCount": 120,
          "trailersVisible": 180,
          "trailerParkingCapacity": 320,
          "truckGateCount": 1,
          "buildingCount": 1,
          "siteAreaAcres": 69.9,
          "railServed": false
        }
      }
    },
    {
      "type": "Feature",
      "geometry": {
        "type": "Polygon",
        "coordinates": [
          [
            [
              -92.3839,
              34.86735
            ],
            [
              -92.38335,
              34.86735
            ],
            [
              -92.38345,
              34.868
            ],
            [
              -92.38395,
              34.868
            ],
            [
              -92.3839,
              34.86735
            ]
          ]
        ]
      },
      "properties": {
        "account": "tractor-supply",
        "name": "Tractor Supply Distribution Center Maumelle AR",
        "type": "Distribution Center",
        "archetype": "#10",
        "archetypeName": "Ship/Rcv Separate (Gate+GS)",
        "confidence": "high",
        "zone": "truckGate"
      }
    },
    {
      "type": "Feature",
      "geometry": {
        "type": "Polygon",
        "coordinates": [
          [
            [
              -92.3824,
              34.86785
            ],
            [
              -92.38235,
              34.8669
            ],
            [
              -92.37895,
              34.867
            ],
            [
              -92.37885,
              34.86805
            ],
            [
              -92.3824,
              34.86785
            ]
          ]
        ]
      },
      "properties": {
        "account": "tractor-supply",
        "name": "Tractor Supply Distribution Center Maumelle AR",
        "type": "Distribution Center",
        "archetype": "#10",
        "archetypeName": "Ship/Rcv Separate (Gate+GS)",
        "confidence": "high",
        "zone": "dropYard",
        "index": 1
      }
    },
    {
      "type": "Feature",
      "geometry": {
        "type": "Polygon",
        "coordinates": [
          [
            [
              -92.37865,
              34.8684
            ],
            [
              -92.3777,
              34.86845
            ],
            [
              -92.3776,
              34.8708
            ],
            [
              -92.37855,
              34.87075
            ],
            [
              -92.37865,
              34.8684
            ]
          ]
        ]
      },
      "properties": {
        "account": "tractor-supply",
        "name": "Tractor Supply Distribution Center Maumelle AR",
        "type": "Distribution Center",
        "archetype": "#10",
        "archetypeName": "Ship/Rcv Separate (Gate+GS)",
        "confidence": "high",
        "zone": "dropYard",
        "index": 2
      }
    },
    {
      "type": "Feature",
      "geometry": {
        "type": "Polygon",
        "coordinates": [
          [
            [
              -92.38245,
              34.8682
            ],
            [
              -92.38248,
              34.86785
            ],
            [
              -92.3788,
              34.86805
            ],
            [
              -92.37875,
              34.8684
            ],
            [
              -92.38245,
              34.8682
            ]
          ]
        ]
      },
      "properties": {
        "account": "tractor-supply",
        "name": "Tractor Supply Distribution Center Maumelle AR",
        "type": "Distribution Center",
        "archetype": "#10",
        "archetypeName": "Ship/Rcv Separate (Gate+GS)",
        "confidence": "high",
        "zone": "dockApron",
        "index": 1
      }
    },
    {
      "type": "Feature",
      "geometry": {
        "type": "Polygon",
        "coordinates": [
          [
            [
              -92.3825,
              34.87065
            ],
            [
              -92.3786,
              34.87085
            ],
            [
              -92.37855,
              34.8711
            ],
            [
              -92.38255,
              34.8709
            ],
            [
              -92.3825,
              34.87065
            ]
          ]
        ]
      },
      "properties": {
        "account": "tractor-supply",
        "name": "Tractor Supply Distribution Center Maumelle AR",
        "type": "Distribution Center",
        "archetype": "#10",
        "archetypeName": "Ship/Rcv Separate (Gate+GS)",
        "confidence": "high",
        "zone": "dockApron",
        "index": 2
      }
    },
    {
      "type": "Feature",
      "geometry": {
        "type": "Polygon",
        "coordinates": [
          [
            [
              -92.3832,
              34.86805
            ],
            [
              -92.38318,
              34.86765
            ],
            [
              -92.38228,
              34.8677
            ],
            [
              -92.3823,
              34.8681
            ],
            [
              -92.3832,
              34.86805
            ]
          ]
        ]
      },
      "properties": {
        "account": "tractor-supply",
        "name": "Tractor Supply Distribution Center Maumelle AR",
        "type": "Distribution Center",
        "archetype": "#10",
        "archetypeName": "Ship/Rcv Separate (Gate+GS)",
        "confidence": "high",
        "zone": "staging"
      }
    },
    {
      "type": "Feature",
      "geometry": {
        "type": "Polygon",
        "coordinates": [
          [
            [
              -116.591,
              43.634
            ],
            [
              -116.591,
              43.6285
            ],
            [
              -116.5865,
              43.6285
            ],
            [
              -116.5865,
              43.634
            ],
            [
              -116.591,
              43.634
            ]
          ]
        ]
      },
      "properties": {
        "account": "tractor-supply",
        "name": "Tractor Supply Distribution Center Nampa ID",
        "type": "Distribution Center",
        "archetype": "#3",
        "archetypeName": "No Gate / No GS",
        "confidence": "low",
        "zone": "perimeter",
        "truckGate": false,
        "guardShack": false,
        "remoteGs": false,
        "fastLaneOpportunity": false,
        "backupSensitive": false,
        "dropYard": false,
        "multipleFacilities": false,
        "scale": false,
        "shipRcvSeparate": false,
        "urbanRural": "Rural",
        "dockDoors": "NONE",
        "dropArea": "NONE",
        "yardMetrics": {
          "dockDoorCount": 0,
          "trailersVisible": 0,
          "trailerParkingCapacity": 0,
          "truckGateCount": 1,
          "buildingCount": 0,
          "siteAreaAcres": 54.9,
          "railServed": false
        }
      }
    },
    {
      "type": "Feature",
      "geometry": {
        "type": "Polygon",
        "coordinates": [
          [
            [
              -116.591,
              43.6327
            ],
            [
              -116.591,
              43.6321
            ],
            [
              -116.5904,
              43.6321
            ],
            [
              -116.5904,
              43.6327
            ],
            [
              -116.591,
              43.6327
            ]
          ]
        ]
      },
      "properties": {
        "account": "tractor-supply",
        "name": "Tractor Supply Distribution Center Nampa ID",
        "type": "Distribution Center",
        "archetype": "#3",
        "archetypeName": "No Gate / No GS",
        "confidence": "low",
        "zone": "truckGate"
      }
    }
  ]
}
