{
  "type": "FeatureCollection",
  "features": [
    {
      "type": "Feature",
      "geometry": {
        "type": "Polygon",
        "coordinates": [
          [
            [
              -98.395942,
              29.487156
            ],
            [
              -98.395805,
              29.484168
            ],
            [
              -98.387291,
              29.484287
            ],
            [
              -98.387428,
              29.487037
            ],
            [
              -98.395942,
              29.487156
            ]
          ]
        ]
      },
      "properties": {
        "account": "h-e-b",
        "name": "H-E-B San Antonio RSC (Fratt Road) - San Antonio TX",
        "type": "Retail Support Center / Distribution Center",
        "archetype": "#9",
        "archetypeName": "Gate + No GS (remote check-in)",
        "confidence": "medium",
        "zone": "perimeter",
        "truckGate": true,
        "guardShack": false,
        "remoteGs": true,
        "fastLaneOpportunity": true,
        "backupSensitive": false,
        "dropYard": true,
        "multipleFacilities": true,
        "scale": false,
        "shipRcvSeparate": false,
        "urbanRural": "Urban",
        "dockDoors": "50+",
        "dropArea": "50+",
        "yardMetrics": {
          "dockDoorCount": 90,
          "trailersVisible": 160,
          "trailerParkingCapacity": 220,
          "truckGateCount": 2,
          "buildingCount": 6,
          "siteAreaAcres": 88,
          "railServed": false
        }
      }
    },
    {
      "type": "Feature",
      "geometry": {
        "type": "Polygon",
        "coordinates": [
          [
            [
              -98.39402,
              29.484168
            ],
            [
              -98.39402,
              29.483809
            ],
            [
              -98.393196,
              29.483809
            ],
            [
              -98.393196,
              29.484168
            ],
            [
              -98.39402,
              29.484168
            ]
          ]
        ]
      },
      "properties": {
        "account": "h-e-b",
        "name": "H-E-B San Antonio RSC (Fratt Road) - San Antonio TX",
        "type": "Retail Support Center / Distribution Center",
        "archetype": "#9",
        "archetypeName": "Gate + No GS (remote check-in)",
        "confidence": "medium",
        "zone": "truckGate"
      }
    },
    {
      "type": "Feature",
      "geometry": {
        "type": "Polygon",
        "coordinates": [
          [
            [
              -98.395805,
              29.486798
            ],
            [
              -98.395805,
              29.485722
            ],
            [
              -98.393059,
              29.485602
            ],
            [
              -98.393059,
              29.486678
            ],
            [
              -98.395805,
              29.486798
            ]
          ]
        ]
      },
      "properties": {
        "account": "h-e-b",
        "name": "H-E-B San Antonio RSC (Fratt Road) - San Antonio TX",
        "type": "Retail Support Center / Distribution Center",
        "archetype": "#9",
        "archetypeName": "Gate + No GS (remote check-in)",
        "confidence": "medium",
        "zone": "dropYard",
        "index": 1
      }
    },
    {
      "type": "Feature",
      "geometry": {
        "type": "Polygon",
        "coordinates": [
          [
            [
              -98.391411,
              29.485602
            ],
            [
              -98.391411,
              29.485005
            ],
            [
              -98.387703,
              29.484885
            ],
            [
              -98.387703,
              29.485483
            ],
            [
              -98.391411,
              29.485602
            ]
          ]
        ]
      },
      "properties": {
        "account": "h-e-b",
        "name": "H-E-B San Antonio RSC (Fratt Road) - San Antonio TX",
        "type": "Retail Support Center / Distribution Center",
        "archetype": "#9",
        "archetypeName": "Gate + No GS (remote check-in)",
        "confidence": "medium",
        "zone": "dropYard",
        "index": 2
      }
    },
    {
      "type": "Feature",
      "geometry": {
        "type": "Polygon",
        "coordinates": [
          [
            [
              -98.391823,
              29.487156
            ],
            [
              -98.391823,
              29.486917
            ],
            [
              -98.387428,
              29.486798
            ],
            [
              -98.387428,
              29.487037
            ],
            [
              -98.391823,
              29.487156
            ]
          ]
        ]
      },
      "properties": {
        "account": "h-e-b",
        "name": "H-E-B San Antonio RSC (Fratt Road) - San Antonio TX",
        "type": "Retail Support Center / Distribution Center",
        "archetype": "#9",
        "archetypeName": "Gate + No GS (remote check-in)",
        "confidence": "medium",
        "zone": "dockApron",
        "index": 1
      }
    },
    {
      "type": "Feature",
      "geometry": {
        "type": "Polygon",
        "coordinates": [
          [
            [
              -98.372905,
              29.407736
            ],
            [
              -98.372493,
              29.405702
            ],
            [
              -98.369747,
              29.401036
            ],
            [
              -98.365764,
              29.401275
            ],
            [
              -98.365489,
              29.405702
            ],
            [
              -98.366313,
              29.407975
            ],
            [
              -98.372905,
              29.407736
            ]
          ]
        ]
      },
      "properties": {
        "account": "h-e-b",
        "name": "H-E-B East Side Super Regional Grocery Warehouse - San Antonio TX",
        "type": "Super Regional Grocery Distribution Center",
        "archetype": "#10",
        "archetypeName": "Ship/Rcv Separate (Gate+GS)",
        "confidence": "high",
        "zone": "perimeter",
        "truckGate": true,
        "guardShack": true,
        "remoteGs": false,
        "fastLaneOpportunity": true,
        "backupSensitive": false,
        "dropYard": true,
        "multipleFacilities": false,
        "scale": false,
        "shipRcvSeparate": true,
        "urbanRural": "Rural",
        "dockDoors": "50+",
        "dropArea": "50+",
        "yardMetrics": {
          "dockDoorCount": 200,
          "trailersVisible": 170,
          "trailerParkingCapacity": 280,
          "truckGateCount": 1,
          "buildingCount": 2,
          "siteAreaAcres": 130,
          "railServed": false
        }
      }
    },
    {
      "type": "Feature",
      "geometry": {
        "type": "Polygon",
        "coordinates": [
          [
            [
              -98.366313,
              29.407496
            ],
            [
              -98.366313,
              29.407018
            ],
            [
              -98.365489,
              29.407018
            ],
            [
              -98.365489,
              29.407496
            ],
            [
              -98.366313,
              29.407496
            ]
          ]
        ]
      },
      "properties": {
        "account": "h-e-b",
        "name": "H-E-B East Side Super Regional Grocery Warehouse - San Antonio TX",
        "type": "Super Regional Grocery Distribution Center",
        "archetype": "#10",
        "archetypeName": "Ship/Rcv Separate (Gate+GS)",
        "confidence": "high",
        "zone": "truckGate"
      }
    },
    {
      "type": "Feature",
      "geometry": {
        "type": "Polygon",
        "coordinates": [
          [
            [
              -98.369335,
              29.402472
            ],
            [
              -98.369197,
              29.401156
            ],
            [
              -98.366176,
              29.401275
            ],
            [
              -98.366313,
              29.402591
            ],
            [
              -98.369335,
              29.402472
            ]
          ]
        ]
      },
      "properties": {
        "account": "h-e-b",
        "name": "H-E-B East Side Super Regional Grocery Warehouse - San Antonio TX",
        "type": "Super Regional Grocery Distribution Center",
        "archetype": "#10",
        "archetypeName": "Ship/Rcv Separate (Gate+GS)",
        "confidence": "high",
        "zone": "dropYard",
        "index": 1
      }
    },
    {
      "type": "Feature",
      "geometry": {
        "type": "Polygon",
        "coordinates": [
          [
            [
              -98.366313,
              29.407257
            ],
            [
              -98.366725,
              29.407137
            ],
            [
              -98.366176,
              29.405223
            ],
            [
              -98.365764,
              29.405343
            ],
            [
              -98.366313,
              29.407257
            ]
          ]
        ]
      },
      "properties": {
        "account": "h-e-b",
        "name": "H-E-B East Side Super Regional Grocery Warehouse - San Antonio TX",
        "type": "Super Regional Grocery Distribution Center",
        "archetype": "#10",
        "archetypeName": "Ship/Rcv Separate (Gate+GS)",
        "confidence": "high",
        "zone": "dockApron",
        "index": 1
      }
    },
    {
      "type": "Feature",
      "geometry": {
        "type": "Polygon",
        "coordinates": [
          [
            [
              -95.542571,
              29.841765
            ],
            [
              -95.542571,
              29.833188
            ],
            [
              -95.536803,
              29.833188
            ],
            [
              -95.536803,
              29.841765
            ],
            [
              -95.542571,
              29.841765
            ]
          ]
        ]
      },
      "properties": {
        "account": "h-e-b",
        "name": "H-E-B Houston RSC (Windfern Road) - Houston TX",
        "type": "Retail Support Center / Distribution Center",
        "archetype": "#6",
        "archetypeName": "Gate + GS (not BU sens.) + campus",
        "confidence": "medium",
        "zone": "perimeter",
        "truckGate": true,
        "guardShack": true,
        "remoteGs": false,
        "fastLaneOpportunity": true,
        "backupSensitive": false,
        "dropYard": true,
        "multipleFacilities": true,
        "scale": false,
        "shipRcvSeparate": true,
        "urbanRural": "Urban",
        "dockDoors": "50+",
        "dropArea": "50+",
        "yardMetrics": {
          "dockDoorCount": 160,
          "trailersVisible": 280,
          "trailerParkingCapacity": 400,
          "truckGateCount": 2,
          "buildingCount": 7,
          "siteAreaAcres": 130,
          "railServed": false
        }
      }
    },
    {
      "type": "Feature",
      "geometry": {
        "type": "Polygon",
        "coordinates": [
          [
            [
              -95.542845,
              29.837238
            ],
            [
              -95.542845,
              29.836285
            ],
            [
              -95.542021,
              29.836285
            ],
            [
              -95.542021,
              29.837238
            ],
            [
              -95.542845,
              29.837238
            ]
          ]
        ]
      },
      "properties": {
        "account": "h-e-b",
        "name": "H-E-B Houston RSC (Windfern Road) - Houston TX",
        "type": "Retail Support Center / Distribution Center",
        "archetype": "#6",
        "archetypeName": "Gate + GS (not BU sens.) + campus",
        "confidence": "medium",
        "zone": "truckGate"
      }
    },
    {
      "type": "Feature",
      "geometry": {
        "type": "Polygon",
        "coordinates": [
          [
            [
              -95.542021,
              29.838191
            ],
            [
              -95.542021,
              29.83557
            ],
            [
              -95.537627,
              29.83557
            ],
            [
              -95.537627,
              29.838191
            ],
            [
              -95.542021,
              29.838191
            ]
          ]
        ]
      },
      "properties": {
        "account": "h-e-b",
        "name": "H-E-B Houston RSC (Windfern Road) - Houston TX",
        "type": "Retail Support Center / Distribution Center",
        "archetype": "#6",
        "archetypeName": "Gate + GS (not BU sens.) + campus",
        "confidence": "medium",
        "zone": "dropYard",
        "index": 1
      }
    },
    {
      "type": "Feature",
      "geometry": {
        "type": "Polygon",
        "coordinates": [
          [
            [
              -95.541747,
              29.840812
            ],
            [
              -95.541747,
              29.840097
            ],
            [
              -95.537352,
              29.840097
            ],
            [
              -95.537352,
              29.840812
            ],
            [
              -95.541747,
              29.840812
            ]
          ]
        ]
      },
      "properties": {
        "account": "h-e-b",
        "name": "H-E-B Houston RSC (Windfern Road) - Houston TX",
        "type": "Retail Support Center / Distribution Center",
        "archetype": "#6",
        "archetypeName": "Gate + GS (not BU sens.) + campus",
        "confidence": "medium",
        "zone": "dockApron",
        "index": 1
      }
    },
    {
      "type": "Feature",
      "geometry": {
        "type": "Polygon",
        "coordinates": [
          [
            [
              -97.367605,
              31.154803
            ],
            [
              -97.368347,
              31.153017
            ],
            [
              -97.368896,
              31.149162
            ],
            [
              -97.364392,
              31.148316
            ],
            [
              -97.358075,
              31.151278
            ],
            [
              -97.358679,
              31.155133
            ],
            [
              -97.367605,
              31.154803
            ]
          ]
        ]
      },
      "properties": {
        "account": "h-e-b",
        "name": "H-E-B Temple RSC - Temple TX",
        "type": "Retail Support Center / Distribution Center",
        "archetype": "#9",
        "archetypeName": "Gate + No GS (remote check-in)",
        "confidence": "medium",
        "zone": "perimeter",
        "truckGate": true,
        "guardShack": false,
        "remoteGs": true,
        "fastLaneOpportunity": true,
        "backupSensitive": false,
        "dropYard": true,
        "multipleFacilities": true,
        "scale": false,
        "shipRcvSeparate": true,
        "urbanRural": "Rural",
        "dockDoors": "50+",
        "dropArea": "50+",
        "yardMetrics": {
          "dockDoorCount": 110,
          "trailersVisible": 180,
          "trailerParkingCapacity": 280,
          "truckGateCount": 1,
          "buildingCount": 4,
          "siteAreaAcres": 105,
          "railServed": false
        }
      }
    },
    {
      "type": "Feature",
      "geometry": {
        "type": "Polygon",
        "coordinates": [
          [
            [
              -97.364447,
              31.15203
            ],
            [
              -97.364447,
              31.150149
            ],
            [
              -97.359503,
              31.150149
            ],
            [
              -97.359503,
              31.15203
            ],
            [
              -97.364447,
              31.15203
            ]
          ]
        ]
      },
      "properties": {
        "account": "h-e-b",
        "name": "H-E-B Temple RSC - Temple TX",
        "type": "Retail Support Center / Distribution Center",
        "archetype": "#9",
        "archetypeName": "Gate + No GS (remote check-in)",
        "confidence": "medium",
        "zone": "dropYard",
        "index": 1
      }
    },
    {
      "type": "Feature",
      "geometry": {
        "type": "Polygon",
        "coordinates": [
          [
            [
              -97.364447,
              31.1525
            ],
            [
              -97.364447,
              31.15203
            ],
            [
              -97.359503,
              31.15203
            ],
            [
              -97.359503,
              31.1525
            ],
            [
              -97.364447,
              31.1525
            ]
          ]
        ]
      },
      "properties": {
        "account": "h-e-b",
        "name": "H-E-B Temple RSC - Temple TX",
        "type": "Retail Support Center / Distribution Center",
        "archetype": "#9",
        "archetypeName": "Gate + No GS (remote check-in)",
        "confidence": "medium",
        "zone": "dockApron",
        "index": 1
      }
    },
    {
      "type": "Feature",
      "geometry": {
        "type": "Polygon",
        "coordinates": [
          [
            [
              -98.005908,
              26.165758
            ],
            [
              -98.005908,
              26.162184
            ],
            [
              -98.000003,
              26.162184
            ],
            [
              -98.000003,
              26.165635
            ],
            [
              -98.005908,
              26.165758
            ]
          ]
        ]
      },
      "properties": {
        "account": "h-e-b",
        "name": "H-E-B Weslaco RSC - Weslaco TX",
        "type": "Retail Support Center / Distribution Center",
        "archetype": "#9",
        "archetypeName": "Gate + No GS (remote check-in)",
        "confidence": "medium",
        "zone": "perimeter",
        "truckGate": true,
        "guardShack": false,
        "remoteGs": true,
        "fastLaneOpportunity": true,
        "backupSensitive": false,
        "dropYard": true,
        "multipleFacilities": true,
        "scale": false,
        "shipRcvSeparate": false,
        "urbanRural": "Urban",
        "dockDoors": "50+",
        "dropArea": "50+",
        "yardMetrics": {
          "dockDoorCount": 70,
          "trailersVisible": 110,
          "trailerParkingCapacity": 170,
          "truckGateCount": 1,
          "buildingCount": 3,
          "siteAreaAcres": 60,
          "railServed": false
        }
      }
    },
    {
      "type": "Feature",
      "geometry": {
        "type": "Polygon",
        "coordinates": [
          [
            [
              -98.004947,
              26.162184
            ],
            [
              -98.004947,
              26.161814
            ],
            [
              -98.004123,
              26.161814
            ],
            [
              -98.004123,
              26.162184
            ],
            [
              -98.004947,
              26.162184
            ]
          ]
        ]
      },
      "properties": {
        "account": "h-e-b",
        "name": "H-E-B Weslaco RSC - Weslaco TX",
        "type": "Retail Support Center / Distribution Center",
        "archetype": "#9",
        "archetypeName": "Gate + No GS (remote check-in)",
        "confidence": "medium",
        "zone": "truckGate"
      }
    },
    {
      "type": "Feature",
      "geometry": {
        "type": "Polygon",
        "coordinates": [
          [
            [
              -98.005221,
              26.164526
            ],
            [
              -98.005221,
              26.16354
            ],
            [
              -98.003436,
              26.16354
            ],
            [
              -98.003436,
              26.164526
            ],
            [
              -98.005221,
              26.164526
            ]
          ]
        ]
      },
      "properties": {
        "account": "h-e-b",
        "name": "H-E-B Weslaco RSC - Weslaco TX",
        "type": "Retail Support Center / Distribution Center",
        "archetype": "#9",
        "archetypeName": "Gate + No GS (remote check-in)",
        "confidence": "medium",
        "zone": "dropYard",
        "index": 1
      }
    },
    {
      "type": "Feature",
      "geometry": {
        "type": "Polygon",
        "coordinates": [
          [
            [
              -98.003024,
              26.165265
            ],
            [
              -98.003436,
              26.165019
            ],
            [
              -98.000964,
              26.1628
            ],
            [
              -98.000552,
              26.1628
            ],
            [
              -98.000552,
              26.165265
            ],
            [
              -98.003024,
              26.165265
            ]
          ]
        ]
      },
      "properties": {
        "account": "h-e-b",
        "name": "H-E-B Weslaco RSC - Weslaco TX",
        "type": "Retail Support Center / Distribution Center",
        "archetype": "#9",
        "archetypeName": "Gate + No GS (remote check-in)",
        "confidence": "medium",
        "zone": "dockApron",
        "index": 1
      }
    },
    {
      "type": "Feature",
      "geometry": {
        "type": "Polygon",
        "coordinates": [
          [
            [
              -97.966571,
              29.859619
            ],
            [
              -97.966845,
              29.858904
            ],
            [
              -97.964099,
              29.856403
            ],
            [
              -97.960803,
              29.85819
            ],
            [
              -97.963412,
              29.861048
            ],
            [
              -97.966571,
              29.859619
            ]
          ]
        ]
      },
      "properties": {
        "account": "h-e-b",
        "name": "H-E-B San Marcos RSC - San Marcos TX",
        "type": "Retail Support Center / Distribution Center",
        "archetype": "#10",
        "archetypeName": "Ship/Rcv Separate (Gate+GS)",
        "confidence": "high",
        "zone": "perimeter",
        "truckGate": true,
        "guardShack": true,
        "remoteGs": false,
        "fastLaneOpportunity": true,
        "backupSensitive": false,
        "dropYard": true,
        "multipleFacilities": false,
        "scale": false,
        "shipRcvSeparate": true,
        "urbanRural": "Urban",
        "dockDoors": "50+",
        "dropArea": "50+",
        "yardMetrics": {
          "dockDoorCount": 110,
          "trailersVisible": 70,
          "trailerParkingCapacity": 160,
          "truckGateCount": 1,
          "buildingCount": 1,
          "siteAreaAcres": 85,
          "railServed": false
        }
      }
    },
    {
      "type": "Feature",
      "geometry": {
        "type": "Polygon",
        "coordinates": [
          [
            [
              -97.966983,
              29.8595
            ],
            [
              -97.966708,
              29.859143
            ],
            [
              -97.966159,
              29.8595
            ],
            [
              -97.966433,
              29.859857
            ],
            [
              -97.966983,
              29.8595
            ]
          ]
        ]
      },
      "properties": {
        "account": "h-e-b",
        "name": "H-E-B San Marcos RSC - San Marcos TX",
        "type": "Retail Support Center / Distribution Center",
        "archetype": "#10",
        "archetypeName": "Ship/Rcv Separate (Gate+GS)",
        "confidence": "high",
        "zone": "truckGate"
      }
    },
    {
      "type": "Feature",
      "geometry": {
        "type": "Polygon",
        "coordinates": [
          [
            [
              -97.966159,
              29.859143
            ],
            [
              -97.965472,
              29.85819
            ],
            [
              -97.963412,
              29.859381
            ],
            [
              -97.964099,
              29.860334
            ],
            [
              -97.966159,
              29.859143
            ]
          ]
        ]
      },
      "properties": {
        "account": "h-e-b",
        "name": "H-E-B San Marcos RSC - San Marcos TX",
        "type": "Retail Support Center / Distribution Center",
        "archetype": "#10",
        "archetypeName": "Ship/Rcv Separate (Gate+GS)",
        "confidence": "high",
        "zone": "dropYard",
        "index": 1
      }
    },
    {
      "type": "Feature",
      "geometry": {
        "type": "Polygon",
        "coordinates": [
          [
            [
              -97.963687,
              29.85819
            ],
            [
              -97.963412,
              29.857833
            ],
            [
              -97.961352,
              29.859024
            ],
            [
              -97.961627,
              29.859381
            ],
            [
              -97.963687,
              29.85819
            ]
          ]
        ]
      },
      "properties": {
        "account": "h-e-b",
        "name": "H-E-B San Marcos RSC - San Marcos TX",
        "type": "Retail Support Center / Distribution Center",
        "archetype": "#10",
        "archetypeName": "Ship/Rcv Separate (Gate+GS)",
        "confidence": "high",
        "zone": "dockApron",
        "index": 1
      }
    },
    {
      "type": "Feature",
      "geometry": {
        "type": "Polygon",
        "coordinates": [
          [
            [
              -98.390879,
              29.486375
            ],
            [
              -98.390879,
              29.484163
            ],
            [
              -98.387858,
              29.484163
            ],
            [
              -98.387858,
              29.486375
            ],
            [
              -98.390879,
              29.486375
            ]
          ]
        ]
      },
      "properties": {
        "account": "h-e-b",
        "name": "H-E-B Manufacturing - San Antonio Snack Plant - San Antonio TX",
        "type": "Manufacturing Plant (Snacks / Chips)",
        "archetype": "#3",
        "archetypeName": "No Gate / No GS",
        "confidence": "medium",
        "zone": "perimeter",
        "truckGate": false,
        "guardShack": false,
        "remoteGs": false,
        "fastLaneOpportunity": false,
        "backupSensitive": false,
        "dropYard": true,
        "multipleFacilities": true,
        "scale": false,
        "shipRcvSeparate": false,
        "urbanRural": "Urban",
        "dockDoors": "0-10",
        "dropArea": "25-50",
        "yardMetrics": {
          "dockDoorCount": 8,
          "trailersVisible": 25,
          "trailerParkingCapacity": 60,
          "truckGateCount": 0,
          "buildingCount": 1,
          "siteAreaAcres": 4.5,
          "railServed": false
        }
      }
    },
    {
      "type": "Feature",
      "geometry": {
        "type": "Polygon",
        "coordinates": [
          [
            [
              -98.390845,
              29.485956
            ],
            [
              -98.390845,
              29.485478
            ],
            [
              -98.389472,
              29.485478
            ],
            [
              -98.389472,
              29.485956
            ],
            [
              -98.390845,
              29.485956
            ]
          ]
        ]
      },
      "properties": {
        "account": "h-e-b",
        "name": "H-E-B Manufacturing - San Antonio Snack Plant - San Antonio TX",
        "type": "Manufacturing Plant (Snacks / Chips)",
        "archetype": "#3",
        "archetypeName": "No Gate / No GS",
        "confidence": "medium",
        "zone": "dropYard",
        "index": 1
      }
    },
    {
      "type": "Feature",
      "geometry": {
        "type": "Polygon",
        "coordinates": [
          [
            [
              -98.390845,
              29.486106
            ],
            [
              -98.390845,
              29.485986
            ],
            [
              -98.387858,
              29.485986
            ],
            [
              -98.387858,
              29.486106
            ],
            [
              -98.390845,
              29.486106
            ]
          ]
        ]
      },
      "properties": {
        "account": "h-e-b",
        "name": "H-E-B Manufacturing - San Antonio Snack Plant - San Antonio TX",
        "type": "Manufacturing Plant (Snacks / Chips)",
        "archetype": "#3",
        "archetypeName": "No Gate / No GS",
        "confidence": "medium",
        "zone": "dockApron",
        "index": 1
      }
    },
    {
      "type": "Feature",
      "geometry": {
        "type": "Polygon",
        "coordinates": [
          [
            [
              -95.542124,
              29.844217
            ],
            [
              -95.542124,
              29.841775
            ],
            [
              -95.538004,
              29.841835
            ],
            [
              -95.538004,
              29.844217
            ],
            [
              -95.542124,
              29.844217
            ]
          ]
        ]
      },
      "properties": {
        "account": "h-e-b",
        "name": "H-E-B Manufacturing - Houston Snack Plant (Genard Road) - Houston TX",
        "type": "Manufacturing Plant (Snacks / Tortilla Chips)",
        "archetype": "#3",
        "archetypeName": "No Gate / No GS",
        "confidence": "medium",
        "zone": "perimeter",
        "truckGate": false,
        "guardShack": false,
        "remoteGs": false,
        "fastLaneOpportunity": false,
        "backupSensitive": false,
        "dropYard": true,
        "multipleFacilities": true,
        "scale": false,
        "shipRcvSeparate": false,
        "urbanRural": "Urban",
        "dockDoors": "10-25",
        "dropArea": "50+",
        "yardMetrics": {
          "dockDoorCount": 16,
          "trailersVisible": 70,
          "trailerParkingCapacity": 130,
          "truckGateCount": 0,
          "buildingCount": 1,
          "siteAreaAcres": 14,
          "railServed": false
        }
      }
    },
    {
      "type": "Feature",
      "geometry": {
        "type": "Polygon",
        "coordinates": [
          [
            [
              -95.541987,
              29.8438
            ],
            [
              -95.541987,
              29.843621
            ],
            [
              -95.541781,
              29.843621
            ],
            [
              -95.541781,
              29.8438
            ],
            [
              -95.541987,
              29.8438
            ]
          ]
        ]
      },
      "properties": {
        "account": "h-e-b",
        "name": "H-E-B Manufacturing - Houston Snack Plant (Genard Road) - Houston TX",
        "type": "Manufacturing Plant (Snacks / Tortilla Chips)",
        "archetype": "#3",
        "archetypeName": "No Gate / No GS",
        "confidence": "medium",
        "zone": "truckGate"
      }
    },
    {
      "type": "Feature",
      "geometry": {
        "type": "Polygon",
        "coordinates": [
          [
            [
              -95.541987,
              29.843085
            ],
            [
              -95.541987,
              29.842132
            ],
            [
              -95.539789,
              29.842132
            ],
            [
              -95.539789,
              29.843085
            ],
            [
              -95.541987,
              29.843085
            ]
          ]
        ]
      },
      "properties": {
        "account": "h-e-b",
        "name": "H-E-B Manufacturing - Houston Snack Plant (Genard Road) - Houston TX",
        "type": "Manufacturing Plant (Snacks / Tortilla Chips)",
        "archetype": "#3",
        "archetypeName": "No Gate / No GS",
        "confidence": "medium",
        "zone": "dropYard",
        "index": 1
      }
    },
    {
      "type": "Feature",
      "geometry": {
        "type": "Polygon",
        "coordinates": [
          [
            [
              -95.541849,
              29.844038
            ],
            [
              -95.541849,
              29.84386
            ],
            [
              -95.539652,
              29.84386
            ],
            [
              -95.539652,
              29.844038
            ],
            [
              -95.541849,
              29.844038
            ]
          ]
        ]
      },
      "properties": {
        "account": "h-e-b",
        "name": "H-E-B Manufacturing - Houston Snack Plant (Genard Road) - Houston TX",
        "type": "Manufacturing Plant (Snacks / Tortilla Chips)",
        "archetype": "#3",
        "archetypeName": "No Gate / No GS",
        "confidence": "medium",
        "zone": "dockApron",
        "index": 1
      }
    },
    {
      "type": "Feature",
      "geometry": {
        "type": "Polygon",
        "coordinates": [
          [
            [
              -95.539911,
              29.844272
            ],
            [
              -95.539911,
              29.84189
            ],
            [
              -95.537576,
              29.84189
            ],
            [
              -95.537576,
              29.844272
            ],
            [
              -95.539911,
              29.844272
            ]
          ]
        ]
      },
      "properties": {
        "account": "h-e-b",
        "name": "H-E-B Manufacturing - Houston Milk & Bread Plant - Houston TX",
        "type": "Manufacturing Plant (Dairy / Bakery)",
        "archetype": "#3",
        "archetypeName": "No Gate / No GS",
        "confidence": "medium",
        "zone": "perimeter",
        "truckGate": false,
        "guardShack": false,
        "remoteGs": false,
        "fastLaneOpportunity": false,
        "backupSensitive": false,
        "dropYard": true,
        "multipleFacilities": true,
        "scale": false,
        "shipRcvSeparate": true,
        "urbanRural": "Urban",
        "dockDoors": "25-50",
        "dropArea": "50+",
        "yardMetrics": {
          "dockDoorCount": 35,
          "trailersVisible": 60,
          "trailerParkingCapacity": 110,
          "truckGateCount": 0,
          "buildingCount": 2,
          "siteAreaAcres": 22,
          "railServed": true
        }
      }
    },
    {
      "type": "Feature",
      "geometry": {
        "type": "Polygon",
        "coordinates": [
          [
            [
              -95.539979,
              29.843438
            ],
            [
              -95.539979,
              29.8432
            ],
            [
              -95.539773,
              29.8432
            ],
            [
              -95.539773,
              29.843438
            ],
            [
              -95.539979,
              29.843438
            ]
          ]
        ]
      },
      "properties": {
        "account": "h-e-b",
        "name": "H-E-B Manufacturing - Houston Milk & Bread Plant - Houston TX",
        "type": "Manufacturing Plant (Dairy / Bakery)",
        "archetype": "#3",
        "archetypeName": "No Gate / No GS",
        "confidence": "medium",
        "zone": "truckGate"
      }
    },
    {
      "type": "Feature",
      "geometry": {
        "type": "Polygon",
        "coordinates": [
          [
            [
              -95.54149,
              29.844153
            ],
            [
              -95.54149,
              29.842902
            ],
            [
              -95.540597,
              29.842902
            ],
            [
              -95.540597,
              29.844153
            ],
            [
              -95.54149,
              29.844153
            ]
          ]
        ]
      },
      "properties": {
        "account": "h-e-b",
        "name": "H-E-B Manufacturing - Houston Milk & Bread Plant - Houston TX",
        "type": "Manufacturing Plant (Dairy / Bakery)",
        "archetype": "#3",
        "archetypeName": "No Gate / No GS",
        "confidence": "medium",
        "zone": "dropYard",
        "index": 1
      }
    },
    {
      "type": "Feature",
      "geometry": {
        "type": "Polygon",
        "coordinates": [
          [
            [
              -95.539705,
              29.844034
            ],
            [
              -95.539705,
              29.843855
            ],
            [
              -95.537851,
              29.843855
            ],
            [
              -95.537851,
              29.844034
            ],
            [
              -95.539705,
              29.844034
            ]
          ]
        ]
      },
      "properties": {
        "account": "h-e-b",
        "name": "H-E-B Manufacturing - Houston Milk & Bread Plant - Houston TX",
        "type": "Manufacturing Plant (Dairy / Bakery)",
        "archetype": "#3",
        "archetypeName": "No Gate / No GS",
        "confidence": "medium",
        "zone": "dockApron",
        "index": 1
      }
    },
    {
      "type": "Feature",
      "geometry": {
        "type": "Polygon",
        "coordinates": [
          [
            [
              -95.35583,
              29.682737
            ],
            [
              -95.355761,
              29.681424
            ],
            [
              -95.353633,
              29.681484
            ],
            [
              -95.353701,
              29.682797
            ],
            [
              -95.35583,
              29.682737
            ]
          ]
        ]
      },
      "properties": {
        "account": "h-e-b",
        "name": "H-E-B eCommerce Fulfillment Center - Houston (Holmes Road) - Houston TX",
        "type": "E-commerce Fulfillment Center",
        "archetype": "#9",
        "archetypeName": "Gate + No GS (remote check-in)",
        "confidence": "high",
        "zone": "perimeter",
        "truckGate": true,
        "guardShack": false,
        "remoteGs": true,
        "fastLaneOpportunity": false,
        "backupSensitive": false,
        "dropYard": false,
        "multipleFacilities": false,
        "scale": false,
        "shipRcvSeparate": false,
        "urbanRural": "Urban",
        "dockDoors": "10-25",
        "dropArea": "0-10",
        "yardMetrics": {
          "dockDoorCount": 12,
          "trailersVisible": 6,
          "trailerParkingCapacity": 25,
          "truckGateCount": 1,
          "buildingCount": 1,
          "siteAreaAcres": 14,
          "railServed": false
        }
      }
    },
    {
      "type": "Feature",
      "geometry": {
        "type": "Polygon",
        "coordinates": [
          [
            [
              -95.35583,
              29.6822
            ],
            [
              -95.35583,
              29.682021
            ],
            [
              -95.355624,
              29.682021
            ],
            [
              -95.355624,
              29.6822
            ],
            [
              -95.35583,
              29.6822
            ]
          ]
        ]
      },
      "properties": {
        "account": "h-e-b",
        "name": "H-E-B eCommerce Fulfillment Center - Houston (Holmes Road) - Houston TX",
        "type": "E-commerce Fulfillment Center",
        "archetype": "#9",
        "archetypeName": "Gate + No GS (remote check-in)",
        "confidence": "high",
        "zone": "truckGate"
      }
    },
    {
      "type": "Feature",
      "geometry": {
        "type": "Polygon",
        "coordinates": [
          [
            [
              -95.355487,
              29.681902
            ],
            [
              -95.355487,
              29.681603
            ],
            [
              -95.353976,
              29.681603
            ],
            [
              -95.353976,
              29.681902
            ],
            [
              -95.355487,
              29.681902
            ]
          ]
        ]
      },
      "properties": {
        "account": "h-e-b",
        "name": "H-E-B eCommerce Fulfillment Center - Houston (Holmes Road) - Houston TX",
        "type": "E-commerce Fulfillment Center",
        "archetype": "#9",
        "archetypeName": "Gate + No GS (remote check-in)",
        "confidence": "high",
        "zone": "dropYard",
        "index": 1
      }
    },
    {
      "type": "Feature",
      "geometry": {
        "type": "Polygon",
        "coordinates": [
          [
            [
              -95.355487,
              29.682558
            ],
            [
              -95.355487,
              29.682379
            ],
            [
              -95.353976,
              29.682379
            ],
            [
              -95.353976,
              29.682558
            ],
            [
              -95.355487,
              29.682558
            ]
          ]
        ]
      },
      "properties": {
        "account": "h-e-b",
        "name": "H-E-B eCommerce Fulfillment Center - Houston (Holmes Road) - Houston TX",
        "type": "E-commerce Fulfillment Center",
        "archetype": "#9",
        "archetypeName": "Gate + No GS (remote check-in)",
        "confidence": "high",
        "zone": "dockApron",
        "index": 1
      }
    },
    {
      "type": "Feature",
      "geometry": {
        "type": "Polygon",
        "coordinates": [
          [
            [
              -95.761168,
              29.804242
            ],
            [
              -95.761168,
              29.802335
            ],
            [
              -95.759451,
              29.802335
            ],
            [
              -95.759451,
              29.804242
            ],
            [
              -95.761168,
              29.804242
            ]
          ]
        ]
      },
      "properties": {
        "account": "h-e-b",
        "name": "H-E-B eCommerce Fulfillment Center - Katy - Katy TX",
        "type": "E-commerce Fulfillment Center",
        "archetype": "#3",
        "archetypeName": "No Gate / No GS",
        "confidence": "high",
        "zone": "perimeter",
        "truckGate": false,
        "guardShack": false,
        "remoteGs": false,
        "fastLaneOpportunity": true,
        "backupSensitive": false,
        "dropYard": false,
        "multipleFacilities": false,
        "scale": false,
        "shipRcvSeparate": false,
        "urbanRural": "Urban",
        "dockDoors": "10-25",
        "dropArea": "0-10",
        "yardMetrics": {
          "dockDoorCount": 14,
          "trailersVisible": 7,
          "trailerParkingCapacity": 12,
          "truckGateCount": 1,
          "buildingCount": 1,
          "siteAreaAcres": 10.5,
          "railServed": false
        }
      }
    },
    {
      "type": "Feature",
      "geometry": {
        "type": "Polygon",
        "coordinates": [
          [
            [
              -95.761237,
              29.803527
            ],
            [
              -95.761237,
              29.803288
            ],
            [
              -95.761031,
              29.803288
            ],
            [
              -95.761031,
              29.803527
            ],
            [
              -95.761237,
              29.803527
            ]
          ]
        ]
      },
      "properties": {
        "account": "h-e-b",
        "name": "H-E-B eCommerce Fulfillment Center - Katy - Katy TX",
        "type": "E-commerce Fulfillment Center",
        "archetype": "#3",
        "archetypeName": "No Gate / No GS",
        "confidence": "high",
        "zone": "truckGate"
      }
    },
    {
      "type": "Feature",
      "geometry": {
        "type": "Polygon",
        "coordinates": [
          [
            [
              -95.760207,
              29.802752
            ],
            [
              -95.760207,
              29.802335
            ],
            [
              -95.759451,
              29.802335
            ],
            [
              -95.759451,
              29.802752
            ],
            [
              -95.760207,
              29.802752
            ]
          ]
        ]
      },
      "properties": {
        "account": "h-e-b",
        "name": "H-E-B eCommerce Fulfillment Center - Katy - Katy TX",
        "type": "E-commerce Fulfillment Center",
        "archetype": "#3",
        "archetypeName": "No Gate / No GS",
        "confidence": "high",
        "zone": "dropYard",
        "index": 1
      }
    },
    {
      "type": "Feature",
      "geometry": {
        "type": "Polygon",
        "coordinates": [
          [
            [
              -95.760962,
              29.804003
            ],
            [
              -95.760962,
              29.803825
            ],
            [
              -95.759726,
              29.803825
            ],
            [
              -95.759726,
              29.804003
            ],
            [
              -95.760962,
              29.804003
            ]
          ]
        ]
      },
      "properties": {
        "account": "h-e-b",
        "name": "H-E-B eCommerce Fulfillment Center - Katy - Katy TX",
        "type": "E-commerce Fulfillment Center",
        "archetype": "#3",
        "archetypeName": "No Gate / No GS",
        "confidence": "high",
        "zone": "dockApron",
        "index": 1
      }
    },
    {
      "type": "Feature",
      "geometry": {
        "type": "Polygon",
        "coordinates": [
          [
            [
              -96.798311,
              33.055893
            ],
            [
              -96.798311,
              33.055088
            ],
            [
              -96.797349,
              33.05434
            ],
            [
              -96.796251,
              33.055836
            ],
            [
              -96.797143,
              33.056642
            ],
            [
              -96.798311,
              33.055893
            ]
          ]
        ]
      },
      "properties": {
        "account": "h-e-b",
        "name": "H-E-B eCommerce Fulfillment Center - Plano - Plano TX",
        "type": "E-commerce Fulfillment Center",
        "archetype": "#3",
        "archetypeName": "No Gate / No GS",
        "confidence": "high",
        "zone": "perimeter",
        "truckGate": false,
        "guardShack": false,
        "remoteGs": false,
        "fastLaneOpportunity": false,
        "backupSensitive": false,
        "dropYard": false,
        "multipleFacilities": false,
        "scale": false,
        "shipRcvSeparate": false,
        "urbanRural": "Urban",
        "dockDoors": "0-10",
        "dropArea": "NONE",
        "yardMetrics": {
          "dockDoorCount": 3,
          "trailersVisible": 2,
          "trailerParkingCapacity": 3,
          "truckGateCount": 1,
          "buildingCount": 1,
          "siteAreaAcres": 17.5,
          "railServed": false
        }
      }
    },
    {
      "type": "Feature",
      "geometry": {
        "type": "Polygon",
        "coordinates": [
          [
            [
              -96.798173,
              33.055606
            ],
            [
              -96.797967,
              33.055376
            ],
            [
              -96.797006,
              33.056066
            ],
            [
              -96.797212,
              33.056296
            ],
            [
              -96.798173,
              33.055606
            ]
          ]
        ]
      },
      "properties": {
        "account": "h-e-b",
        "name": "H-E-B eCommerce Fulfillment Center - Plano - Plano TX",
        "type": "E-commerce Fulfillment Center",
        "archetype": "#3",
        "archetypeName": "No Gate / No GS",
        "confidence": "high",
        "zone": "dockApron",
        "index": 1
      }
    },
    {
      "type": "Feature",
      "geometry": {
        "type": "Polygon",
        "coordinates": [
          [
            [
              -98.232572,
              29.571089
            ],
            [
              -98.232572,
              29.568401
            ],
            [
              -98.231473,
              29.567386
            ],
            [
              -98.229825,
              29.567804
            ],
            [
              -98.229757,
              29.570969
            ],
            [
              -98.232572,
              29.571089
            ]
          ]
        ]
      },
      "properties": {
        "account": "h-e-b",
        "name": "H-E-B eCommerce Fulfillment Center - Cibolo - Cibolo TX",
        "type": "E-commerce Fulfillment Center",
        "archetype": "#3",
        "archetypeName": "No Gate / No GS",
        "confidence": "medium",
        "zone": "perimeter",
        "truckGate": false,
        "guardShack": false,
        "remoteGs": false,
        "fastLaneOpportunity": false,
        "backupSensitive": false,
        "dropYard": false,
        "multipleFacilities": false,
        "scale": false,
        "shipRcvSeparate": false,
        "urbanRural": "Rural",
        "dockDoors": "0-10",
        "dropArea": "NONE",
        "yardMetrics": {
          "dockDoorCount": 4,
          "trailersVisible": 1,
          "trailerParkingCapacity": 4,
          "truckGateCount": 1,
          "buildingCount": 1,
          "siteAreaAcres": 24,
          "railServed": false
        }
      }
    },
    {
      "type": "Feature",
      "geometry": {
        "type": "Polygon",
        "coordinates": [
          [
            [
              -98.495965,
              29.425788
            ],
            [
              -98.495965,
              29.42507
            ],
            [
              -98.495141,
              29.42507
            ],
            [
              -98.495141,
              29.425788
            ],
            [
              -98.495965,
              29.425788
            ]
          ]
        ]
      },
      "properties": {
        "account": "h-e-b",
        "name": "H-E-B eCommerce Fulfillment Center - San Antonio - San Antonio TX",
        "type": "E-commerce Fulfillment Center",
        "archetype": "#3",
        "archetypeName": "No Gate / No GS",
        "confidence": "low",
        "zone": "perimeter",
        "truckGate": false,
        "guardShack": false,
        "remoteGs": false,
        "fastLaneOpportunity": false,
        "backupSensitive": false,
        "dropYard": false,
        "multipleFacilities": false,
        "scale": false,
        "shipRcvSeparate": false,
        "urbanRural": "Urban",
        "dockDoors": "NONE",
        "dropArea": "NONE",
        "yardMetrics": {
          "dockDoorCount": 0,
          "trailersVisible": 0,
          "trailerParkingCapacity": 0,
          "truckGateCount": 0,
          "buildingCount": 0,
          "siteAreaAcres": 0,
          "railServed": false
        }
      }
    },
    {
      "type": "Feature",
      "geometry": {
        "type": "Polygon",
        "coordinates": [
          [
            [
              -96.878581,
              33.22143
            ],
            [
              -96.878649,
              33.220396
            ],
            [
              -96.876727,
              33.220338
            ],
            [
              -96.876727,
              33.221372
            ],
            [
              -96.878581,
              33.22143
            ]
          ]
        ]
      },
      "properties": {
        "account": "h-e-b",
        "name": "H-E-B Frisco Electronic Fulfillment Center (in development) - Frisco TX",
        "type": "E-commerce Fulfillment Center (planned, construction 2026-2027)",
        "archetype": "#3",
        "archetypeName": "No Gate / No GS",
        "confidence": "low",
        "zone": "perimeter",
        "truckGate": false,
        "guardShack": false,
        "remoteGs": false,
        "fastLaneOpportunity": false,
        "backupSensitive": false,
        "dropYard": false,
        "multipleFacilities": false,
        "scale": false,
        "shipRcvSeparate": false,
        "urbanRural": "Urban",
        "dockDoors": "NONE",
        "dropArea": "NONE",
        "yardMetrics": {
          "dockDoorCount": 0,
          "trailersVisible": 0,
          "trailerParkingCapacity": 0,
          "truckGateCount": 0,
          "buildingCount": 1,
          "siteAreaAcres": 23,
          "railServed": false
        }
      }
    },
    {
      "type": "Feature",
      "geometry": {
        "type": "Polygon",
        "coordinates": [
          [
            [
              -96.070866,
              30.107576
            ],
            [
              -96.070317,
              30.104012
            ],
            [
              -96.066747,
              30.099497
            ],
            [
              -96.061253,
              30.099972
            ],
            [
              -96.057958,
              30.1052
            ],
            [
              -96.05988,
              30.108051
            ],
            [
              -96.070866,
              30.107576
            ]
          ]
        ]
      },
      "properties": {
        "account": "h-e-b",
        "name": "H-E-B Hempstead Distribution Campus (in development) - Hempstead TX",
        "type": "Distribution Campus (multi-phase, Phase 1 under construction)",
        "archetype": "#3",
        "archetypeName": "No Gate / No GS",
        "confidence": "low",
        "zone": "perimeter",
        "truckGate": false,
        "guardShack": false,
        "remoteGs": false,
        "fastLaneOpportunity": false,
        "backupSensitive": false,
        "dropYard": false,
        "multipleFacilities": true,
        "scale": false,
        "shipRcvSeparate": false,
        "urbanRural": "Rural",
        "dockDoors": "NONE",
        "dropArea": "NONE",
        "yardMetrics": {
          "dockDoorCount": 0,
          "trailersVisible": 0,
          "trailerParkingCapacity": 0,
          "truckGateCount": 0,
          "buildingCount": 0,
          "siteAreaAcres": 423,
          "railServed": true
        }
      }
    }
  ]
}
