{
  "type": "FeatureCollection",
  "features": [
    {
      "type": "Feature",
      "geometry": {
        "type": "Polygon",
        "coordinates": [
          [
            [
              -88.216873,
              41.625742
            ],
            [
              -88.217285,
              41.624203
            ],
            [
              -88.217011,
              41.62215
            ],
            [
              -88.212891,
              41.62215
            ],
            [
              -88.212341,
              41.622868
            ],
            [
              -88.212616,
              41.62605
            ],
            [
              -88.216873,
              41.625742
            ]
          ]
        ]
      },
      "properties": {
        "account": "diageo",
        "name": "Diageo Lincolnway RTD Canning - Plainfield IL",
        "type": "Manufacturing - RTD Canning Facility",
        "archetype": "#3",
        "archetypeName": "No Gate / No GS",
        "confidence": "high",
        "zone": "perimeter",
        "truckGate": false,
        "guardShack": false,
        "remoteGs": false,
        "fastLaneOpportunity": true,
        "backupSensitive": false,
        "dropYard": true,
        "multipleFacilities": true,
        "scale": false,
        "shipRcvSeparate": false,
        "urbanRural": "Rural",
        "dockDoors": "25-50",
        "dropArea": "50+",
        "yardMetrics": {
          "dockDoorCount": 30,
          "trailersVisible": 70,
          "trailerParkingCapacity": 110,
          "truckGateCount": 2,
          "buildingCount": 3,
          "siteAreaAcres": 80.9,
          "railServed": false
        }
      }
    },
    {
      "type": "Feature",
      "geometry": {
        "type": "Polygon",
        "coordinates": [
          [
            [
              -88.216873,
              41.622457
            ],
            [
              -88.216873,
              41.622047
            ],
            [
              -88.215912,
              41.622047
            ],
            [
              -88.215912,
              41.622457
            ],
            [
              -88.216873,
              41.622457
            ]
          ]
        ]
      },
      "properties": {
        "account": "diageo",
        "name": "Diageo Lincolnway RTD Canning - Plainfield IL",
        "type": "Manufacturing - RTD Canning Facility",
        "archetype": "#3",
        "archetypeName": "No Gate / No GS",
        "confidence": "high",
        "zone": "truckGate"
      }
    },
    {
      "type": "Feature",
      "geometry": {
        "type": "Polygon",
        "coordinates": [
          [
            [
              -88.219071,
              41.6241
            ],
            [
              -88.219208,
              41.622765
            ],
            [
              -88.216736,
              41.622457
            ],
            [
              -88.216599,
              41.623792
            ],
            [
              -88.219071,
              41.6241
            ]
          ]
        ]
      },
      "properties": {
        "account": "diageo",
        "name": "Diageo Lincolnway RTD Canning - Plainfield IL",
        "type": "Manufacturing - RTD Canning Facility",
        "archetype": "#3",
        "archetypeName": "No Gate / No GS",
        "confidence": "high",
        "zone": "dropYard",
        "index": 1
      }
    },
    {
      "type": "Feature",
      "geometry": {
        "type": "Polygon",
        "coordinates": [
          [
            [
              -88.216324,
              41.623587
            ],
            [
              -88.216461,
              41.623176
            ],
            [
              -88.213989,
              41.622868
            ],
            [
              -88.213852,
              41.623279
            ],
            [
              -88.216324,
              41.623587
            ]
          ]
        ]
      },
      "properties": {
        "account": "diageo",
        "name": "Diageo Lincolnway RTD Canning - Plainfield IL",
        "type": "Manufacturing - RTD Canning Facility",
        "archetype": "#3",
        "archetypeName": "No Gate / No GS",
        "confidence": "high",
        "zone": "dockApron",
        "index": 1
      }
    },
    {
      "type": "Feature",
      "geometry": {
        "type": "Polygon",
        "coordinates": [
          [
            [
              -88.250897,
              41.628798
            ],
            [
              -88.251447,
              41.62192
            ],
            [
              -88.247052,
              41.621612
            ],
            [
              -88.246503,
              41.62849
            ],
            [
              -88.250897,
              41.628798
            ]
          ]
        ]
      },
      "properties": {
        "account": "diageo",
        "name": "Diageo Plainfield Distribution Warehouse - Plainfield IL",
        "type": "Distribution Center / Warehouse",
        "archetype": "#3",
        "archetypeName": "No Gate / No GS",
        "confidence": "high",
        "zone": "perimeter",
        "truckGate": false,
        "guardShack": false,
        "remoteGs": false,
        "fastLaneOpportunity": true,
        "backupSensitive": false,
        "dropYard": true,
        "multipleFacilities": false,
        "scale": false,
        "shipRcvSeparate": true,
        "urbanRural": "Rural",
        "dockDoors": "50+",
        "dropArea": "50+",
        "yardMetrics": {
          "dockDoorCount": 130,
          "trailersVisible": 160,
          "trailerParkingCapacity": 220,
          "truckGateCount": 1,
          "buildingCount": 1,
          "siteAreaAcres": 81.8,
          "railServed": false
        }
      }
    },
    {
      "type": "Feature",
      "geometry": {
        "type": "Polygon",
        "coordinates": [
          [
            [
              -88.250073,
              41.62192
            ],
            [
              -88.250073,
              41.62151
            ],
            [
              -88.2487,
              41.62151
            ],
            [
              -88.2487,
              41.62192
            ],
            [
              -88.250073,
              41.62192
            ]
          ]
        ]
      },
      "properties": {
        "account": "diageo",
        "name": "Diageo Plainfield Distribution Warehouse - Plainfield IL",
        "type": "Distribution Center / Warehouse",
        "archetype": "#3",
        "archetypeName": "No Gate / No GS",
        "confidence": "high",
        "zone": "truckGate"
      }
    },
    {
      "type": "Feature",
      "geometry": {
        "type": "Polygon",
        "coordinates": [
          [
            [
              -88.251447,
              41.628593
            ],
            [
              -88.251859,
              41.622126
            ],
            [
              -88.250897,
              41.622023
            ],
            [
              -88.250348,
              41.62849
            ],
            [
              -88.251447,
              41.628593
            ]
          ]
        ]
      },
      "properties": {
        "account": "diageo",
        "name": "Diageo Plainfield Distribution Warehouse - Plainfield IL",
        "type": "Distribution Center / Warehouse",
        "archetype": "#3",
        "archetypeName": "No Gate / No GS",
        "confidence": "high",
        "zone": "dropYard",
        "index": 1
      }
    },
    {
      "type": "Feature",
      "geometry": {
        "type": "Polygon",
        "coordinates": [
          [
            [
              -88.247327,
              41.628285
            ],
            [
              -88.247739,
              41.62346
            ],
            [
              -88.246777,
              41.623358
            ],
            [
              -88.246228,
              41.628182
            ],
            [
              -88.247327,
              41.628285
            ]
          ]
        ]
      },
      "properties": {
        "account": "diageo",
        "name": "Diageo Plainfield Distribution Warehouse - Plainfield IL",
        "type": "Distribution Center / Warehouse",
        "archetype": "#3",
        "archetypeName": "No Gate / No GS",
        "confidence": "high",
        "zone": "dropYard",
        "index": 2
      }
    },
    {
      "type": "Feature",
      "geometry": {
        "type": "Polygon",
        "coordinates": [
          [
            [
              -88.251309,
              41.62849
            ],
            [
              -88.251721,
              41.622228
            ],
            [
              -88.251035,
              41.622126
            ],
            [
              -88.250485,
              41.628388
            ],
            [
              -88.251309,
              41.62849
            ]
          ]
        ]
      },
      "properties": {
        "account": "diageo",
        "name": "Diageo Plainfield Distribution Warehouse - Plainfield IL",
        "type": "Distribution Center / Warehouse",
        "archetype": "#3",
        "archetypeName": "No Gate / No GS",
        "confidence": "high",
        "zone": "dockApron",
        "index": 1
      }
    },
    {
      "type": "Feature",
      "geometry": {
        "type": "Polygon",
        "coordinates": [
          [
            [
              -88.247464,
              41.628182
            ],
            [
              -88.247876,
              41.623255
            ],
            [
              -88.247052,
              41.623152
            ],
            [
              -88.24664,
              41.62808
            ],
            [
              -88.247464,
              41.628182
            ]
          ]
        ]
      },
      "properties": {
        "account": "diageo",
        "name": "Diageo Plainfield Distribution Warehouse - Plainfield IL",
        "type": "Distribution Center / Warehouse",
        "archetype": "#3",
        "archetypeName": "No Gate / No GS",
        "confidence": "high",
        "zone": "dockApron",
        "index": 2
      }
    },
    {
      "type": "Feature",
      "geometry": {
        "type": "Polygon",
        "coordinates": [
          [
            [
              -88.250623,
              41.622126
            ],
            [
              -88.25076,
              41.62151
            ],
            [
              -88.247739,
              41.621304
            ],
            [
              -88.247601,
              41.62192
            ],
            [
              -88.250623,
              41.622126
            ]
          ]
        ]
      },
      "properties": {
        "account": "diageo",
        "name": "Diageo Plainfield Distribution Warehouse - Plainfield IL",
        "type": "Distribution Center / Warehouse",
        "archetype": "#3",
        "archetypeName": "No Gate / No GS",
        "confidence": "high",
        "zone": "staging"
      }
    },
    {
      "type": "Feature",
      "geometry": {
        "type": "Polygon",
        "coordinates": [
          [
            [
              -88.216747,
              41.625527
            ],
            [
              -88.217159,
              41.62255
            ],
            [
              -88.212764,
              41.622242
            ],
            [
              -88.212352,
              41.625219
            ],
            [
              -88.216747,
              41.625527
            ]
          ]
        ]
      },
      "properties": {
        "account": "diageo",
        "name": "Diageo Plainfield Bottling Plant - Plainfield IL",
        "type": "Manufacturing - Bottling Plant",
        "archetype": "#6",
        "archetypeName": "Gate + GS (not BU sens.) + campus",
        "confidence": "high",
        "zone": "perimeter",
        "truckGate": true,
        "guardShack": true,
        "remoteGs": false,
        "fastLaneOpportunity": false,
        "backupSensitive": false,
        "dropYard": true,
        "multipleFacilities": true,
        "scale": false,
        "shipRcvSeparate": false,
        "urbanRural": "Rural",
        "dockDoors": "25-50",
        "dropArea": "10-25",
        "yardMetrics": {
          "dockDoorCount": 45,
          "trailersVisible": 35,
          "trailerParkingCapacity": 60,
          "truckGateCount": 2,
          "buildingCount": 1,
          "siteAreaAcres": 61.8,
          "railServed": false
        }
      }
    },
    {
      "type": "Feature",
      "geometry": {
        "type": "Polygon",
        "coordinates": [
          [
            [
              -88.216609,
              41.622652
            ],
            [
              -88.216609,
              41.622242
            ],
            [
              -88.215648,
              41.622242
            ],
            [
              -88.215648,
              41.622652
            ],
            [
              -88.216609,
              41.622652
            ]
          ]
        ]
      },
      "properties": {
        "account": "diageo",
        "name": "Diageo Plainfield Bottling Plant - Plainfield IL",
        "type": "Manufacturing - Bottling Plant",
        "archetype": "#6",
        "archetypeName": "Gate + GS (not BU sens.) + campus",
        "confidence": "high",
        "zone": "truckGate"
      }
    },
    {
      "type": "Feature",
      "geometry": {
        "type": "Polygon",
        "coordinates": [
          [
            [
              -88.219081,
              41.624295
            ],
            [
              -88.219219,
              41.623165
            ],
            [
              -88.216884,
              41.622857
            ],
            [
              -88.216747,
              41.623987
            ],
            [
              -88.219081,
              41.624295
            ]
          ]
        ]
      },
      "properties": {
        "account": "diageo",
        "name": "Diageo Plainfield Bottling Plant - Plainfield IL",
        "type": "Manufacturing - Bottling Plant",
        "archetype": "#6",
        "archetypeName": "Gate + GS (not BU sens.) + campus",
        "confidence": "high",
        "zone": "dropYard",
        "index": 1
      }
    },
    {
      "type": "Feature",
      "geometry": {
        "type": "Polygon",
        "coordinates": [
          [
            [
              -88.216335,
              41.624911
            ],
            [
              -88.216472,
              41.6245
            ],
            [
              -88.213451,
              41.624192
            ],
            [
              -88.213313,
              41.624603
            ],
            [
              -88.216335,
              41.624911
            ]
          ]
        ]
      },
      "properties": {
        "account": "diageo",
        "name": "Diageo Plainfield Bottling Plant - Plainfield IL",
        "type": "Manufacturing - Bottling Plant",
        "archetype": "#6",
        "archetypeName": "Gate + GS (not BU sens.) + campus",
        "confidence": "high",
        "zone": "dockApron",
        "index": 1
      }
    },
    {
      "type": "Feature",
      "geometry": {
        "type": "Polygon",
        "coordinates": [
          [
            [
              -86.366423,
              32.281054
            ],
            [
              -86.36862,
              32.273856
            ],
            [
              -86.362577,
              32.273623
            ],
            [
              -86.362303,
              32.280822
            ],
            [
              -86.366423,
              32.281054
            ]
          ]
        ]
      },
      "properties": {
        "account": "diageo",
        "name": "Diageo Montgomery Manufacturing & Warehousing - Hope Hull AL",
        "type": "Manufacturing & Warehousing Facility",
        "archetype": "#3",
        "archetypeName": "No Gate / No GS",
        "confidence": "medium",
        "zone": "perimeter",
        "truckGate": false,
        "guardShack": false,
        "remoteGs": false,
        "fastLaneOpportunity": false,
        "backupSensitive": false,
        "dropYard": false,
        "multipleFacilities": true,
        "scale": false,
        "shipRcvSeparate": false,
        "urbanRural": "Rural",
        "dockDoors": "25-50",
        "dropArea": "NONE",
        "yardMetrics": {
          "dockDoorCount": 40,
          "trailersVisible": 0,
          "trailerParkingCapacity": 60,
          "truckGateCount": 1,
          "buildingCount": 2,
          "siteAreaAcres": 93.2,
          "railServed": false
        }
      }
    },
    {
      "type": "Feature",
      "geometry": {
        "type": "Polygon",
        "coordinates": [
          [
            [
              -86.365873,
              32.280706
            ],
            [
              -86.365873,
              32.280242
            ],
            [
              -86.3645,
              32.280242
            ],
            [
              -86.3645,
              32.280706
            ],
            [
              -86.365873,
              32.280706
            ]
          ]
        ]
      },
      "properties": {
        "account": "diageo",
        "name": "Diageo Montgomery Manufacturing & Warehousing - Hope Hull AL",
        "type": "Manufacturing & Warehousing Facility",
        "archetype": "#3",
        "archetypeName": "No Gate / No GS",
        "confidence": "medium",
        "zone": "truckGate"
      }
    },
    {
      "type": "Feature",
      "geometry": {
        "type": "Polygon",
        "coordinates": [
          [
            [
              -86.368483,
              32.275249
            ],
            [
              -86.36862,
              32.273856
            ],
            [
              -86.364637,
              32.273623
            ],
            [
              -86.3645,
              32.275017
            ],
            [
              -86.368483,
              32.275249
            ]
          ]
        ]
      },
      "properties": {
        "account": "diageo",
        "name": "Diageo Montgomery Manufacturing & Warehousing - Hope Hull AL",
        "type": "Manufacturing & Warehousing Facility",
        "archetype": "#3",
        "archetypeName": "No Gate / No GS",
        "confidence": "medium",
        "zone": "dropYard",
        "index": 1
      }
    },
    {
      "type": "Feature",
      "geometry": {
        "type": "Polygon",
        "coordinates": [
          [
            [
              -86.365736,
              32.280125
            ],
            [
              -86.365873,
              32.277223
            ],
            [
              -86.363539,
              32.277107
            ],
            [
              -86.363401,
              32.280009
            ],
            [
              -86.365736,
              32.280125
            ]
          ]
        ]
      },
      "properties": {
        "account": "diageo",
        "name": "Diageo Montgomery Manufacturing & Warehousing - Hope Hull AL",
        "type": "Manufacturing & Warehousing Facility",
        "archetype": "#3",
        "archetypeName": "No Gate / No GS",
        "confidence": "medium",
        "zone": "dockApron",
        "index": 1
      }
    },
    {
      "type": "Feature",
      "geometry": {
        "type": "Polygon",
        "coordinates": [
          [
            [
              -85.284081,
              37.54726
            ],
            [
              -85.284219,
              37.545028
            ],
            [
              -85.278313,
              37.5453
            ],
            [
              -85.27797,
              37.545844
            ],
            [
              -85.278176,
              37.547532
            ],
            [
              -85.284081,
              37.54726
            ]
          ]
        ]
      },
      "properties": {
        "account": "diageo",
        "name": "Diageo Lebanon Distillery - Lebanon KY",
        "type": "Distillery (Carbon-Neutral)",
        "archetype": "#3",
        "archetypeName": "No Gate / No GS",
        "confidence": "high",
        "zone": "perimeter",
        "truckGate": false,
        "guardShack": false,
        "remoteGs": false,
        "fastLaneOpportunity": false,
        "backupSensitive": false,
        "dropYard": false,
        "multipleFacilities": true,
        "scale": false,
        "shipRcvSeparate": false,
        "urbanRural": "Rural",
        "dockDoors": "0-10",
        "dropArea": "0-10",
        "yardMetrics": {
          "dockDoorCount": 6,
          "trailersVisible": 4,
          "trailerParkingCapacity": 12,
          "truckGateCount": 1,
          "buildingCount": 11,
          "siteAreaAcres": 142,
          "railServed": false
        }
      }
    },
    {
      "type": "Feature",
      "geometry": {
        "type": "Polygon",
        "coordinates": [
          [
            [
              -85.278176,
              37.545736
            ],
            [
              -85.278176,
              37.5453
            ],
            [
              -85.277352,
              37.5453
            ],
            [
              -85.277352,
              37.545736
            ],
            [
              -85.278176,
              37.545736
            ]
          ]
        ]
      },
      "properties": {
        "account": "diageo",
        "name": "Diageo Lebanon Distillery - Lebanon KY",
        "type": "Distillery (Carbon-Neutral)",
        "archetype": "#3",
        "archetypeName": "No Gate / No GS",
        "confidence": "high",
        "zone": "truckGate"
      }
    },
    {
      "type": "Feature",
      "geometry": {
        "type": "Polygon",
        "coordinates": [
          [
            [
              -85.284081,
              37.547478
            ],
            [
              -85.284081,
              37.545844
            ],
            [
              -85.279137,
              37.545844
            ],
            [
              -85.279137,
              37.547478
            ],
            [
              -85.284081,
              37.547478
            ]
          ]
        ]
      },
      "properties": {
        "account": "diageo",
        "name": "Diageo Lebanon Distillery - Lebanon KY",
        "type": "Distillery (Carbon-Neutral)",
        "archetype": "#3",
        "archetypeName": "No Gate / No GS",
        "confidence": "high",
        "zone": "dropYard",
        "index": 1
      }
    },
    {
      "type": "Feature",
      "geometry": {
        "type": "Polygon",
        "coordinates": [
          [
            [
              -85.279,
              37.54628
            ],
            [
              -85.279,
              37.545736
            ],
            [
              -85.277352,
              37.545736
            ],
            [
              -85.277352,
              37.54628
            ],
            [
              -85.279,
              37.54628
            ]
          ]
        ]
      },
      "properties": {
        "account": "diageo",
        "name": "Diageo Lebanon Distillery - Lebanon KY",
        "type": "Distillery (Carbon-Neutral)",
        "archetype": "#3",
        "archetypeName": "No Gate / No GS",
        "confidence": "high",
        "zone": "dockApron",
        "index": 1
      }
    },
    {
      "type": "Feature",
      "geometry": {
        "type": "Polygon",
        "coordinates": [
          [
            [
              -85.14732,
              38.227763
            ],
            [
              -85.147869,
              38.2228
            ],
            [
              -85.137707,
              38.221721
            ],
            [
              -85.137158,
              38.226252
            ],
            [
              -85.14732,
              38.227763
            ]
          ]
        ]
      },
      "properties": {
        "account": "diageo",
        "name": "Bulleit Distilling Co. (Shelbyville) - Shelbyville KY",
        "type": "Distillery",
        "archetype": "#3",
        "archetypeName": "No Gate / No GS",
        "confidence": "high",
        "zone": "perimeter",
        "truckGate": false,
        "guardShack": false,
        "remoteGs": false,
        "fastLaneOpportunity": true,
        "backupSensitive": false,
        "dropYard": false,
        "multipleFacilities": true,
        "scale": true,
        "shipRcvSeparate": false,
        "urbanRural": "Rural",
        "dockDoors": "0-10",
        "dropArea": "NONE",
        "yardMetrics": {
          "dockDoorCount": 4,
          "trailersVisible": 1,
          "trailerParkingCapacity": 8,
          "truckGateCount": 1,
          "buildingCount": 14,
          "siteAreaAcres": 38,
          "railServed": false
        }
      }
    },
    {
      "type": "Feature",
      "geometry": {
        "type": "Polygon",
        "coordinates": [
          [
            [
              -85.141827,
              38.222368
            ],
            [
              -85.142101,
              38.221505
            ],
            [
              -85.140179,
              38.22129
            ],
            [
              -85.139904,
              38.222153
            ],
            [
              -85.141827,
              38.222368
            ]
          ]
        ]
      },
      "properties": {
        "account": "diageo",
        "name": "Bulleit Distilling Co. (Shelbyville) - Shelbyville KY",
        "type": "Distillery",
        "archetype": "#3",
        "archetypeName": "No Gate / No GS",
        "confidence": "high",
        "zone": "truckGate"
      }
    },
    {
      "type": "Feature",
      "geometry": {
        "type": "Polygon",
        "coordinates": [
          [
            [
              -85.146221,
              38.225821
            ],
            [
              -85.146496,
              38.224526
            ],
            [
              -85.13908,
              38.223663
            ],
            [
              -85.138805,
              38.224958
            ],
            [
              -85.146221,
              38.225821
            ]
          ]
        ]
      },
      "properties": {
        "account": "diageo",
        "name": "Bulleit Distilling Co. (Shelbyville) - Shelbyville KY",
        "type": "Distillery",
        "archetype": "#3",
        "archetypeName": "No Gate / No GS",
        "confidence": "high",
        "zone": "dropYard",
        "index": 1
      }
    },
    {
      "type": "Feature",
      "geometry": {
        "type": "Polygon",
        "coordinates": [
          [
            [
              -85.145947,
              38.224742
            ],
            [
              -85.146221,
              38.223879
            ],
            [
              -85.142101,
              38.223447
            ],
            [
              -85.141827,
              38.22431
            ],
            [
              -85.145947,
              38.224742
            ]
          ]
        ]
      },
      "properties": {
        "account": "diageo",
        "name": "Bulleit Distilling Co. (Shelbyville) - Shelbyville KY",
        "type": "Distillery",
        "archetype": "#3",
        "archetypeName": "No Gate / No GS",
        "confidence": "high",
        "zone": "dockApron",
        "index": 1
      }
    },
    {
      "type": "Feature",
      "geometry": {
        "type": "Polygon",
        "coordinates": [
          [
            [
              -85.813395,
              38.212521
            ],
            [
              -85.814768,
              38.2095
            ],
            [
              -85.810923,
              38.208205
            ],
            [
              -85.809549,
              38.211226
            ],
            [
              -85.813395,
              38.212521
            ]
          ]
        ]
      },
      "properties": {
        "account": "diageo",
        "name": "Stitzel-Weller Distillery - Louisville KY",
        "type": "Distillery / Aging Warehouse",
        "archetype": "#6",
        "archetypeName": "Gate + GS (not BU sens.) + campus",
        "confidence": "high",
        "zone": "perimeter",
        "truckGate": true,
        "guardShack": true,
        "remoteGs": false,
        "fastLaneOpportunity": false,
        "backupSensitive": false,
        "dropYard": true,
        "multipleFacilities": true,
        "scale": false,
        "shipRcvSeparate": false,
        "urbanRural": "Urban",
        "dockDoors": "10-25",
        "dropArea": "25-50",
        "yardMetrics": {
          "dockDoorCount": 14,
          "trailersVisible": 28,
          "trailerParkingCapacity": 45,
          "truckGateCount": 1,
          "buildingCount": 24,
          "siteAreaAcres": 33,
          "railServed": true
        }
      }
    },
    {
      "type": "Feature",
      "geometry": {
        "type": "Polygon",
        "coordinates": [
          [
            [
              -85.814081,
              38.2095
            ],
            [
              -85.814356,
              38.209068
            ],
            [
              -85.813395,
              38.208745
            ],
            [
              -85.81312,
              38.209176
            ],
            [
              -85.814081,
              38.2095
            ]
          ]
        ]
      },
      "properties": {
        "account": "diageo",
        "name": "Stitzel-Weller Distillery - Louisville KY",
        "type": "Distillery / Aging Warehouse",
        "archetype": "#6",
        "archetypeName": "Gate + GS (not BU sens.) + campus",
        "confidence": "high",
        "zone": "truckGate"
      }
    },
    {
      "type": "Feature",
      "geometry": {
        "type": "Polygon",
        "coordinates": [
          [
            [
              -85.807352,
              38.207773
            ],
            [
              -85.807627,
              38.206802
            ],
            [
              -85.804331,
              38.206155
            ],
            [
              -85.804056,
              38.207126
            ],
            [
              -85.807352,
              38.207773
            ]
          ]
        ]
      },
      "properties": {
        "account": "diageo",
        "name": "Stitzel-Weller Distillery - Louisville KY",
        "type": "Distillery / Aging Warehouse",
        "archetype": "#6",
        "archetypeName": "Gate + GS (not BU sens.) + campus",
        "confidence": "high",
        "zone": "dropYard",
        "index": 1
      }
    },
    {
      "type": "Feature",
      "geometry": {
        "type": "Polygon",
        "coordinates": [
          [
            [
              -85.812845,
              38.211011
            ],
            [
              -85.81312,
              38.210471
            ],
            [
              -85.810923,
              38.209824
            ],
            [
              -85.810648,
              38.210363
            ],
            [
              -85.812845,
              38.211011
            ]
          ]
        ]
      },
      "properties": {
        "account": "diageo",
        "name": "Stitzel-Weller Distillery - Louisville KY",
        "type": "Distillery / Aging Warehouse",
        "archetype": "#6",
        "archetypeName": "Gate + GS (not BU sens.) + campus",
        "confidence": "high",
        "zone": "dockApron",
        "index": 1
      }
    },
    {
      "type": "Feature",
      "geometry": {
        "type": "Polygon",
        "coordinates": [
          [
            [
              -86.245923,
              35.439059
            ],
            [
              -86.245923,
              35.437717
            ],
            [
              -86.243313,
              35.437605
            ],
            [
              -86.243313,
              35.438948
            ],
            [
              -86.245923,
              35.439059
            ]
          ]
        ]
      },
      "properties": {
        "account": "diageo",
        "name": "Cascade Hollow Distilling Co. (George Dickel) - Tullahoma TN",
        "type": "Distillery",
        "archetype": "#3",
        "archetypeName": "No Gate / No GS",
        "confidence": "high",
        "zone": "perimeter",
        "truckGate": false,
        "guardShack": false,
        "remoteGs": false,
        "fastLaneOpportunity": false,
        "backupSensitive": false,
        "dropYard": false,
        "multipleFacilities": true,
        "scale": false,
        "shipRcvSeparate": false,
        "urbanRural": "Rural",
        "dockDoors": "0-10",
        "dropArea": "NONE",
        "yardMetrics": {
          "dockDoorCount": 6,
          "trailersVisible": 6,
          "trailerParkingCapacity": 12,
          "truckGateCount": 1,
          "buildingCount": 8,
          "siteAreaAcres": 18,
          "railServed": false
        }
      }
    },
    {
      "type": "Feature",
      "geometry": {
        "type": "Polygon",
        "coordinates": [
          [
            [
              -86.245923,
              35.4385
            ],
            [
              -86.245923,
              35.438052
            ],
            [
              -86.245373,
              35.438052
            ],
            [
              -86.245373,
              35.4385
            ],
            [
              -86.245923,
              35.4385
            ]
          ]
        ]
      },
      "properties": {
        "account": "diageo",
        "name": "Cascade Hollow Distilling Co. (George Dickel) - Tullahoma TN",
        "type": "Distillery",
        "archetype": "#3",
        "archetypeName": "No Gate / No GS",
        "confidence": "high",
        "zone": "truckGate"
      }
    },
    {
      "type": "Feature",
      "geometry": {
        "type": "Polygon",
        "coordinates": [
          [
            [
              -86.244687,
              35.438724
            ],
            [
              -86.244687,
              35.438276
            ],
            [
              -86.243451,
              35.438164
            ],
            [
              -86.243451,
              35.438612
            ],
            [
              -86.244687,
              35.438724
            ]
          ]
        ]
      },
      "properties": {
        "account": "diageo",
        "name": "Cascade Hollow Distilling Co. (George Dickel) - Tullahoma TN",
        "type": "Distillery",
        "archetype": "#3",
        "archetypeName": "No Gate / No GS",
        "confidence": "high",
        "zone": "dockApron",
        "index": 1
      }
    },
    {
      "type": "Feature",
      "geometry": {
        "type": "Polygon",
        "coordinates": [
          [
            [
              -97.135879,
              31.550673
            ],
            [
              -97.135914,
              31.549913
            ],
            [
              -97.135485,
              31.549883
            ],
            [
              -97.13545,
              31.550644
            ],
            [
              -97.135879,
              31.550673
            ]
          ]
        ]
      },
      "properties": {
        "account": "diageo",
        "name": "Balcones Distilling - Waco TX",
        "type": "Distillery",
        "archetype": "#3",
        "archetypeName": "No Gate / No GS",
        "confidence": "high",
        "zone": "perimeter",
        "truckGate": false,
        "guardShack": false,
        "remoteGs": false,
        "fastLaneOpportunity": false,
        "backupSensitive": true,
        "dropYard": false,
        "multipleFacilities": false,
        "scale": false,
        "shipRcvSeparate": false,
        "urbanRural": "Urban",
        "dockDoors": "0-10",
        "dropArea": "NONE",
        "yardMetrics": {
          "dockDoorCount": 2,
          "trailersVisible": 0,
          "trailerParkingCapacity": 0,
          "truckGateCount": 1,
          "buildingCount": 1,
          "siteAreaAcres": 1.1,
          "railServed": false
        }
      }
    },
    {
      "type": "Feature",
      "geometry": {
        "type": "Polygon",
        "coordinates": [
          [
            [
              -97.135897,
              31.55022
            ],
            [
              -97.135897,
              31.550147
            ],
            [
              -97.135794,
              31.550147
            ],
            [
              -97.135794,
              31.55022
            ],
            [
              -97.135897,
              31.55022
            ]
          ]
        ]
      },
      "properties": {
        "account": "diageo",
        "name": "Balcones Distilling - Waco TX",
        "type": "Distillery",
        "archetype": "#3",
        "archetypeName": "No Gate / No GS",
        "confidence": "high",
        "zone": "truckGate"
      }
    },
    {
      "type": "Feature",
      "geometry": {
        "type": "Polygon",
        "coordinates": [
          [
            [
              -97.135725,
              31.550586
            ],
            [
              -97.135742,
              31.550308
            ],
            [
              -97.135468,
              31.550293
            ],
            [
              -97.13545,
              31.550571
            ],
            [
              -97.135725,
              31.550586
            ]
          ]
        ]
      },
      "properties": {
        "account": "diageo",
        "name": "Balcones Distilling - Waco TX",
        "type": "Distillery",
        "archetype": "#3",
        "archetypeName": "No Gate / No GS",
        "confidence": "high",
        "zone": "dropYard",
        "index": 1
      }
    },
    {
      "type": "Feature",
      "geometry": {
        "type": "Polygon",
        "coordinates": [
          [
            [
              -97.135862,
              31.550556
            ],
            [
              -97.135879,
              31.550059
            ],
            [
              -97.135759,
              31.550059
            ],
            [
              -97.135742,
              31.550556
            ],
            [
              -97.135862,
              31.550556
            ]
          ]
        ]
      },
      "properties": {
        "account": "diageo",
        "name": "Balcones Distilling - Waco TX",
        "type": "Distillery",
        "archetype": "#3",
        "archetypeName": "No Gate / No GS",
        "confidence": "high",
        "zone": "dockApron",
        "index": 1
      }
    },
    {
      "type": "Feature",
      "geometry": {
        "type": "Polygon",
        "coordinates": [
          [
            [
              -64.844997,
              17.707416
            ],
            [
              -64.845272,
              17.705062
            ],
            [
              -64.841976,
              17.7048
            ],
            [
              -64.841701,
              17.707155
            ],
            [
              -64.844997,
              17.707416
            ]
          ]
        ]
      },
      "properties": {
        "account": "diageo",
        "name": "Diageo USVI Captain Morgan Distillery - Frederiksted USVI",
        "type": "Distillery & Barrel Aging Warehouse",
        "archetype": "#9",
        "archetypeName": "Gate + No GS (remote check-in)",
        "confidence": "medium",
        "zone": "perimeter",
        "truckGate": true,
        "guardShack": false,
        "remoteGs": true,
        "fastLaneOpportunity": true,
        "backupSensitive": false,
        "dropYard": true,
        "multipleFacilities": true,
        "scale": false,
        "shipRcvSeparate": false,
        "urbanRural": "Rural",
        "dockDoors": "10-25",
        "dropArea": "10-25",
        "yardMetrics": {
          "dockDoorCount": 18,
          "trailersVisible": 4,
          "trailerParkingCapacity": 40,
          "truckGateCount": 1,
          "buildingCount": 7,
          "siteAreaAcres": 32,
          "railServed": false
        }
      }
    },
    {
      "type": "Feature",
      "geometry": {
        "type": "Polygon",
        "coordinates": [
          [
            [
              -64.843899,
              17.705323
            ],
            [
              -64.844036,
              17.7048
            ],
            [
              -64.842937,
              17.704669
            ],
            [
              -64.8428,
              17.705192
            ],
            [
              -64.843899,
              17.705323
            ]
          ]
        ]
      },
      "properties": {
        "account": "diageo",
        "name": "Diageo USVI Captain Morgan Distillery - Frederiksted USVI",
        "type": "Distillery & Barrel Aging Warehouse",
        "archetype": "#9",
        "archetypeName": "Gate + No GS (remote check-in)",
        "confidence": "medium",
        "zone": "truckGate"
      }
    },
    {
      "type": "Feature",
      "geometry": {
        "type": "Polygon",
        "coordinates": [
          [
            [
              -64.844723,
              17.708725
            ],
            [
              -64.84486,
              17.707678
            ],
            [
              -64.842663,
              17.707416
            ],
            [
              -64.842525,
              17.708463
            ],
            [
              -64.844723,
              17.708725
            ]
          ]
        ]
      },
      "properties": {
        "account": "diageo",
        "name": "Diageo USVI Captain Morgan Distillery - Frederiksted USVI",
        "type": "Distillery & Barrel Aging Warehouse",
        "archetype": "#9",
        "archetypeName": "Gate + No GS (remote check-in)",
        "confidence": "medium",
        "zone": "dropYard",
        "index": 1
      }
    },
    {
      "type": "Feature",
      "geometry": {
        "type": "Polygon",
        "coordinates": [
          [
            [
              -64.844997,
              17.706108
            ],
            [
              -64.845135,
              17.705585
            ],
            [
              -64.842251,
              17.705323
            ],
            [
              -64.842113,
              17.705847
            ],
            [
              -64.844997,
              17.706108
            ]
          ]
        ]
      },
      "properties": {
        "account": "diageo",
        "name": "Diageo USVI Captain Morgan Distillery - Frederiksted USVI",
        "type": "Distillery & Barrel Aging Warehouse",
        "archetype": "#9",
        "archetypeName": "Gate + No GS (remote check-in)",
        "confidence": "medium",
        "zone": "dockApron",
        "index": 1
      }
    }
  ]
}
