{
  "type": "FeatureCollection",
  "features": [
    {
      "type": "Feature",
      "geometry": {
        "type": "Polygon",
        "coordinates": [
          [
            [
              -88.916317,
              39.885123
            ],
            [
              -88.915493,
              39.873952
            ],
            [
              -88.906704,
              39.874374
            ],
            [
              -88.906155,
              39.885123
            ],
            [
              -88.916317,
              39.885123
            ]
          ]
        ]
      },
      "properties": {
        "account": "caterpillar",
        "name": "Caterpillar - Decatur IL Plant",
        "type": "Manufacturing plant (mining trucks, large wheel loaders, motor graders)",
        "archetype": "#9",
        "archetypeName": "Gate + No GS (remote check-in)",
        "confidence": "medium",
        "zone": "perimeter",
        "truckGate": true,
        "guardShack": false,
        "remoteGs": true,
        "fastLaneOpportunity": true,
        "backupSensitive": false,
        "dropYard": true,
        "multipleFacilities": true,
        "scale": false,
        "shipRcvSeparate": true,
        "urbanRural": "Rural",
        "dockDoors": "10-25",
        "dropArea": "25-50",
        "yardMetrics": {
          "dockDoorCount": 22,
          "trailersVisible": 38,
          "trailerParkingCapacity": 70,
          "truckGateCount": 2,
          "buildingCount": 9,
          "siteAreaAcres": 360,
          "railServed": true
        }
      }
    },
    {
      "type": "Feature",
      "geometry": {
        "type": "Polygon",
        "coordinates": [
          [
            [
              -88.915493,
              39.877746
            ],
            [
              -88.915219,
              39.876692
            ],
            [
              -88.913571,
              39.877114
            ],
            [
              -88.913845,
              39.878168
            ],
            [
              -88.915493,
              39.877746
            ]
          ]
        ]
      },
      "properties": {
        "account": "caterpillar",
        "name": "Caterpillar - Decatur IL Plant",
        "type": "Manufacturing plant (mining trucks, large wheel loaders, motor graders)",
        "archetype": "#9",
        "archetypeName": "Gate + No GS (remote check-in)",
        "confidence": "medium",
        "zone": "truckGate"
      }
    },
    {
      "type": "Feature",
      "geometry": {
        "type": "Polygon",
        "coordinates": [
          [
            [
              -88.909725,
              39.882805
            ],
            [
              -88.909725,
              39.880697
            ],
            [
              -88.906704,
              39.880908
            ],
            [
              -88.906704,
              39.883015
            ],
            [
              -88.909725,
              39.882805
            ]
          ]
        ]
      },
      "properties": {
        "account": "caterpillar",
        "name": "Caterpillar - Decatur IL Plant",
        "type": "Manufacturing plant (mining trucks, large wheel loaders, motor graders)",
        "archetype": "#9",
        "archetypeName": "Gate + No GS (remote check-in)",
        "confidence": "medium",
        "zone": "dropYard",
        "index": 1
      }
    },
    {
      "type": "Feature",
      "geometry": {
        "type": "Polygon",
        "coordinates": [
          [
            [
              -88.915493,
              39.876271
            ],
            [
              -88.915493,
              39.874584
            ],
            [
              -88.912197,
              39.874795
            ],
            [
              -88.912197,
              39.876481
            ],
            [
              -88.915493,
              39.876271
            ]
          ]
        ]
      },
      "properties": {
        "account": "caterpillar",
        "name": "Caterpillar - Decatur IL Plant",
        "type": "Manufacturing plant (mining trucks, large wheel loaders, motor graders)",
        "archetype": "#9",
        "archetypeName": "Gate + No GS (remote check-in)",
        "confidence": "medium",
        "zone": "dropYard",
        "index": 2
      }
    },
    {
      "type": "Feature",
      "geometry": {
        "type": "Polygon",
        "coordinates": [
          [
            [
              -88.914395,
              39.879643
            ],
            [
              -88.914395,
              39.8788
            ],
            [
              -88.910275,
              39.879011
            ],
            [
              -88.910275,
              39.879854
            ],
            [
              -88.914395,
              39.879643
            ]
          ]
        ]
      },
      "properties": {
        "account": "caterpillar",
        "name": "Caterpillar - Decatur IL Plant",
        "type": "Manufacturing plant (mining trucks, large wheel loaders, motor graders)",
        "archetype": "#9",
        "archetypeName": "Gate + No GS (remote check-in)",
        "confidence": "medium",
        "zone": "dockApron",
        "index": 1
      }
    },
    {
      "type": "Feature",
      "geometry": {
        "type": "Polygon",
        "coordinates": [
          [
            [
              -89.59962,
              40.678832
            ],
            [
              -89.600169,
              40.6755
            ],
            [
              -89.600719,
              40.669667
            ],
            [
              -89.593852,
              40.66925
            ],
            [
              -89.593028,
              40.674042
            ],
            [
              -89.592479,
              40.678416
            ],
            [
              -89.59962,
              40.678832
            ]
          ]
        ]
      },
      "properties": {
        "account": "caterpillar",
        "name": "Caterpillar - East Peoria IL Plant",
        "type": "Manufacturing plant (track-type tractors, components)",
        "archetype": "#9",
        "archetypeName": "Gate + No GS (remote check-in)",
        "confidence": "medium",
        "zone": "perimeter",
        "truckGate": true,
        "guardShack": false,
        "remoteGs": true,
        "fastLaneOpportunity": false,
        "backupSensitive": true,
        "dropYard": true,
        "multipleFacilities": true,
        "scale": false,
        "shipRcvSeparate": false,
        "urbanRural": "Urban",
        "dockDoors": "10-25",
        "dropArea": "10-25",
        "yardMetrics": {
          "dockDoorCount": 20,
          "trailersVisible": 12,
          "trailerParkingCapacity": 30,
          "truckGateCount": 2,
          "buildingCount": 6,
          "siteAreaAcres": 230,
          "railServed": true
        }
      }
    },
    {
      "type": "Feature",
      "geometry": {
        "type": "Polygon",
        "coordinates": [
          [
            [
              -89.597697,
              40.674458
            ],
            [
              -89.597697,
              40.673625
            ],
            [
              -89.596049,
              40.673625
            ],
            [
              -89.596049,
              40.674458
            ],
            [
              -89.597697,
              40.674458
            ]
          ]
        ]
      },
      "properties": {
        "account": "caterpillar",
        "name": "Caterpillar - East Peoria IL Plant",
        "type": "Manufacturing plant (track-type tractors, components)",
        "archetype": "#9",
        "archetypeName": "Gate + No GS (remote check-in)",
        "confidence": "medium",
        "zone": "truckGate"
      }
    },
    {
      "type": "Feature",
      "geometry": {
        "type": "Polygon",
        "coordinates": [
          [
            [
              -89.595775,
              40.678832
            ],
            [
              -89.595775,
              40.677166
            ],
            [
              -89.592204,
              40.677166
            ],
            [
              -89.592204,
              40.678832
            ],
            [
              -89.595775,
              40.678832
            ]
          ]
        ]
      },
      "properties": {
        "account": "caterpillar",
        "name": "Caterpillar - East Peoria IL Plant",
        "type": "Manufacturing plant (track-type tractors, components)",
        "archetype": "#9",
        "archetypeName": "Gate + No GS (remote check-in)",
        "confidence": "medium",
        "zone": "dropYard",
        "index": 1
      }
    },
    {
      "type": "Feature",
      "geometry": {
        "type": "Polygon",
        "coordinates": [
          [
            [
              -89.598796,
              40.671958
            ],
            [
              -89.598521,
              40.671125
            ],
            [
              -89.593852,
              40.671542
            ],
            [
              -89.594127,
              40.672375
            ],
            [
              -89.598796,
              40.671958
            ]
          ]
        ]
      },
      "properties": {
        "account": "caterpillar",
        "name": "Caterpillar - East Peoria IL Plant",
        "type": "Manufacturing plant (track-type tractors, components)",
        "archetype": "#9",
        "archetypeName": "Gate + No GS (remote check-in)",
        "confidence": "medium",
        "zone": "dockApron",
        "index": 1
      }
    },
    {
      "type": "Feature",
      "geometry": {
        "type": "Polygon",
        "coordinates": [
          [
            [
              -89.750796,
              40.561369
            ],
            [
              -89.752169,
              40.557196
            ],
            [
              -89.746127,
              40.556361
            ],
            [
              -89.744753,
              40.560535
            ],
            [
              -89.750796,
              40.561369
            ]
          ]
        ]
      },
      "properties": {
        "account": "caterpillar",
        "name": "Caterpillar - Mapleton IL Foundry",
        "type": "Manufacturing plant (foundry - engine castings for 3500/3600/C175)",
        "archetype": "#9",
        "archetypeName": "Gate + No GS (remote check-in)",
        "confidence": "medium",
        "zone": "perimeter",
        "truckGate": true,
        "guardShack": false,
        "remoteGs": true,
        "fastLaneOpportunity": false,
        "backupSensitive": false,
        "dropYard": true,
        "multipleFacilities": true,
        "scale": true,
        "shipRcvSeparate": false,
        "urbanRural": "Rural",
        "dockDoors": "10-25",
        "dropArea": "10-25",
        "yardMetrics": {
          "dockDoorCount": 14,
          "trailersVisible": 14,
          "trailerParkingCapacity": 30,
          "truckGateCount": 1,
          "buildingCount": 6,
          "siteAreaAcres": 200,
          "railServed": true
        }
      }
    },
    {
      "type": "Feature",
      "geometry": {
        "type": "Polygon",
        "coordinates": [
          [
            [
              -89.751345,
              40.5597
            ],
            [
              -89.75162,
              40.558657
            ],
            [
              -89.750247,
              40.558448
            ],
            [
              -89.749972,
              40.559491
            ],
            [
              -89.751345,
              40.5597
            ]
          ]
        ]
      },
      "properties": {
        "account": "caterpillar",
        "name": "Caterpillar - Mapleton IL Foundry",
        "type": "Manufacturing plant (foundry - engine castings for 3500/3600/C175)",
        "archetype": "#9",
        "archetypeName": "Gate + No GS (remote check-in)",
        "confidence": "medium",
        "zone": "truckGate"
      }
    },
    {
      "type": "Feature",
      "geometry": {
        "type": "Polygon",
        "coordinates": [
          [
            [
              -89.7475,
              40.561787
            ],
            [
              -89.747775,
              40.560535
            ],
            [
              -89.744479,
              40.559909
            ],
            [
              -89.744204,
              40.561161
            ],
            [
              -89.7475,
              40.561787
            ]
          ]
        ]
      },
      "properties": {
        "account": "caterpillar",
        "name": "Caterpillar - Mapleton IL Foundry",
        "type": "Manufacturing plant (foundry - engine castings for 3500/3600/C175)",
        "archetype": "#9",
        "archetypeName": "Gate + No GS (remote check-in)",
        "confidence": "medium",
        "zone": "dropYard",
        "index": 1
      }
    },
    {
      "type": "Feature",
      "geometry": {
        "type": "Polygon",
        "coordinates": [
          [
            [
              -89.750521,
              40.5597
            ],
            [
              -89.750796,
              40.558657
            ],
            [
              -89.746401,
              40.558031
            ],
            [
              -89.746127,
              40.559074
            ],
            [
              -89.750521,
              40.5597
            ]
          ]
        ]
      },
      "properties": {
        "account": "caterpillar",
        "name": "Caterpillar - Mapleton IL Foundry",
        "type": "Manufacturing plant (foundry - engine castings for 3500/3600/C175)",
        "archetype": "#9",
        "archetypeName": "Gate + No GS (remote check-in)",
        "confidence": "medium",
        "zone": "dockApron",
        "index": 1
      }
    },
    {
      "type": "Feature",
      "geometry": {
        "type": "Polygon",
        "coordinates": [
          [
            [
              -86.85012,
              40.416728
            ],
            [
              -86.85012,
              40.411918
            ],
            [
              -86.844352,
              40.411918
            ],
            [
              -86.844352,
              40.416728
            ],
            [
              -86.85012,
              40.416728
            ]
          ]
        ]
      },
      "properties": {
        "account": "caterpillar",
        "name": "Caterpillar - Lafayette IN Large Engine Center",
        "type": "Manufacturing plant (large engines; $725M campus expansion underway)",
        "archetype": "#9",
        "archetypeName": "Gate + No GS (remote check-in)",
        "confidence": "medium",
        "zone": "perimeter",
        "truckGate": true,
        "guardShack": false,
        "remoteGs": true,
        "fastLaneOpportunity": true,
        "backupSensitive": false,
        "dropYard": true,
        "multipleFacilities": true,
        "scale": false,
        "shipRcvSeparate": false,
        "urbanRural": "Urban",
        "dockDoors": "10-25",
        "dropArea": "25-50",
        "yardMetrics": {
          "dockDoorCount": 22,
          "trailersVisible": 24,
          "trailerParkingCapacity": 45,
          "truckGateCount": 1,
          "buildingCount": 4,
          "siteAreaAcres": 230,
          "railServed": true
        }
      }
    },
    {
      "type": "Feature",
      "geometry": {
        "type": "Polygon",
        "coordinates": [
          [
            [
              -86.847099,
              40.412336
            ],
            [
              -86.847099,
              40.4115
            ],
            [
              -86.845451,
              40.4115
            ],
            [
              -86.845451,
              40.412336
            ],
            [
              -86.847099,
              40.412336
            ]
          ]
        ]
      },
      "properties": {
        "account": "caterpillar",
        "name": "Caterpillar - Lafayette IN Large Engine Center",
        "type": "Manufacturing plant (large engines; $725M campus expansion underway)",
        "archetype": "#9",
        "archetypeName": "Gate + No GS (remote check-in)",
        "confidence": "medium",
        "zone": "truckGate"
      }
    },
    {
      "type": "Feature",
      "geometry": {
        "type": "Polygon",
        "coordinates": [
          [
            [
              -86.849571,
              40.4138
            ],
            [
              -86.849571,
              40.412964
            ],
            [
              -86.845176,
              40.412964
            ],
            [
              -86.845176,
              40.4138
            ],
            [
              -86.849571,
              40.4138
            ]
          ]
        ]
      },
      "properties": {
        "account": "caterpillar",
        "name": "Caterpillar - Lafayette IN Large Engine Center",
        "type": "Manufacturing plant (large engines; $725M campus expansion underway)",
        "archetype": "#9",
        "archetypeName": "Gate + No GS (remote check-in)",
        "confidence": "medium",
        "zone": "dockApron",
        "index": 1
      }
    },
    {
      "type": "Feature",
      "geometry": {
        "type": "Polygon",
        "coordinates": [
          [
            [
              -79.178517,
              35.549746
            ],
            [
              -79.178517,
              35.545947
            ],
            [
              -79.178242,
              35.541254
            ],
            [
              -79.1722,
              35.540807
            ],
            [
              -79.170552,
              35.5455
            ],
            [
              -79.170827,
              35.549969
            ],
            [
              -79.178517,
              35.549746
            ]
          ]
        ]
      },
      "properties": {
        "account": "caterpillar",
        "name": "Caterpillar - Sanford NC Plant",
        "type": "Manufacturing plant (BCP - skid-steer, multi-terrain, compact track loaders)",
        "archetype": "#9",
        "archetypeName": "Gate + No GS (remote check-in)",
        "confidence": "medium",
        "zone": "perimeter",
        "truckGate": true,
        "guardShack": false,
        "remoteGs": true,
        "fastLaneOpportunity": true,
        "backupSensitive": false,
        "dropYard": true,
        "multipleFacilities": true,
        "scale": false,
        "shipRcvSeparate": true,
        "urbanRural": "Rural",
        "dockDoors": "25-50",
        "dropArea": "25-50",
        "yardMetrics": {
          "dockDoorCount": 32,
          "trailersVisible": 30,
          "trailerParkingCapacity": 55,
          "truckGateCount": 2,
          "buildingCount": 6,
          "siteAreaAcres": 220,
          "railServed": true
        }
      }
    },
    {
      "type": "Feature",
      "geometry": {
        "type": "Polygon",
        "coordinates": [
          [
            [
              -79.177693,
              35.541477
            ],
            [
              -79.177693,
              35.54036
            ],
            [
              -79.176045,
              35.54036
            ],
            [
              -79.176045,
              35.541477
            ],
            [
              -79.177693,
              35.541477
            ]
          ]
        ]
      },
      "properties": {
        "account": "caterpillar",
        "name": "Caterpillar - Sanford NC Plant",
        "type": "Manufacturing plant (BCP - skid-steer, multi-terrain, compact track loaders)",
        "archetype": "#9",
        "archetypeName": "Gate + No GS (remote check-in)",
        "confidence": "medium",
        "zone": "truckGate"
      }
    },
    {
      "type": "Feature",
      "geometry": {
        "type": "Polygon",
        "coordinates": [
          [
            [
              -79.175221,
              35.549522
            ],
            [
              -79.175221,
              35.547735
            ],
            [
              -79.1722,
              35.547735
            ],
            [
              -79.1722,
              35.549522
            ],
            [
              -79.175221,
              35.549522
            ]
          ]
        ]
      },
      "properties": {
        "account": "caterpillar",
        "name": "Caterpillar - Sanford NC Plant",
        "type": "Manufacturing plant (BCP - skid-steer, multi-terrain, compact track loaders)",
        "archetype": "#9",
        "archetypeName": "Gate + No GS (remote check-in)",
        "confidence": "medium",
        "zone": "dropYard",
        "index": 1
      }
    },
    {
      "type": "Feature",
      "geometry": {
        "type": "Polygon",
        "coordinates": [
          [
            [
              -79.178242,
              35.543712
            ],
            [
              -79.178242,
              35.542595
            ],
            [
              -79.173573,
              35.542595
            ],
            [
              -79.173573,
              35.543712
            ],
            [
              -79.178242,
              35.543712
            ]
          ]
        ]
      },
      "properties": {
        "account": "caterpillar",
        "name": "Caterpillar - Sanford NC Plant",
        "type": "Manufacturing plant (BCP - skid-steer, multi-terrain, compact track loaders)",
        "archetype": "#9",
        "archetypeName": "Gate + No GS (remote check-in)",
        "confidence": "medium",
        "zone": "dockApron",
        "index": 1
      }
    },
    {
      "type": "Feature",
      "geometry": {
        "type": "Polygon",
        "coordinates": [
          [
            [
              -78.426585,
              35.642732
            ],
            [
              -78.426723,
              35.640946
            ],
            [
              -78.425899,
              35.638491
            ],
            [
              -78.424113,
              35.638045
            ],
            [
              -78.422603,
              35.639942
            ],
            [
              -78.423701,
              35.64262
            ],
            [
              -78.426585,
              35.642732
            ]
          ]
        ]
      },
      "properties": {
        "account": "caterpillar",
        "name": "Caterpillar - Clayton NC Plant",
        "type": "Manufacturing plant (BCP - small wheel loader assembly)",
        "archetype": "#9",
        "archetypeName": "Gate + No GS (remote check-in)",
        "confidence": "medium",
        "zone": "perimeter",
        "truckGate": true,
        "guardShack": false,
        "remoteGs": true,
        "fastLaneOpportunity": false,
        "backupSensitive": false,
        "dropYard": true,
        "multipleFacilities": true,
        "scale": false,
        "shipRcvSeparate": false,
        "urbanRural": "Rural",
        "dockDoors": "10-25",
        "dropArea": "25-50",
        "yardMetrics": {
          "dockDoorCount": 16,
          "trailersVisible": 22,
          "trailerParkingCapacity": 40,
          "truckGateCount": 1,
          "buildingCount": 3,
          "siteAreaAcres": 130,
          "railServed": false
        }
      }
    },
    {
      "type": "Feature",
      "geometry": {
        "type": "Polygon",
        "coordinates": [
          [
            [
              -78.424113,
              35.64262
            ],
            [
              -78.424251,
              35.642062
            ],
            [
              -78.423289,
              35.641951
            ],
            [
              -78.423152,
              35.642509
            ],
            [
              -78.424113,
              35.64262
            ]
          ]
        ]
      },
      "properties": {
        "account": "caterpillar",
        "name": "Caterpillar - Clayton NC Plant",
        "type": "Manufacturing plant (BCP - small wheel loader assembly)",
        "archetype": "#9",
        "archetypeName": "Gate + No GS (remote check-in)",
        "confidence": "medium",
        "zone": "truckGate"
      }
    },
    {
      "type": "Feature",
      "geometry": {
        "type": "Polygon",
        "coordinates": [
          [
            [
              -78.424113,
              35.641728
            ],
            [
              -78.424113,
              35.639272
            ],
            [
              -78.423015,
              35.639161
            ],
            [
              -78.422877,
              35.641616
            ],
            [
              -78.424113,
              35.641728
            ]
          ]
        ]
      },
      "properties": {
        "account": "caterpillar",
        "name": "Caterpillar - Clayton NC Plant",
        "type": "Manufacturing plant (BCP - small wheel loader assembly)",
        "archetype": "#9",
        "archetypeName": "Gate + No GS (remote check-in)",
        "confidence": "medium",
        "zone": "dropYard",
        "index": 1
      }
    },
    {
      "type": "Feature",
      "geometry": {
        "type": "Polygon",
        "coordinates": [
          [
            [
              -78.426173,
              35.6405
            ],
            [
              -78.426311,
              35.640054
            ],
            [
              -78.424113,
              35.639942
            ],
            [
              -78.423976,
              35.640388
            ],
            [
              -78.426173,
              35.6405
            ]
          ]
        ]
      },
      "properties": {
        "account": "caterpillar",
        "name": "Caterpillar - Clayton NC Plant",
        "type": "Manufacturing plant (BCP - small wheel loader assembly)",
        "archetype": "#9",
        "archetypeName": "Gate + No GS (remote check-in)",
        "confidence": "medium",
        "zone": "dockApron",
        "index": 1
      }
    },
    {
      "type": "Feature",
      "geometry": {
        "type": "Polygon",
        "coordinates": [
          [
            [
              -89.563641,
              40.849279
            ],
            [
              -89.563641,
              40.837851
            ],
            [
              -89.551007,
              40.837851
            ],
            [
              -89.551007,
              40.849279
            ],
            [
              -89.563641,
              40.849279
            ]
          ]
        ]
      },
      "properties": {
        "account": "caterpillar",
        "name": "Caterpillar - Mossville IL Engine & Research Campus",
        "type": "Manufacturing & research campus (engines, components)",
        "archetype": "#9",
        "archetypeName": "Gate + No GS (remote check-in)",
        "confidence": "medium",
        "zone": "perimeter",
        "truckGate": true,
        "guardShack": false,
        "remoteGs": true,
        "fastLaneOpportunity": true,
        "backupSensitive": false,
        "dropYard": true,
        "multipleFacilities": true,
        "scale": false,
        "shipRcvSeparate": true,
        "urbanRural": "Rural",
        "dockDoors": "10-25",
        "dropArea": "25-50",
        "yardMetrics": {
          "dockDoorCount": 16,
          "trailersVisible": 18,
          "trailerParkingCapacity": 40,
          "truckGateCount": 2,
          "buildingCount": 8,
          "siteAreaAcres": 320,
          "railServed": false
        }
      }
    },
    {
      "type": "Feature",
      "geometry": {
        "type": "Polygon",
        "coordinates": [
          [
            [
              -89.563641,
              40.843461
            ],
            [
              -89.563641,
              40.842422
            ],
            [
              -89.561993,
              40.842422
            ],
            [
              -89.561993,
              40.843461
            ],
            [
              -89.563641,
              40.843461
            ]
          ]
        ]
      },
      "properties": {
        "account": "caterpillar",
        "name": "Caterpillar - Mossville IL Engine & Research Campus",
        "type": "Manufacturing & research campus (engines, components)",
        "archetype": "#9",
        "archetypeName": "Gate + No GS (remote check-in)",
        "confidence": "medium",
        "zone": "truckGate"
      }
    },
    {
      "type": "Feature",
      "geometry": {
        "type": "Polygon",
        "coordinates": [
          [
            [
              -89.557873,
              40.845954
            ],
            [
              -89.557873,
              40.843461
            ],
            [
              -89.554303,
              40.843461
            ],
            [
              -89.554303,
              40.845954
            ],
            [
              -89.557873,
              40.845954
            ]
          ]
        ]
      },
      "properties": {
        "account": "caterpillar",
        "name": "Caterpillar - Mossville IL Engine & Research Campus",
        "type": "Manufacturing & research campus (engines, components)",
        "archetype": "#9",
        "archetypeName": "Gate + No GS (remote check-in)",
        "confidence": "medium",
        "zone": "dropYard",
        "index": 1
      }
    },
    {
      "type": "Feature",
      "geometry": {
        "type": "Polygon",
        "coordinates": [
          [
            [
              -89.557049,
              40.848655
            ],
            [
              -89.557049,
              40.847824
            ],
            [
              -89.552105,
              40.847824
            ],
            [
              -89.552105,
              40.848655
            ],
            [
              -89.557049,
              40.848655
            ]
          ]
        ]
      },
      "properties": {
        "account": "caterpillar",
        "name": "Caterpillar - Mossville IL Engine & Research Campus",
        "type": "Manufacturing & research campus (engines, components)",
        "archetype": "#9",
        "archetypeName": "Gate + No GS (remote check-in)",
        "confidence": "medium",
        "zone": "dockApron",
        "index": 1
      }
    },
    {
      "type": "Feature",
      "geometry": {
        "type": "Polygon",
        "coordinates": [
          [
            [
              -88.371641,
              41.7181
            ],
            [
              -88.37219,
              41.708669
            ],
            [
              -88.361753,
              41.708259
            ],
            [
              -88.361204,
              41.71769
            ],
            [
              -88.371641,
              41.7181
            ]
          ]
        ]
      },
      "properties": {
        "account": "caterpillar",
        "name": "Caterpillar - Aurora (Montgomery) IL Plant",
        "type": "Manufacturing plant (wheel loaders; site reportedly listed for sale)",
        "archetype": "#6",
        "archetypeName": "Gate + GS (not BU sens.) + campus",
        "confidence": "high",
        "zone": "perimeter",
        "truckGate": true,
        "guardShack": true,
        "remoteGs": false,
        "fastLaneOpportunity": true,
        "backupSensitive": false,
        "dropYard": true,
        "multipleFacilities": true,
        "scale": false,
        "shipRcvSeparate": true,
        "urbanRural": "Rural",
        "dockDoors": "10-25",
        "dropArea": "25-50",
        "yardMetrics": {
          "dockDoorCount": 20,
          "trailersVisible": 35,
          "trailerParkingCapacity": 80,
          "truckGateCount": 1,
          "buildingCount": 8,
          "siteAreaAcres": 298,
          "railServed": true
        }
      }
    },
    {
      "type": "Feature",
      "geometry": {
        "type": "Polygon",
        "coordinates": [
          [
            [
              -88.371641,
              41.7181
            ],
            [
              -88.371641,
              41.717075
            ],
            [
              -88.369993,
              41.717075
            ],
            [
              -88.369993,
              41.7181
            ],
            [
              -88.371641,
              41.7181
            ]
          ]
        ]
      },
      "properties": {
        "account": "caterpillar",
        "name": "Caterpillar - Aurora (Montgomery) IL Plant",
        "type": "Manufacturing plant (wheel loaders; site reportedly listed for sale)",
        "archetype": "#6",
        "archetypeName": "Gate + GS (not BU sens.) + campus",
        "confidence": "high",
        "zone": "truckGate"
      }
    },
    {
      "type": "Feature",
      "geometry": {
        "type": "Polygon",
        "coordinates": [
          [
            [
              -88.370817,
              41.71236
            ],
            [
              -88.370817,
              41.709489
            ],
            [
              -88.366697,
              41.709489
            ],
            [
              -88.366697,
              41.71236
            ],
            [
              -88.370817,
              41.71236
            ]
          ]
        ]
      },
      "properties": {
        "account": "caterpillar",
        "name": "Caterpillar - Aurora (Montgomery) IL Plant",
        "type": "Manufacturing plant (wheel loaders; site reportedly listed for sale)",
        "archetype": "#6",
        "archetypeName": "Gate + GS (not BU sens.) + campus",
        "confidence": "high",
        "zone": "dropYard",
        "index": 1
      }
    },
    {
      "type": "Feature",
      "geometry": {
        "type": "Polygon",
        "coordinates": [
          [
            [
              -88.371092,
              41.71605
            ],
            [
              -88.371092,
              41.715025
            ],
            [
              -88.366697,
              41.715025
            ],
            [
              -88.366697,
              41.71605
            ],
            [
              -88.371092,
              41.71605
            ]
          ]
        ]
      },
      "properties": {
        "account": "caterpillar",
        "name": "Caterpillar - Aurora (Montgomery) IL Plant",
        "type": "Manufacturing plant (wheel loaders; site reportedly listed for sale)",
        "archetype": "#6",
        "archetypeName": "Gate + GS (not BU sens.) + campus",
        "confidence": "high",
        "zone": "dockApron",
        "index": 1
      }
    },
    {
      "type": "Feature",
      "geometry": {
        "type": "Polygon",
        "coordinates": [
          [
            [
              -89.464817,
              40.620585
            ],
            [
              -89.464817,
              40.615998
            ],
            [
              -89.454105,
              40.615998
            ],
            [
              -89.454105,
              40.620585
            ],
            [
              -89.464817,
              40.620585
            ]
          ]
        ]
      },
      "properties": {
        "account": "caterpillar",
        "name": "Caterpillar - Morton IL Global Parts Distribution Center",
        "type": "Parts distribution center (anchor depot, 3M+ sq ft)",
        "archetype": "#9",
        "archetypeName": "Gate + No GS (remote check-in)",
        "confidence": "medium",
        "zone": "perimeter",
        "truckGate": true,
        "guardShack": false,
        "remoteGs": true,
        "fastLaneOpportunity": false,
        "backupSensitive": false,
        "dropYard": true,
        "multipleFacilities": true,
        "scale": false,
        "shipRcvSeparate": true,
        "urbanRural": "Rural",
        "dockDoors": "50+",
        "dropArea": "25-50",
        "yardMetrics": {
          "dockDoorCount": 60,
          "trailersVisible": 45,
          "trailerParkingCapacity": 100,
          "truckGateCount": 2,
          "buildingCount": 5,
          "siteAreaAcres": 272,
          "railServed": true
        }
      }
    },
    {
      "type": "Feature",
      "geometry": {
        "type": "Polygon",
        "coordinates": [
          [
            [
              -89.464817,
              40.620168
            ],
            [
              -89.464817,
              40.619125
            ],
            [
              -89.463444,
              40.619125
            ],
            [
              -89.463444,
              40.620168
            ],
            [
              -89.464817,
              40.620168
            ]
          ]
        ]
      },
      "properties": {
        "account": "caterpillar",
        "name": "Caterpillar - Morton IL Global Parts Distribution Center",
        "type": "Parts distribution center (anchor depot, 3M+ sq ft)",
        "archetype": "#9",
        "archetypeName": "Gate + No GS (remote check-in)",
        "confidence": "medium",
        "zone": "truckGate"
      }
    },
    {
      "type": "Feature",
      "geometry": {
        "type": "Polygon",
        "coordinates": [
          [
            [
              -89.463993,
              40.617249
            ],
            [
              -89.463993,
              40.615998
            ],
            [
              -89.457127,
              40.615998
            ],
            [
              -89.457127,
              40.617249
            ],
            [
              -89.463993,
              40.617249
            ]
          ]
        ]
      },
      "properties": {
        "account": "caterpillar",
        "name": "Caterpillar - Morton IL Global Parts Distribution Center",
        "type": "Parts distribution center (anchor depot, 3M+ sq ft)",
        "archetype": "#9",
        "archetypeName": "Gate + No GS (remote check-in)",
        "confidence": "medium",
        "zone": "dropYard",
        "index": 1
      }
    },
    {
      "type": "Feature",
      "geometry": {
        "type": "Polygon",
        "coordinates": [
          [
            [
              -89.463993,
              40.618917
            ],
            [
              -89.463993,
              40.618083
            ],
            [
              -89.457127,
              40.618083
            ],
            [
              -89.457127,
              40.618917
            ],
            [
              -89.463993,
              40.618917
            ]
          ]
        ]
      },
      "properties": {
        "account": "caterpillar",
        "name": "Caterpillar - Morton IL Global Parts Distribution Center",
        "type": "Parts distribution center (anchor depot, 3M+ sq ft)",
        "archetype": "#9",
        "archetypeName": "Gate + No GS (remote check-in)",
        "confidence": "medium",
        "zone": "dockApron",
        "index": 1
      }
    },
    {
      "type": "Feature",
      "geometry": {
        "type": "Polygon",
        "coordinates": [
          [
            [
              -117.549521,
              47.59873
            ],
            [
              -117.549521,
              47.594563
            ],
            [
              -117.544852,
              47.594563
            ],
            [
              -117.544852,
              47.59873
            ],
            [
              -117.549521,
              47.59873
            ]
          ]
        ]
      },
      "properties": {
        "account": "caterpillar",
        "name": "Caterpillar - Spokane WA Distribution Center (DC-3)",
        "type": "Parts distribution center (~562k-600k sq ft, 24/7 three-shift)",
        "archetype": "#9",
        "archetypeName": "Gate + No GS (remote check-in)",
        "confidence": "medium",
        "zone": "perimeter",
        "truckGate": true,
        "guardShack": false,
        "remoteGs": true,
        "fastLaneOpportunity": false,
        "backupSensitive": false,
        "dropYard": true,
        "multipleFacilities": false,
        "scale": false,
        "shipRcvSeparate": true,
        "urbanRural": "Rural",
        "dockDoors": "25-50",
        "dropArea": "25-50",
        "yardMetrics": {
          "dockDoorCount": 45,
          "trailersVisible": 30,
          "trailerParkingCapacity": 60,
          "truckGateCount": 1,
          "buildingCount": 3,
          "siteAreaAcres": 49,
          "railServed": false
        }
      }
    },
    {
      "type": "Feature",
      "geometry": {
        "type": "Polygon",
        "coordinates": [
          [
            [
              -117.549521,
              47.595489
            ],
            [
              -117.549521,
              47.595026
            ],
            [
              -117.548697,
              47.595026
            ],
            [
              -117.548697,
              47.595489
            ],
            [
              -117.549521,
              47.595489
            ]
          ]
        ]
      },
      "properties": {
        "account": "caterpillar",
        "name": "Caterpillar - Spokane WA Distribution Center (DC-3)",
        "type": "Parts distribution center (~562k-600k sq ft, 24/7 three-shift)",
        "archetype": "#9",
        "archetypeName": "Gate + No GS (remote check-in)",
        "confidence": "medium",
        "zone": "truckGate"
      }
    },
    {
      "type": "Feature",
      "geometry": {
        "type": "Polygon",
        "coordinates": [
          [
            [
              -117.549247,
              47.598637
            ],
            [
              -117.549247,
              47.597989
            ],
            [
              -117.545813,
              47.597989
            ],
            [
              -117.545813,
              47.598637
            ],
            [
              -117.549247,
              47.598637
            ]
          ]
        ]
      },
      "properties": {
        "account": "caterpillar",
        "name": "Caterpillar - Spokane WA Distribution Center (DC-3)",
        "type": "Parts distribution center (~562k-600k sq ft, 24/7 three-shift)",
        "archetype": "#9",
        "archetypeName": "Gate + No GS (remote check-in)",
        "confidence": "medium",
        "zone": "dropYard",
        "index": 1
      }
    },
    {
      "type": "Feature",
      "geometry": {
        "type": "Polygon",
        "coordinates": [
          [
            [
              -117.545813,
              47.597526
            ],
            [
              -117.545813,
              47.595211
            ],
            [
              -117.545127,
              47.595211
            ],
            [
              -117.545127,
              47.597526
            ],
            [
              -117.545813,
              47.597526
            ]
          ]
        ]
      },
      "properties": {
        "account": "caterpillar",
        "name": "Caterpillar - Spokane WA Distribution Center (DC-3)",
        "type": "Parts distribution center (~562k-600k sq ft, 24/7 three-shift)",
        "archetype": "#9",
        "archetypeName": "Gate + No GS (remote check-in)",
        "confidence": "medium",
        "zone": "dockApron",
        "index": 1
      }
    },
    {
      "type": "Feature",
      "geometry": {
        "type": "Polygon",
        "coordinates": [
          [
            [
              -97.184569,
              31.479471
            ],
            [
              -97.184844,
              31.475723
            ],
            [
              -97.179213,
              31.475489
            ],
            [
              -97.178801,
              31.479237
            ],
            [
              -97.184569,
              31.479471
            ]
          ]
        ]
      },
      "properties": {
        "account": "caterpillar",
        "name": "Caterpillar - Waco TX Distribution Center",
        "type": "Parts distribution center (opened 2009)",
        "archetype": "#9",
        "archetypeName": "Gate + No GS (remote check-in)",
        "confidence": "medium",
        "zone": "perimeter",
        "truckGate": true,
        "guardShack": false,
        "remoteGs": true,
        "fastLaneOpportunity": false,
        "backupSensitive": false,
        "dropYard": true,
        "multipleFacilities": false,
        "scale": false,
        "shipRcvSeparate": true,
        "urbanRural": "Rural",
        "dockDoors": "50+",
        "dropArea": "25-50",
        "yardMetrics": {
          "dockDoorCount": 70,
          "trailersVisible": 55,
          "trailerParkingCapacity": 90,
          "truckGateCount": 1,
          "buildingCount": 1,
          "siteAreaAcres": 66,
          "railServed": false
        }
      }
    },
    {
      "type": "Feature",
      "geometry": {
        "type": "Polygon",
        "coordinates": [
          [
            [
              -97.181273,
              31.475958
            ],
            [
              -97.181411,
              31.475372
            ],
            [
              -97.180312,
              31.475255
            ],
            [
              -97.180175,
              31.47584
            ],
            [
              -97.181273,
              31.475958
            ]
          ]
        ]
      },
      "properties": {
        "account": "caterpillar",
        "name": "Caterpillar - Waco TX Distribution Center",
        "type": "Parts distribution center (opened 2009)",
        "archetype": "#9",
        "archetypeName": "Gate + No GS (remote check-in)",
        "confidence": "medium",
        "zone": "truckGate"
      }
    },
    {
      "type": "Feature",
      "geometry": {
        "type": "Polygon",
        "coordinates": [
          [
            [
              -97.184295,
              31.47912
            ],
            [
              -97.184432,
              31.478183
            ],
            [
              -97.181411,
              31.478066
            ],
            [
              -97.181273,
              31.479003
            ],
            [
              -97.184295,
              31.47912
            ]
          ]
        ]
      },
      "properties": {
        "account": "caterpillar",
        "name": "Caterpillar - Waco TX Distribution Center",
        "type": "Parts distribution center (opened 2009)",
        "archetype": "#9",
        "archetypeName": "Gate + No GS (remote check-in)",
        "confidence": "medium",
        "zone": "dropYard",
        "index": 1
      }
    },
    {
      "type": "Feature",
      "geometry": {
        "type": "Polygon",
        "coordinates": [
          [
            [
              -97.184295,
              31.477714
            ],
            [
              -97.184432,
              31.477246
            ],
            [
              -97.181136,
              31.477012
            ],
            [
              -97.180999,
              31.47748
            ],
            [
              -97.184295,
              31.477714
            ]
          ]
        ]
      },
      "properties": {
        "account": "caterpillar",
        "name": "Caterpillar - Waco TX Distribution Center",
        "type": "Parts distribution center (opened 2009)",
        "archetype": "#9",
        "archetypeName": "Gate + No GS (remote check-in)",
        "confidence": "medium",
        "zone": "dockApron",
        "index": 1
      }
    },
    {
      "type": "Feature",
      "geometry": {
        "type": "Polygon",
        "coordinates": [
          [
            [
              -84.337159,
              39.845663
            ],
            [
              -84.337571,
              39.838809
            ],
            [
              -84.333725,
              39.838493
            ],
            [
              -84.332901,
              39.845452
            ],
            [
              -84.337159,
              39.845663
            ]
          ]
        ]
      },
      "properties": {
        "account": "caterpillar",
        "name": "Caterpillar - Clayton OH Distribution Center (DC-2)",
        "type": "Parts distribution center (opened 2011)",
        "archetype": "#7",
        "archetypeName": "Gate + GS (not BU sens.) + fast lane opp",
        "confidence": "medium",
        "zone": "perimeter",
        "truckGate": true,
        "guardShack": true,
        "remoteGs": false,
        "fastLaneOpportunity": true,
        "backupSensitive": false,
        "dropYard": true,
        "multipleFacilities": false,
        "scale": false,
        "shipRcvSeparate": false,
        "urbanRural": "Rural",
        "dockDoors": "50+",
        "dropArea": "50+",
        "yardMetrics": {
          "dockDoorCount": 80,
          "trailersVisible": 90,
          "trailerParkingCapacity": 150,
          "truckGateCount": 1,
          "buildingCount": 1,
          "siteAreaAcres": 90,
          "railServed": false
        }
      }
    },
    {
      "type": "Feature",
      "geometry": {
        "type": "Polygon",
        "coordinates": [
          [
            [
              -84.337021,
              39.839548
            ],
            [
              -84.337159,
              39.83902
            ],
            [
              -84.336335,
              39.838915
            ],
            [
              -84.336197,
              39.839442
            ],
            [
              -84.337021,
              39.839548
            ]
          ]
        ]
      },
      "properties": {
        "account": "caterpillar",
        "name": "Caterpillar - Clayton OH Distribution Center (DC-2)",
        "type": "Parts distribution center (opened 2011)",
        "archetype": "#7",
        "archetypeName": "Gate + GS (not BU sens.) + fast lane opp",
        "confidence": "medium",
        "zone": "truckGate"
      }
    },
    {
      "type": "Feature",
      "geometry": {
        "type": "Polygon",
        "coordinates": [
          [
            [
              -84.334412,
              39.843344
            ],
            [
              -84.334549,
              39.84134
            ],
            [
              -84.333313,
              39.841235
            ],
            [
              -84.333039,
              39.843238
            ],
            [
              -84.334412,
              39.843344
            ]
          ]
        ]
      },
      "properties": {
        "account": "caterpillar",
        "name": "Caterpillar - Clayton OH Distribution Center (DC-2)",
        "type": "Parts distribution center (opened 2011)",
        "archetype": "#7",
        "archetypeName": "Gate + GS (not BU sens.) + fast lane opp",
        "confidence": "medium",
        "zone": "dropYard",
        "index": 1
      }
    },
    {
      "type": "Feature",
      "geometry": {
        "type": "Polygon",
        "coordinates": [
          [
            [
              -84.336747,
              39.843554
            ],
            [
              -84.336884,
              39.843133
            ],
            [
              -84.334137,
              39.842922
            ],
            [
              -84.334,
              39.843344
            ],
            [
              -84.336747,
              39.843554
            ]
          ]
        ]
      },
      "properties": {
        "account": "caterpillar",
        "name": "Caterpillar - Clayton OH Distribution Center (DC-2)",
        "type": "Parts distribution center (opened 2011)",
        "archetype": "#7",
        "archetypeName": "Gate + GS (not BU sens.) + fast lane opp",
        "confidence": "medium",
        "zone": "dockApron",
        "index": 1
      }
    },
    {
      "type": "Feature",
      "geometry": {
        "type": "Polygon",
        "coordinates": [
          [
            [
              -76.68982,
              39.982673
            ],
            [
              -76.690369,
              39.979306
            ],
            [
              -76.684601,
              39.978885
            ],
            [
              -76.684052,
              39.982252
            ],
            [
              -76.68982,
              39.982673
            ]
          ]
        ]
      },
      "properties": {
        "account": "caterpillar",
        "name": "Caterpillar - York PA Distribution Center",
        "type": "Parts distribution center (~1.1M sq ft, opened 1953)",
        "archetype": "#9",
        "archetypeName": "Gate + No GS (remote check-in)",
        "confidence": "medium",
        "zone": "perimeter",
        "truckGate": true,
        "guardShack": false,
        "remoteGs": true,
        "fastLaneOpportunity": false,
        "backupSensitive": false,
        "dropYard": true,
        "multipleFacilities": false,
        "scale": false,
        "shipRcvSeparate": true,
        "urbanRural": "Urban",
        "dockDoors": "50+",
        "dropArea": "25-50",
        "yardMetrics": {
          "dockDoorCount": 55,
          "trailersVisible": 40,
          "trailerParkingCapacity": 70,
          "truckGateCount": 2,
          "buildingCount": 2,
          "siteAreaAcres": 97,
          "railServed": true
        }
      }
    },
    {
      "type": "Feature",
      "geometry": {
        "type": "Polygon",
        "coordinates": [
          [
            [
              -76.685013,
              39.979622
            ],
            [
              -76.685151,
              39.979095
            ],
            [
              -76.684189,
              39.97899
            ],
            [
              -76.684052,
              39.979516
            ],
            [
              -76.685013,
              39.979622
            ]
          ]
        ]
      },
      "properties": {
        "account": "caterpillar",
        "name": "Caterpillar - York PA Distribution Center",
        "type": "Parts distribution center (~1.1M sq ft, opened 1953)",
        "archetype": "#9",
        "archetypeName": "Gate + No GS (remote check-in)",
        "confidence": "medium",
        "zone": "truckGate"
      }
    },
    {
      "type": "Feature",
      "geometry": {
        "type": "Polygon",
        "coordinates": [
          [
            [
              -76.685013,
              39.982042
            ],
            [
              -76.685288,
              39.980042
            ],
            [
              -76.684052,
              39.979937
            ],
            [
              -76.683777,
              39.981937
            ],
            [
              -76.685013,
              39.982042
            ]
          ]
        ]
      },
      "properties": {
        "account": "caterpillar",
        "name": "Caterpillar - York PA Distribution Center",
        "type": "Parts distribution center (~1.1M sq ft, opened 1953)",
        "archetype": "#9",
        "archetypeName": "Gate + No GS (remote check-in)",
        "confidence": "medium",
        "zone": "dropYard",
        "index": 1
      }
    },
    {
      "type": "Feature",
      "geometry": {
        "type": "Polygon",
        "coordinates": [
          [
            [
              -76.689545,
              39.9812
            ],
            [
              -76.689683,
              39.980779
            ],
            [
              -76.686524,
              39.980569
            ],
            [
              -76.686387,
              39.98099
            ],
            [
              -76.689545,
              39.9812
            ]
          ]
        ]
      },
      "properties": {
        "account": "caterpillar",
        "name": "Caterpillar - York PA Distribution Center",
        "type": "Parts distribution center (~1.1M sq ft, opened 1953)",
        "archetype": "#9",
        "archetypeName": "Gate + No GS (remote check-in)",
        "confidence": "medium",
        "zone": "dockApron",
        "index": 1
      }
    },
    {
      "type": "Feature",
      "geometry": {
        "type": "Polygon",
        "coordinates": [
          [
            [
              -98.000719,
              29.578128
            ],
            [
              -98.000581,
              29.572395
            ],
            [
              -97.993303,
              29.572514
            ],
            [
              -97.99344,
              29.578247
            ],
            [
              -98.000719,
              29.578128
            ]
          ]
        ]
      },
      "properties": {
        "account": "caterpillar",
        "name": "Caterpillar - Seguin TX Engine Plant",
        "type": "Manufacturing plant (diesel & gas engine assembly, ~1.7M sq ft)",
        "archetype": "#6",
        "archetypeName": "Gate + GS (not BU sens.) + campus",
        "confidence": "medium",
        "zone": "perimeter",
        "truckGate": true,
        "guardShack": true,
        "remoteGs": false,
        "fastLaneOpportunity": true,
        "backupSensitive": false,
        "dropYard": true,
        "multipleFacilities": true,
        "scale": false,
        "shipRcvSeparate": true,
        "urbanRural": "Rural",
        "dockDoors": "50+",
        "dropArea": "50+",
        "yardMetrics": {
          "dockDoorCount": 50,
          "trailersVisible": 120,
          "trailerParkingCapacity": 200,
          "truckGateCount": 2,
          "buildingCount": 4,
          "siteAreaAcres": 168,
          "railServed": false
        }
      }
    },
    {
      "type": "Feature",
      "geometry": {
        "type": "Polygon",
        "coordinates": [
          [
            [
              -97.998247,
              29.578128
            ],
            [
              -97.998247,
              29.57753
            ],
            [
              -97.997423,
              29.57753
            ],
            [
              -97.997423,
              29.578128
            ],
            [
              -97.998247,
              29.578128
            ]
          ]
        ]
      },
      "properties": {
        "account": "caterpillar",
        "name": "Caterpillar - Seguin TX Engine Plant",
        "type": "Manufacturing plant (diesel & gas engine assembly, ~1.7M sq ft)",
        "archetype": "#6",
        "archetypeName": "Gate + GS (not BU sens.) + campus",
        "confidence": "medium",
        "zone": "truckGate"
      }
    },
    {
      "type": "Feature",
      "geometry": {
        "type": "Polygon",
        "coordinates": [
          [
            [
              -97.996049,
              29.577889
            ],
            [
              -97.996049,
              29.573589
            ],
            [
              -97.993852,
              29.573589
            ],
            [
              -97.993852,
              29.577889
            ],
            [
              -97.996049,
              29.577889
            ]
          ]
        ]
      },
      "properties": {
        "account": "caterpillar",
        "name": "Caterpillar - Seguin TX Engine Plant",
        "type": "Manufacturing plant (diesel & gas engine assembly, ~1.7M sq ft)",
        "archetype": "#6",
        "archetypeName": "Gate + GS (not BU sens.) + campus",
        "confidence": "medium",
        "zone": "dropYard",
        "index": 1
      }
    },
    {
      "type": "Feature",
      "geometry": {
        "type": "Polygon",
        "coordinates": [
          [
            [
              -98.000444,
              29.577411
            ],
            [
              -98.000581,
              29.574306
            ],
            [
              -97.997011,
              29.574067
            ],
            [
              -97.996873,
              29.577172
            ],
            [
              -98.000444,
              29.577411
            ]
          ]
        ]
      },
      "properties": {
        "account": "caterpillar",
        "name": "Caterpillar - Seguin TX Engine Plant",
        "type": "Manufacturing plant (diesel & gas engine assembly, ~1.7M sq ft)",
        "archetype": "#6",
        "archetypeName": "Gate + GS (not BU sens.) + campus",
        "confidence": "medium",
        "zone": "dockApron",
        "index": 1
      }
    },
    {
      "type": "Feature",
      "geometry": {
        "type": "Polygon",
        "coordinates": [
          [
            [
              -96.941071,
              28.822147
            ],
            [
              -96.941345,
              28.819981
            ],
            [
              -96.939423,
              28.816612
            ],
            [
              -96.935577,
              28.817094
            ],
            [
              -96.936676,
              28.821425
            ],
            [
              -96.941071,
              28.822147
            ]
          ]
        ]
      },
      "properties": {
        "account": "caterpillar",
        "name": "Caterpillar - Victoria TX Hydraulic Excavator Plant",
        "type": "Manufacturing plant (hydraulic / large excavators)",
        "archetype": "#9",
        "archetypeName": "Gate + No GS (remote check-in)",
        "confidence": "medium",
        "zone": "perimeter",
        "truckGate": true,
        "guardShack": false,
        "remoteGs": true,
        "fastLaneOpportunity": true,
        "backupSensitive": false,
        "dropYard": true,
        "multipleFacilities": true,
        "scale": false,
        "shipRcvSeparate": false,
        "urbanRural": "Rural",
        "dockDoors": "10-25",
        "dropArea": "25-50",
        "yardMetrics": {
          "dockDoorCount": 20,
          "trailersVisible": 25,
          "trailerParkingCapacity": 60,
          "truckGateCount": 1,
          "buildingCount": 3,
          "siteAreaAcres": 161,
          "railServed": false
        }
      }
    },
    {
      "type": "Feature",
      "geometry": {
        "type": "Polygon",
        "coordinates": [
          [
            [
              -96.941895,
              28.8195
            ],
            [
              -96.941895,
              28.818297
            ],
            [
              -96.940247,
              28.818297
            ],
            [
              -96.940247,
              28.8195
            ],
            [
              -96.941895,
              28.8195
            ]
          ]
        ]
      },
      "properties": {
        "account": "caterpillar",
        "name": "Caterpillar - Victoria TX Hydraulic Excavator Plant",
        "type": "Manufacturing plant (hydraulic / large excavators)",
        "archetype": "#9",
        "archetypeName": "Gate + No GS (remote check-in)",
        "confidence": "medium",
        "zone": "truckGate"
      }
    },
    {
      "type": "Feature",
      "geometry": {
        "type": "Polygon",
        "coordinates": [
          [
            [
              -96.939697,
              28.822388
            ],
            [
              -96.939972,
              28.820703
            ],
            [
              -96.937225,
              28.820463
            ],
            [
              -96.936951,
              28.822147
            ],
            [
              -96.939697,
              28.822388
            ]
          ]
        ]
      },
      "properties": {
        "account": "caterpillar",
        "name": "Caterpillar - Victoria TX Hydraulic Excavator Plant",
        "type": "Manufacturing plant (hydraulic / large excavators)",
        "archetype": "#9",
        "archetypeName": "Gate + No GS (remote check-in)",
        "confidence": "medium",
        "zone": "dropYard",
        "index": 1
      }
    },
    {
      "type": "Feature",
      "geometry": {
        "type": "Polygon",
        "coordinates": [
          [
            [
              -96.940796,
              28.8195
            ],
            [
              -96.941071,
              28.818537
            ],
            [
              -96.936401,
              28.818297
            ],
            [
              -96.936127,
              28.819259
            ],
            [
              -96.940796,
              28.8195
            ]
          ]
        ]
      },
      "properties": {
        "account": "caterpillar",
        "name": "Caterpillar - Victoria TX Hydraulic Excavator Plant",
        "type": "Manufacturing plant (hydraulic / large excavators)",
        "archetype": "#9",
        "archetypeName": "Gate + No GS (remote check-in)",
        "confidence": "medium",
        "zone": "dockApron",
        "index": 1
      }
    },
    {
      "type": "Feature",
      "geometry": {
        "type": "Polygon",
        "coordinates": [
          [
            [
              -83.523993,
              33.940911
            ],
            [
              -83.525092,
              33.936354
            ],
            [
              -83.5185,
              33.935443
            ],
            [
              -83.517127,
              33.940456
            ],
            [
              -83.523993,
              33.940911
            ]
          ]
        ]
      },
      "properties": {
        "account": "caterpillar",
        "name": "Caterpillar - Athens GA Plant",
        "type": "Manufacturing plant (BCP - mini hydraulic excavators, small track-type tractors)",
        "archetype": "#6",
        "archetypeName": "Gate + GS (not BU sens.) + campus",
        "confidence": "high",
        "zone": "perimeter",
        "truckGate": true,
        "guardShack": true,
        "remoteGs": false,
        "fastLaneOpportunity": true,
        "backupSensitive": false,
        "dropYard": true,
        "multipleFacilities": true,
        "scale": false,
        "shipRcvSeparate": false,
        "urbanRural": "Rural",
        "dockDoors": "10-25",
        "dropArea": "25-50",
        "yardMetrics": {
          "dockDoorCount": 18,
          "trailersVisible": 30,
          "trailerParkingCapacity": 70,
          "truckGateCount": 1,
          "buildingCount": 3,
          "siteAreaAcres": 180,
          "railServed": false
        }
      }
    },
    {
      "type": "Feature",
      "geometry": {
        "type": "Polygon",
        "coordinates": [
          [
            [
              -83.525092,
              33.938177
            ],
            [
              -83.525366,
              33.937038
            ],
            [
              -83.523719,
              33.93681
            ],
            [
              -83.523444,
              33.937949
            ],
            [
              -83.525092,
              33.938177
            ]
          ]
        ]
      },
      "properties": {
        "account": "caterpillar",
        "name": "Caterpillar - Athens GA Plant",
        "type": "Manufacturing plant (BCP - mini hydraulic excavators, small track-type tractors)",
        "archetype": "#6",
        "archetypeName": "Gate + GS (not BU sens.) + campus",
        "confidence": "high",
        "zone": "truckGate"
      }
    },
    {
      "type": "Feature",
      "geometry": {
        "type": "Polygon",
        "coordinates": [
          [
            [
              -83.521247,
              33.940911
            ],
            [
              -83.521521,
              33.939316
            ],
            [
              -83.518225,
              33.939089
            ],
            [
              -83.517951,
              33.940684
            ],
            [
              -83.521247,
              33.940911
            ]
          ]
        ]
      },
      "properties": {
        "account": "caterpillar",
        "name": "Caterpillar - Athens GA Plant",
        "type": "Manufacturing plant (BCP - mini hydraulic excavators, small track-type tractors)",
        "archetype": "#6",
        "archetypeName": "Gate + GS (not BU sens.) + campus",
        "confidence": "high",
        "zone": "dropYard",
        "index": 1
      }
    },
    {
      "type": "Feature",
      "geometry": {
        "type": "Polygon",
        "coordinates": [
          [
            [
              -83.523444,
              33.938177
            ],
            [
              -83.523719,
              33.937266
            ],
            [
              -83.519324,
              33.93681
            ],
            [
              -83.519049,
              33.937721
            ],
            [
              -83.523444,
              33.938177
            ]
          ]
        ]
      },
      "properties": {
        "account": "caterpillar",
        "name": "Caterpillar - Athens GA Plant",
        "type": "Manufacturing plant (BCP - mini hydraulic excavators, small track-type tractors)",
        "archetype": "#6",
        "archetypeName": "Gate + GS (not BU sens.) + campus",
        "confidence": "high",
        "zone": "dockApron",
        "index": 1
      }
    },
    {
      "type": "Feature",
      "geometry": {
        "type": "Polygon",
        "coordinates": [
          [
            [
              -80.120335,
              36.062076
            ],
            [
              -80.120609,
              36.058746
            ],
            [
              -80.116077,
              36.058524
            ],
            [
              -80.115803,
              36.061854
            ],
            [
              -80.120335,
              36.062076
            ]
          ]
        ]
      },
      "properties": {
        "account": "caterpillar",
        "name": "Caterpillar - Winston-Salem NC Axle Plant",
        "type": "Manufacturing plant (axles, ~850k sq ft on 102 acres)",
        "archetype": "#7",
        "archetypeName": "Gate + GS (not BU sens.) + fast lane opp",
        "confidence": "high",
        "zone": "perimeter",
        "truckGate": true,
        "guardShack": true,
        "remoteGs": false,
        "fastLaneOpportunity": true,
        "backupSensitive": false,
        "dropYard": true,
        "multipleFacilities": false,
        "scale": false,
        "shipRcvSeparate": false,
        "urbanRural": "Rural",
        "dockDoors": "10-25",
        "dropArea": "10-25",
        "yardMetrics": {
          "dockDoorCount": 14,
          "trailersVisible": 12,
          "trailerParkingCapacity": 35,
          "truckGateCount": 1,
          "buildingCount": 1,
          "siteAreaAcres": 96,
          "railServed": false
        }
      }
    },
    {
      "type": "Feature",
      "geometry": {
        "type": "Polygon",
        "coordinates": [
          [
            [
              -80.119099,
              36.058524
            ],
            [
              -80.119236,
              36.057969
            ],
            [
              -80.118137,
              36.057858
            ],
            [
              -80.118,
              36.058413
            ],
            [
              -80.119099,
              36.058524
            ]
          ]
        ]
      },
      "properties": {
        "account": "caterpillar",
        "name": "Caterpillar - Winston-Salem NC Axle Plant",
        "type": "Manufacturing plant (axles, ~850k sq ft on 102 acres)",
        "archetype": "#7",
        "archetypeName": "Gate + GS (not BU sens.) + fast lane opp",
        "confidence": "high",
        "zone": "truckGate"
      }
    },
    {
      "type": "Feature",
      "geometry": {
        "type": "Polygon",
        "coordinates": [
          [
            [
              -80.118,
              36.058968
            ],
            [
              -80.118137,
              36.058191
            ],
            [
              -80.11594,
              36.05808
            ],
            [
              -80.115803,
              36.058857
            ],
            [
              -80.118,
              36.058968
            ]
          ]
        ]
      },
      "properties": {
        "account": "caterpillar",
        "name": "Caterpillar - Winston-Salem NC Axle Plant",
        "type": "Manufacturing plant (axles, ~850k sq ft on 102 acres)",
        "archetype": "#7",
        "archetypeName": "Gate + GS (not BU sens.) + fast lane opp",
        "confidence": "high",
        "zone": "dropYard",
        "index": 1
      }
    },
    {
      "type": "Feature",
      "geometry": {
        "type": "Polygon",
        "coordinates": [
          [
            [
              -80.120197,
              36.061188
            ],
            [
              -80.120335,
              36.060744
            ],
            [
              -80.117451,
              36.060522
            ],
            [
              -80.117313,
              36.060966
            ],
            [
              -80.120197,
              36.061188
            ]
          ]
        ]
      },
      "properties": {
        "account": "caterpillar",
        "name": "Caterpillar - Winston-Salem NC Axle Plant",
        "type": "Manufacturing plant (axles, ~850k sq ft on 102 acres)",
        "archetype": "#7",
        "archetypeName": "Gate + GS (not BU sens.) + fast lane opp",
        "confidence": "high",
        "zone": "dockApron",
        "index": 1
      }
    },
    {
      "type": "Feature",
      "geometry": {
        "type": "Polygon",
        "coordinates": [
          [
            [
              -87.864964,
              42.9103
            ],
            [
              -87.860317,
              42.91057
            ],
            [
              -87.861058,
              42.917514
            ],
            [
              -87.865705,
              42.917244
            ],
            [
              -87.864964,
              42.9103
            ]
          ]
        ]
      },
      "properties": {
        "account": "caterpillar",
        "name": "Caterpillar Global Mining - South Milwaukee WI Plant",
        "type": "Manufacturing plant (large mining equipment - electric rope shovels, draglines)",
        "archetype": "#6",
        "archetypeName": "Gate + GS (not BU sens.) + campus",
        "confidence": "medium",
        "zone": "perimeter",
        "truckGate": true,
        "guardShack": true,
        "remoteGs": false,
        "fastLaneOpportunity": false,
        "backupSensitive": true,
        "dropYard": false,
        "multipleFacilities": true,
        "scale": false,
        "shipRcvSeparate": false,
        "urbanRural": "Urban",
        "dockDoors": "0-10",
        "dropArea": "0-10",
        "yardMetrics": {
          "dockDoorCount": 8,
          "trailersVisible": 6,
          "trailerParkingCapacity": 20,
          "truckGateCount": 2,
          "buildingCount": 8,
          "siteAreaAcres": 72,
          "railServed": true
        }
      }
    },
    {
      "type": "Feature",
      "geometry": {
        "type": "Polygon",
        "coordinates": [
          [
            [
              -87.8628,
              42.910555
            ],
            [
              -87.862831,
              42.910844
            ],
            [
              -87.863222,
              42.910821
            ],
            [
              -87.863191,
              42.910532
            ],
            [
              -87.8628,
              42.910555
            ]
          ]
        ]
      },
      "properties": {
        "account": "caterpillar",
        "name": "Caterpillar Global Mining - South Milwaukee WI Plant",
        "type": "Manufacturing plant (large mining equipment - electric rope shovels, draglines)",
        "archetype": "#6",
        "archetypeName": "Gate + GS (not BU sens.) + campus",
        "confidence": "medium",
        "zone": "truckGate"
      }
    },
    {
      "type": "Feature",
      "geometry": {
        "type": "Polygon",
        "coordinates": [
          [
            [
              -87.862454,
              42.911874
            ],
            [
              -87.860865,
              42.911966
            ],
            [
              -87.861096,
              42.91413
            ],
            [
              -87.862685,
              42.914038
            ],
            [
              -87.862454,
              42.911874
            ]
          ]
        ]
      },
      "properties": {
        "account": "caterpillar",
        "name": "Caterpillar Global Mining - South Milwaukee WI Plant",
        "type": "Manufacturing plant (large mining equipment - electric rope shovels, draglines)",
        "archetype": "#6",
        "archetypeName": "Gate + GS (not BU sens.) + campus",
        "confidence": "medium",
        "zone": "dropYard",
        "index": 1
      }
    },
    {
      "type": "Feature",
      "geometry": {
        "type": "Polygon",
        "coordinates": [
          [
            [
              -87.862482,
              42.912018
            ],
            [
              -87.862054,
              42.912043
            ],
            [
              -87.862304,
              42.914388
            ],
            [
              -87.862732,
              42.914363
            ],
            [
              -87.862482,
              42.912018
            ]
          ]
        ]
      },
      "properties": {
        "account": "caterpillar",
        "name": "Caterpillar Global Mining - South Milwaukee WI Plant",
        "type": "Manufacturing plant (large mining equipment - electric rope shovels, draglines)",
        "archetype": "#6",
        "archetypeName": "Gate + GS (not BU sens.) + campus",
        "confidence": "medium",
        "zone": "dockApron",
        "index": 1
      }
    },
    {
      "type": "Feature",
      "geometry": {
        "type": "Polygon",
        "coordinates": [
          [
            [
              -88.655371,
              40.887738
            ],
            [
              -88.655645,
              40.884624
            ],
            [
              -88.650427,
              40.884416
            ],
            [
              -88.650152,
              40.887531
            ],
            [
              -88.655371,
              40.887738
            ]
          ]
        ]
      },
      "properties": {
        "account": "caterpillar",
        "name": "Caterpillar - Pontiac IL Plant",
        "type": "Manufacturing plant (fuel injectors / fuel systems)",
        "archetype": "#9",
        "archetypeName": "Gate + No GS (remote check-in)",
        "confidence": "medium",
        "zone": "perimeter",
        "truckGate": true,
        "guardShack": false,
        "remoteGs": true,
        "fastLaneOpportunity": false,
        "backupSensitive": false,
        "dropYard": false,
        "multipleFacilities": false,
        "scale": false,
        "shipRcvSeparate": false,
        "urbanRural": "Rural",
        "dockDoors": "0-10",
        "dropArea": "0-10",
        "yardMetrics": {
          "dockDoorCount": 10,
          "trailersVisible": 8,
          "trailerParkingCapacity": 20,
          "truckGateCount": 1,
          "buildingCount": 2,
          "siteAreaAcres": 68,
          "railServed": false
        }
      }
    },
    {
      "type": "Feature",
      "geometry": {
        "type": "Polygon",
        "coordinates": [
          [
            [
              -88.654547,
              40.887738
            ],
            [
              -88.654547,
              40.887219
            ],
            [
              -88.653723,
              40.887219
            ],
            [
              -88.653723,
              40.887738
            ],
            [
              -88.654547,
              40.887738
            ]
          ]
        ]
      },
      "properties": {
        "account": "caterpillar",
        "name": "Caterpillar - Pontiac IL Plant",
        "type": "Manufacturing plant (fuel injectors / fuel systems)",
        "archetype": "#9",
        "archetypeName": "Gate + No GS (remote check-in)",
        "confidence": "medium",
        "zone": "truckGate"
      }
    },
    {
      "type": "Feature",
      "geometry": {
        "type": "Polygon",
        "coordinates": [
          [
            [
              -88.657019,
              40.887115
            ],
            [
              -88.657156,
              40.885558
            ],
            [
              -88.655783,
              40.885454
            ],
            [
              -88.655645,
              40.887011
            ],
            [
              -88.657019,
              40.887115
            ]
          ]
        ]
      },
      "properties": {
        "account": "caterpillar",
        "name": "Caterpillar - Pontiac IL Plant",
        "type": "Manufacturing plant (fuel injectors / fuel systems)",
        "archetype": "#9",
        "archetypeName": "Gate + No GS (remote check-in)",
        "confidence": "medium",
        "zone": "dropYard",
        "index": 1
      }
    },
    {
      "type": "Feature",
      "geometry": {
        "type": "Polygon",
        "coordinates": [
          [
            [
              -88.655096,
              40.887115
            ],
            [
              -88.655233,
              40.8867
            ],
            [
              -88.651937,
              40.886492
            ],
            [
              -88.6518,
              40.886908
            ],
            [
              -88.655096,
              40.887115
            ]
          ]
        ]
      },
      "properties": {
        "account": "caterpillar",
        "name": "Caterpillar - Pontiac IL Plant",
        "type": "Manufacturing plant (fuel injectors / fuel systems)",
        "archetype": "#9",
        "archetypeName": "Gate + No GS (remote check-in)",
        "confidence": "medium",
        "zone": "dockApron",
        "index": 1
      }
    },
    {
      "type": "Feature",
      "geometry": {
        "type": "Polygon",
        "coordinates": [
          [
            [
              -96.296321,
              39.205928
            ],
            [
              -96.296596,
              39.203161
            ],
            [
              -96.291377,
              39.202949
            ],
            [
              -96.291103,
              39.205715
            ],
            [
              -96.296321,
              39.205928
            ]
          ]
        ]
      },
      "properties": {
        "account": "caterpillar",
        "name": "Caterpillar Work Tools - Wamego KS Plant & Distribution",
        "type": "Manufacturing & distribution facility (machine attachments / work tools)",
        "archetype": "#3",
        "archetypeName": "No Gate / No GS",
        "confidence": "medium",
        "zone": "perimeter",
        "truckGate": false,
        "guardShack": false,
        "remoteGs": false,
        "fastLaneOpportunity": false,
        "backupSensitive": false,
        "dropYard": true,
        "multipleFacilities": true,
        "scale": false,
        "shipRcvSeparate": false,
        "urbanRural": "Rural",
        "dockDoors": "10-25",
        "dropArea": "50+",
        "yardMetrics": {
          "dockDoorCount": 12,
          "trailersVisible": 10,
          "trailerParkingCapacity": 30,
          "truckGateCount": 0,
          "buildingCount": 9,
          "siteAreaAcres": 104,
          "railServed": true
        }
      }
    },
    {
      "type": "Feature",
      "geometry": {
        "type": "Polygon",
        "coordinates": [
          [
            [
              -96.296047,
              39.203587
            ],
            [
              -96.296184,
              39.203055
            ],
            [
              -96.29536,
              39.202949
            ],
            [
              -96.295223,
              39.203481
            ],
            [
              -96.296047,
              39.203587
            ]
          ]
        ]
      },
      "properties": {
        "account": "caterpillar",
        "name": "Caterpillar Work Tools - Wamego KS Plant & Distribution",
        "type": "Manufacturing & distribution facility (machine attachments / work tools)",
        "archetype": "#3",
        "archetypeName": "No Gate / No GS",
        "confidence": "medium",
        "zone": "truckGate"
      }
    },
    {
      "type": "Feature",
      "geometry": {
        "type": "Polygon",
        "coordinates": [
          [
            [
              -96.294399,
              39.205077
            ],
            [
              -96.294536,
              39.204013
            ],
            [
              -96.292064,
              39.2038
            ],
            [
              -96.291927,
              39.204864
            ],
            [
              -96.294399,
              39.205077
            ]
          ]
        ]
      },
      "properties": {
        "account": "caterpillar",
        "name": "Caterpillar Work Tools - Wamego KS Plant & Distribution",
        "type": "Manufacturing & distribution facility (machine attachments / work tools)",
        "archetype": "#3",
        "archetypeName": "No Gate / No GS",
        "confidence": "medium",
        "zone": "dropYard",
        "index": 1
      }
    },
    {
      "type": "Feature",
      "geometry": {
        "type": "Polygon",
        "coordinates": [
          [
            [
              -96.296047,
              39.205503
            ],
            [
              -96.296184,
              39.204971
            ],
            [
              -96.293712,
              39.204864
            ],
            [
              -96.293575,
              39.205396
            ],
            [
              -96.296047,
              39.205503
            ]
          ]
        ]
      },
      "properties": {
        "account": "caterpillar",
        "name": "Caterpillar Work Tools - Wamego KS Plant & Distribution",
        "type": "Manufacturing & distribution facility (machine attachments / work tools)",
        "archetype": "#3",
        "archetypeName": "No Gate / No GS",
        "confidence": "medium",
        "zone": "dockApron",
        "index": 1
      }
    },
    {
      "type": "Feature",
      "geometry": {
        "type": "Polygon",
        "coordinates": [
          [
            [
              -118.942835,
              35.002325
            ],
            [
              -118.942835,
              34.99985
            ],
            [
              -118.937753,
              34.99985
            ],
            [
              -118.937753,
              35.002325
            ],
            [
              -118.942835,
              35.002325
            ]
          ]
        ]
      },
      "properties": {
        "account": "caterpillar",
        "name": "Caterpillar - Tejon Ranch (Lebec) CA Parts Distribution Center",
        "type": "Parts distribution center (~400k sq ft, opened ~2012)",
        "archetype": "#9",
        "archetypeName": "Gate + No GS (remote check-in)",
        "confidence": "low",
        "zone": "perimeter",
        "truckGate": true,
        "guardShack": false,
        "remoteGs": true,
        "fastLaneOpportunity": true,
        "backupSensitive": false,
        "dropYard": true,
        "multipleFacilities": false,
        "scale": false,
        "shipRcvSeparate": false,
        "urbanRural": "Rural",
        "dockDoors": "25-50",
        "dropArea": "25-50",
        "yardMetrics": {
          "dockDoorCount": 24,
          "trailersVisible": 12,
          "trailerParkingCapacity": 45,
          "truckGateCount": 1,
          "buildingCount": 1,
          "siteAreaAcres": 46,
          "railServed": false
        }
      }
    },
    {
      "type": "Feature",
      "geometry": {
        "type": "Polygon",
        "coordinates": [
          [
            [
              -118.942835,
              35.0021
            ],
            [
              -118.942835,
              35.001537
            ],
            [
              -118.942011,
              35.001537
            ],
            [
              -118.942011,
              35.0021
            ],
            [
              -118.942835,
              35.0021
            ]
          ]
        ]
      },
      "properties": {
        "account": "caterpillar",
        "name": "Caterpillar - Tejon Ranch (Lebec) CA Parts Distribution Center",
        "type": "Parts distribution center (~400k sq ft, opened ~2012)",
        "archetype": "#9",
        "archetypeName": "Gate + No GS (remote check-in)",
        "confidence": "low",
        "zone": "truckGate"
      }
    },
    {
      "type": "Feature",
      "geometry": {
        "type": "Polygon",
        "coordinates": [
          [
            [
              -118.939813,
              35.001875
            ],
            [
              -118.939813,
              35.000075
            ],
            [
              -118.938028,
              35.000075
            ],
            [
              -118.938028,
              35.001875
            ],
            [
              -118.939813,
              35.001875
            ]
          ]
        ]
      },
      "properties": {
        "account": "caterpillar",
        "name": "Caterpillar - Tejon Ranch (Lebec) CA Parts Distribution Center",
        "type": "Parts distribution center (~400k sq ft, opened ~2012)",
        "archetype": "#9",
        "archetypeName": "Gate + No GS (remote check-in)",
        "confidence": "low",
        "zone": "dropYard",
        "index": 1
      }
    },
    {
      "type": "Feature",
      "geometry": {
        "type": "Polygon",
        "coordinates": [
          [
            [
              -118.942423,
              35.001425
            ],
            [
              -118.942423,
              35.000975
            ],
            [
              -118.940225,
              35.000975
            ],
            [
              -118.940225,
              35.001425
            ],
            [
              -118.942423,
              35.001425
            ]
          ]
        ]
      },
      "properties": {
        "account": "caterpillar",
        "name": "Caterpillar - Tejon Ranch (Lebec) CA Parts Distribution Center",
        "type": "Parts distribution center (~400k sq ft, opened ~2012)",
        "archetype": "#9",
        "archetypeName": "Gate + No GS (remote check-in)",
        "confidence": "low",
        "zone": "dockApron",
        "index": 1
      }
    }
  ]
}
