{
  "type": "FeatureCollection",
  "features": [
    {
      "type": "Feature",
      "geometry": {
        "type": "Polygon",
        "coordinates": [
          [
            [
              -82.0556,
              28.0152
            ],
            [
              -82.0553,
              28.0132
            ],
            [
              -82.0535,
              28.0122
            ],
            [
              -82.0485,
              28.0124
            ],
            [
              -82.0468,
              28.0152
            ],
            [
              -82.0475,
              28.016
            ],
            [
              -82.0556,
              28.0152
            ]
          ]
        ]
      },
      "properties": {
        "account": "publix",
        "name": "Publix Distribution Campus Lakeland FL (County Line)",
        "type": "Distribution Campus",
        "archetype": "#10",
        "archetypeName": "Ship/Rcv Separate (Gate+GS)",
        "confidence": "high",
        "zone": "perimeter",
        "truckGate": true,
        "guardShack": true,
        "remoteGs": false,
        "fastLaneOpportunity": true,
        "backupSensitive": false,
        "dropYard": true,
        "multipleFacilities": false,
        "scale": false,
        "shipRcvSeparate": true,
        "urbanRural": "Rural",
        "dockDoors": "50+",
        "dropArea": "50+",
        "yardMetrics": {
          "dockDoorCount": 180,
          "trailersVisible": 140,
          "trailerParkingCapacity": 90,
          "truckGateCount": 1,
          "buildingCount": 1,
          "siteAreaAcres": 68.1,
          "railServed": false
        }
      }
    },
    {
      "type": "Feature",
      "geometry": {
        "type": "Polygon",
        "coordinates": [
          [
            [
              -82.05428,
              28.01418
            ],
            [
              -82.05428,
              28.0139
            ],
            [
              -82.05405,
              28.0139
            ],
            [
              -82.05405,
              28.01418
            ],
            [
              -82.05428,
              28.01418
            ]
          ]
        ]
      },
      "properties": {
        "account": "publix",
        "name": "Publix Distribution Campus Lakeland FL (County Line)",
        "type": "Distribution Campus",
        "archetype": "#10",
        "archetypeName": "Ship/Rcv Separate (Gate+GS)",
        "confidence": "high",
        "zone": "truckGate"
      }
    },
    {
      "type": "Feature",
      "geometry": {
        "type": "Polygon",
        "coordinates": [
          [
            [
              -82.04835,
              28.01585
            ],
            [
              -82.04875,
              28.01495
            ],
            [
              -82.0474,
              28.0147
            ],
            [
              -82.047,
              28.0156
            ],
            [
              -82.04835,
              28.01585
            ]
          ]
        ]
      },
      "properties": {
        "account": "publix",
        "name": "Publix Distribution Campus Lakeland FL (County Line)",
        "type": "Distribution Campus",
        "archetype": "#10",
        "archetypeName": "Ship/Rcv Separate (Gate+GS)",
        "confidence": "high",
        "zone": "dropYard",
        "index": 1
      }
    },
    {
      "type": "Feature",
      "geometry": {
        "type": "Polygon",
        "coordinates": [
          [
            [
              -82.0523,
              28.0156
            ],
            [
              -82.05225,
              28.01525
            ],
            [
              -82.0482,
              28.0156
            ],
            [
              -82.0483,
              28.01595
            ],
            [
              -82.0523,
              28.0156
            ]
          ]
        ]
      },
      "properties": {
        "account": "publix",
        "name": "Publix Distribution Campus Lakeland FL (County Line)",
        "type": "Distribution Campus",
        "archetype": "#10",
        "archetypeName": "Ship/Rcv Separate (Gate+GS)",
        "confidence": "high",
        "zone": "dockApron",
        "index": 1
      }
    },
    {
      "type": "Feature",
      "geometry": {
        "type": "Polygon",
        "coordinates": [
          [
            [
              -82.053,
              28.0129
            ],
            [
              -82.05305,
              28.01255
            ],
            [
              -82.0489,
              28.01235
            ],
            [
              -82.0488,
              28.0127
            ],
            [
              -82.053,
              28.0129
            ]
          ]
        ]
      },
      "properties": {
        "account": "publix",
        "name": "Publix Distribution Campus Lakeland FL (County Line)",
        "type": "Distribution Campus",
        "archetype": "#10",
        "archetypeName": "Ship/Rcv Separate (Gate+GS)",
        "confidence": "high",
        "zone": "dockApron",
        "index": 2
      }
    },
    {
      "type": "Feature",
      "geometry": {
        "type": "Polygon",
        "coordinates": [
          [
            [
              -82.05395,
              28.01435
            ],
            [
              -82.054,
              28.01365
            ],
            [
              -82.05315,
              28.0136
            ],
            [
              -82.0531,
              28.0143
            ],
            [
              -82.05395,
              28.01435
            ]
          ]
        ]
      },
      "properties": {
        "account": "publix",
        "name": "Publix Distribution Campus Lakeland FL (County Line)",
        "type": "Distribution Campus",
        "archetype": "#10",
        "archetypeName": "Ship/Rcv Separate (Gate+GS)",
        "confidence": "high",
        "zone": "staging"
      }
    },
    {
      "type": "Feature",
      "geometry": {
        "type": "Polygon",
        "coordinates": [
          [
            [
              -82.04465,
              28.00885
            ],
            [
              -82.04445,
              28.00425
            ],
            [
              -82.04025,
              28.00445
            ],
            [
              -82.04055,
              28.0091
            ],
            [
              -82.04465,
              28.00885
            ]
          ]
        ]
      },
      "properties": {
        "account": "publix",
        "name": "Publix Frozen DC Lakeland FL",
        "type": "Frozen DC",
        "archetype": "#9",
        "archetypeName": "Gate + No GS (remote check-in)",
        "confidence": "medium",
        "zone": "perimeter",
        "truckGate": true,
        "guardShack": false,
        "remoteGs": true,
        "fastLaneOpportunity": true,
        "backupSensitive": false,
        "dropYard": true,
        "multipleFacilities": true,
        "scale": false,
        "shipRcvSeparate": true,
        "urbanRural": "Rural",
        "dockDoors": "50+",
        "dropArea": "50+",
        "yardMetrics": {
          "dockDoorCount": 60,
          "trailersVisible": 70,
          "trailerParkingCapacity": 90,
          "truckGateCount": 1,
          "buildingCount": 3,
          "siteAreaAcres": 52,
          "railServed": false
        }
      }
    },
    {
      "type": "Feature",
      "geometry": {
        "type": "Polygon",
        "coordinates": [
          [
            [
              -82.0464,
              28.0005
            ],
            [
              -82.0471,
              27.9996
            ],
            [
              -82.0466,
              27.9994
            ],
            [
              -82.0459,
              28.0003
            ],
            [
              -82.0464,
              28.0005
            ]
          ]
        ]
      },
      "properties": {
        "account": "publix",
        "name": "Publix Frozen DC Lakeland FL",
        "type": "Frozen DC",
        "archetype": "#9",
        "archetypeName": "Gate + No GS (remote check-in)",
        "confidence": "medium",
        "zone": "truckGate"
      }
    },
    {
      "type": "Feature",
      "geometry": {
        "type": "Polygon",
        "coordinates": [
          [
            [
              -82.0413,
              28.0088
            ],
            [
              -82.0412,
              28.00755
            ],
            [
              -82.0401,
              28.0076
            ],
            [
              -82.0402,
              28.00895
            ],
            [
              -82.0413,
              28.0088
            ]
          ]
        ]
      },
      "properties": {
        "account": "publix",
        "name": "Publix Frozen DC Lakeland FL",
        "type": "Frozen DC",
        "archetype": "#9",
        "archetypeName": "Gate + No GS (remote check-in)",
        "confidence": "medium",
        "zone": "dropYard",
        "index": 1
      }
    },
    {
      "type": "Feature",
      "geometry": {
        "type": "Polygon",
        "coordinates": [
          [
            [
              -82.04185,
              28.00735
            ],
            [
              -82.0422,
              28.00705
            ],
            [
              -82.0412,
              28.0061
            ],
            [
              -82.04085,
              28.0064
            ],
            [
              -82.04185,
              28.00735
            ]
          ]
        ]
      },
      "properties": {
        "account": "publix",
        "name": "Publix Frozen DC Lakeland FL",
        "type": "Frozen DC",
        "archetype": "#9",
        "archetypeName": "Gate + No GS (remote check-in)",
        "confidence": "medium",
        "zone": "dockApron",
        "index": 1
      }
    },
    {
      "type": "Feature",
      "geometry": {
        "type": "Polygon",
        "coordinates": [
          [
            [
              -82.04355,
              28.00805
            ],
            [
              -82.0438,
              28.0077
            ],
            [
              -82.04275,
              28.00735
            ],
            [
              -82.0425,
              28.0077
            ],
            [
              -82.04355,
              28.00805
            ]
          ]
        ]
      },
      "properties": {
        "account": "publix",
        "name": "Publix Frozen DC Lakeland FL",
        "type": "Frozen DC",
        "archetype": "#9",
        "archetypeName": "Gate + No GS (remote check-in)",
        "confidence": "medium",
        "zone": "dockApron",
        "index": 2
      }
    },
    {
      "type": "Feature",
      "geometry": {
        "type": "Polygon",
        "coordinates": [
          [
            [
              -82.0119,
              28.03905
            ],
            [
              -82.007,
              28.0389
            ],
            [
              -82.0055,
              28.0396
            ],
            [
              -82.0033,
              28.041
            ],
            [
              -82.0034,
              28.0433
            ],
            [
              -82.0068,
              28.0448
            ],
            [
              -82.0114,
              28.0446
            ],
            [
              -82.0119,
              28.03905
            ]
          ]
        ]
      },
      "properties": {
        "account": "publix",
        "name": "Publix Produce DC Lakeland FL (Fresh/Deli)",
        "type": "Produce DC",
        "archetype": "#6",
        "archetypeName": "Gate + GS (not BU sens.) + campus",
        "confidence": "high",
        "zone": "perimeter",
        "truckGate": true,
        "guardShack": true,
        "remoteGs": false,
        "fastLaneOpportunity": true,
        "backupSensitive": false,
        "dropYard": true,
        "multipleFacilities": true,
        "scale": false,
        "shipRcvSeparate": true,
        "urbanRural": "Urban",
        "dockDoors": "50+",
        "dropArea": "50+",
        "yardMetrics": {
          "dockDoorCount": 130,
          "trailersVisible": 320,
          "trailerParkingCapacity": 450,
          "truckGateCount": 3,
          "buildingCount": 9,
          "siteAreaAcres": 113,
          "railServed": false
        }
      }
    },
    {
      "type": "Feature",
      "geometry": {
        "type": "Polygon",
        "coordinates": [
          [
            [
              -82.00725,
              28.0393
            ],
            [
              -82.00692,
              28.03932
            ],
            [
              -82.00685,
              28.0397
            ],
            [
              -82.00718,
              28.03968
            ],
            [
              -82.00725,
              28.0393
            ]
          ]
        ]
      },
      "properties": {
        "account": "publix",
        "name": "Publix Produce DC Lakeland FL (Fresh/Deli)",
        "type": "Produce DC",
        "archetype": "#6",
        "archetypeName": "Gate + GS (not BU sens.) + campus",
        "confidence": "high",
        "zone": "truckGate"
      }
    },
    {
      "type": "Feature",
      "geometry": {
        "type": "Polygon",
        "coordinates": [
          [
            [
              -82.01035,
              28.04305
            ],
            [
              -82.00825,
              28.04315
            ],
            [
              -82.0081,
              28.04455
            ],
            [
              -82.0102,
              28.04445
            ],
            [
              -82.01035,
              28.04305
            ]
          ]
        ]
      },
      "properties": {
        "account": "publix",
        "name": "Publix Produce DC Lakeland FL (Fresh/Deli)",
        "type": "Produce DC",
        "archetype": "#6",
        "archetypeName": "Gate + GS (not BU sens.) + campus",
        "confidence": "high",
        "zone": "dropYard",
        "index": 1
      }
    },
    {
      "type": "Feature",
      "geometry": {
        "type": "Polygon",
        "coordinates": [
          [
            [
              -82.0087,
              28.04075
            ],
            [
              -82.0065,
              28.04085
            ],
            [
              -82.0064,
              28.04185
            ],
            [
              -82.0086,
              28.04175
            ],
            [
              -82.0087,
              28.04075
            ]
          ]
        ]
      },
      "properties": {
        "account": "publix",
        "name": "Publix Produce DC Lakeland FL (Fresh/Deli)",
        "type": "Produce DC",
        "archetype": "#6",
        "archetypeName": "Gate + GS (not BU sens.) + campus",
        "confidence": "high",
        "zone": "dropYard",
        "index": 2
      }
    },
    {
      "type": "Feature",
      "geometry": {
        "type": "Polygon",
        "coordinates": [
          [
            [
              -82.0049,
              28.04045
            ],
            [
              -82.0044,
              28.04048
            ],
            [
              -82.00425,
              28.04188
            ],
            [
              -82.00475,
              28.04185
            ],
            [
              -82.0049,
              28.04045
            ]
          ]
        ]
      },
      "properties": {
        "account": "publix",
        "name": "Publix Produce DC Lakeland FL (Fresh/Deli)",
        "type": "Produce DC",
        "archetype": "#6",
        "archetypeName": "Gate + GS (not BU sens.) + campus",
        "confidence": "high",
        "zone": "dockApron",
        "index": 1
      }
    },
    {
      "type": "Feature",
      "geometry": {
        "type": "Polygon",
        "coordinates": [
          [
            [
              -82.00895,
              28.04015
            ],
            [
              -82.00893,
              28.0399
            ],
            [
              -82.00703,
              28.04
            ],
            [
              -82.00705,
              28.04025
            ],
            [
              -82.00895,
              28.04015
            ]
          ]
        ]
      },
      "properties": {
        "account": "publix",
        "name": "Publix Produce DC Lakeland FL (Fresh/Deli)",
        "type": "Produce DC",
        "archetype": "#6",
        "archetypeName": "Gate + GS (not BU sens.) + campus",
        "confidence": "high",
        "zone": "dockApron",
        "index": 2
      }
    },
    {
      "type": "Feature",
      "geometry": {
        "type": "Polygon",
        "coordinates": [
          [
            [
              -80.1245,
              26.3128
            ],
            [
              -80.1245,
              26.3048
            ],
            [
              -80.1218,
              26.3049
            ],
            [
              -80.1211,
              26.3056
            ],
            [
              -80.1208,
              26.3128
            ],
            [
              -80.1245,
              26.3128
            ]
          ]
        ]
      },
      "properties": {
        "account": "publix",
        "name": "Publix Refrigerated DC Deerfield Beach FL",
        "type": "Refrigerated DC",
        "archetype": "#6",
        "archetypeName": "Gate + GS (not BU sens.) + campus",
        "confidence": "high",
        "zone": "perimeter",
        "truckGate": true,
        "guardShack": true,
        "remoteGs": false,
        "fastLaneOpportunity": true,
        "backupSensitive": false,
        "dropYard": true,
        "multipleFacilities": true,
        "scale": false,
        "shipRcvSeparate": true,
        "urbanRural": "Urban",
        "dockDoors": "50+",
        "dropArea": "50+",
        "yardMetrics": {
          "dockDoorCount": 120,
          "trailersVisible": 165,
          "trailerParkingCapacity": 200,
          "truckGateCount": 1,
          "buildingCount": 2,
          "siteAreaAcres": 76.4,
          "railServed": false
        }
      }
    },
    {
      "type": "Feature",
      "geometry": {
        "type": "Polygon",
        "coordinates": [
          [
            [
              -80.1238,
              26.3056
            ],
            [
              -80.1238,
              26.3049
            ],
            [
              -80.1227,
              26.3049
            ],
            [
              -80.1227,
              26.3056
            ],
            [
              -80.1238,
              26.3056
            ]
          ]
        ]
      },
      "properties": {
        "account": "publix",
        "name": "Publix Refrigerated DC Deerfield Beach FL",
        "type": "Refrigerated DC",
        "archetype": "#6",
        "archetypeName": "Gate + GS (not BU sens.) + campus",
        "confidence": "high",
        "zone": "truckGate"
      }
    },
    {
      "type": "Feature",
      "geometry": {
        "type": "Polygon",
        "coordinates": [
          [
            [
              -80.1235,
              26.3105
            ],
            [
              -80.1236,
              26.3083
            ],
            [
              -80.1212,
              26.3083
            ],
            [
              -80.1211,
              26.3105
            ],
            [
              -80.1235,
              26.3105
            ]
          ]
        ]
      },
      "properties": {
        "account": "publix",
        "name": "Publix Refrigerated DC Deerfield Beach FL",
        "type": "Refrigerated DC",
        "archetype": "#6",
        "archetypeName": "Gate + GS (not BU sens.) + campus",
        "confidence": "high",
        "zone": "dropYard",
        "index": 1
      }
    },
    {
      "type": "Feature",
      "geometry": {
        "type": "Polygon",
        "coordinates": [
          [
            [
              -80.1223,
              26.3072
            ],
            [
              -80.1224,
              26.3054
            ],
            [
              -80.1213,
              26.3054
            ],
            [
              -80.1212,
              26.3072
            ],
            [
              -80.1223,
              26.3072
            ]
          ]
        ]
      },
      "properties": {
        "account": "publix",
        "name": "Publix Refrigerated DC Deerfield Beach FL",
        "type": "Refrigerated DC",
        "archetype": "#6",
        "archetypeName": "Gate + GS (not BU sens.) + campus",
        "confidence": "high",
        "zone": "dropYard",
        "index": 2
      }
    },
    {
      "type": "Feature",
      "geometry": {
        "type": "Polygon",
        "coordinates": [
          [
            [
              -80.1242,
              26.3095
            ],
            [
              -80.1242,
              26.306
            ],
            [
              -80.1238,
              26.306
            ],
            [
              -80.1238,
              26.3095
            ],
            [
              -80.1242,
              26.3095
            ]
          ]
        ]
      },
      "properties": {
        "account": "publix",
        "name": "Publix Refrigerated DC Deerfield Beach FL",
        "type": "Refrigerated DC",
        "archetype": "#6",
        "archetypeName": "Gate + GS (not BU sens.) + campus",
        "confidence": "high",
        "zone": "dockApron",
        "index": 1
      }
    },
    {
      "type": "Feature",
      "geometry": {
        "type": "Polygon",
        "coordinates": [
          [
            [
              -80.1218,
              26.3105
            ],
            [
              -80.1219,
              26.3064
            ],
            [
              -80.1215,
              26.3064
            ],
            [
              -80.1214,
              26.3105
            ],
            [
              -80.1218,
              26.3105
            ]
          ]
        ]
      },
      "properties": {
        "account": "publix",
        "name": "Publix Refrigerated DC Deerfield Beach FL",
        "type": "Refrigerated DC",
        "archetype": "#6",
        "archetypeName": "Gate + GS (not BU sens.) + campus",
        "confidence": "high",
        "zone": "dockApron",
        "index": 2
      }
    },
    {
      "type": "Feature",
      "geometry": {
        "type": "Polygon",
        "coordinates": [
          [
            [
              -80.1239,
              26.30485
            ],
            [
              -80.1239,
              26.3044
            ],
            [
              -80.12255,
              26.3044
            ],
            [
              -80.12255,
              26.30485
            ],
            [
              -80.1239,
              26.30485
            ]
          ]
        ]
      },
      "properties": {
        "account": "publix",
        "name": "Publix Refrigerated DC Deerfield Beach FL",
        "type": "Refrigerated DC",
        "archetype": "#6",
        "archetypeName": "Gate + GS (not BU sens.) + campus",
        "confidence": "high",
        "zone": "staging"
      }
    },
    {
      "type": "Feature",
      "geometry": {
        "type": "Polygon",
        "coordinates": [
          [
            [
              -80.0814,
              26.5412
            ],
            [
              -80.0749,
              26.5413
            ],
            [
              -80.0744,
              26.544
            ],
            [
              -80.07555,
              26.5451
            ],
            [
              -80.0812,
              26.545
            ],
            [
              -80.0814,
              26.5412
            ]
          ]
        ]
      },
      "properties": {
        "account": "publix",
        "name": "Publix Grocery Distribution Center Boynton Beach FL",
        "type": "Grocery Distribution Center",
        "archetype": "#10",
        "archetypeName": "Ship/Rcv Separate (Gate+GS)",
        "confidence": "high",
        "zone": "perimeter",
        "truckGate": true,
        "guardShack": true,
        "remoteGs": false,
        "fastLaneOpportunity": true,
        "backupSensitive": false,
        "dropYard": true,
        "multipleFacilities": false,
        "scale": false,
        "shipRcvSeparate": true,
        "urbanRural": "Urban",
        "dockDoors": "50+",
        "dropArea": "50+",
        "yardMetrics": {
          "dockDoorCount": 140,
          "trailersVisible": 90,
          "trailerParkingCapacity": 160,
          "truckGateCount": 1,
          "buildingCount": 2,
          "siteAreaAcres": 68.3,
          "railServed": false
        }
      }
    },
    {
      "type": "Feature",
      "geometry": {
        "type": "Polygon",
        "coordinates": [
          [
            [
              -80.08075,
              26.54135
            ],
            [
              -80.08025,
              26.54135
            ],
            [
              -80.08025,
              26.54195
            ],
            [
              -80.08075,
              26.54195
            ],
            [
              -80.08075,
              26.54135
            ]
          ]
        ]
      },
      "properties": {
        "account": "publix",
        "name": "Publix Grocery Distribution Center Boynton Beach FL",
        "type": "Grocery Distribution Center",
        "archetype": "#10",
        "archetypeName": "Ship/Rcv Separate (Gate+GS)",
        "confidence": "high",
        "zone": "truckGate"
      }
    },
    {
      "type": "Feature",
      "geometry": {
        "type": "Polygon",
        "coordinates": [
          [
            [
              -80.0812,
              26.54435
            ],
            [
              -80.0788,
              26.54435
            ],
            [
              -80.0788,
              26.545
            ],
            [
              -80.08115,
              26.545
            ],
            [
              -80.0812,
              26.54435
            ]
          ]
        ]
      },
      "properties": {
        "account": "publix",
        "name": "Publix Grocery Distribution Center Boynton Beach FL",
        "type": "Grocery Distribution Center",
        "archetype": "#10",
        "archetypeName": "Ship/Rcv Separate (Gate+GS)",
        "confidence": "high",
        "zone": "dropYard",
        "index": 1
      }
    },
    {
      "type": "Feature",
      "geometry": {
        "type": "Polygon",
        "coordinates": [
          [
            [
              -80.08135,
              26.54235
            ],
            [
              -80.0804,
              26.54235
            ],
            [
              -80.08035,
              26.5442
            ],
            [
              -80.0813,
              26.5442
            ],
            [
              -80.08135,
              26.54235
            ]
          ]
        ]
      },
      "properties": {
        "account": "publix",
        "name": "Publix Grocery Distribution Center Boynton Beach FL",
        "type": "Grocery Distribution Center",
        "archetype": "#10",
        "archetypeName": "Ship/Rcv Separate (Gate+GS)",
        "confidence": "high",
        "zone": "dropYard",
        "index": 2
      }
    },
    {
      "type": "Feature",
      "geometry": {
        "type": "Polygon",
        "coordinates": [
          [
            [
              -80.08,
              26.54215
            ],
            [
              -80.0752,
              26.54215
            ],
            [
              -80.0752,
              26.5426
            ],
            [
              -80.08,
              26.5426
            ],
            [
              -80.08,
              26.54215
            ]
          ]
        ]
      },
      "properties": {
        "account": "publix",
        "name": "Publix Grocery Distribution Center Boynton Beach FL",
        "type": "Grocery Distribution Center",
        "archetype": "#10",
        "archetypeName": "Ship/Rcv Separate (Gate+GS)",
        "confidence": "high",
        "zone": "dropYard",
        "index": 3
      }
    },
    {
      "type": "Feature",
      "geometry": {
        "type": "Polygon",
        "coordinates": [
          [
            [
              -80.0803,
              26.5425
            ],
            [
              -80.0753,
              26.5425
            ],
            [
              -80.0753,
              26.54285
            ],
            [
              -80.0803,
              26.54285
            ],
            [
              -80.0803,
              26.5425
            ]
          ]
        ]
      },
      "properties": {
        "account": "publix",
        "name": "Publix Grocery Distribution Center Boynton Beach FL",
        "type": "Grocery Distribution Center",
        "archetype": "#10",
        "archetypeName": "Ship/Rcv Separate (Gate+GS)",
        "confidence": "high",
        "zone": "dockApron",
        "index": 1
      }
    },
    {
      "type": "Feature",
      "geometry": {
        "type": "Polygon",
        "coordinates": [
          [
            [
              -80.08135,
              26.5429
            ],
            [
              -80.081,
              26.5429
            ],
            [
              -80.08095,
              26.5443
            ],
            [
              -80.0813,
              26.5443
            ],
            [
              -80.08135,
              26.5429
            ]
          ]
        ]
      },
      "properties": {
        "account": "publix",
        "name": "Publix Grocery Distribution Center Boynton Beach FL",
        "type": "Grocery Distribution Center",
        "archetype": "#10",
        "archetypeName": "Ship/Rcv Separate (Gate+GS)",
        "confidence": "high",
        "zone": "dockApron",
        "index": 2
      }
    },
    {
      "type": "Feature",
      "geometry": {
        "type": "Polygon",
        "coordinates": [
          [
            [
              -80.0788,
              26.5443
            ],
            [
              -80.0756,
              26.5443
            ],
            [
              -80.0756,
              26.54465
            ],
            [
              -80.0788,
              26.54465
            ],
            [
              -80.0788,
              26.5443
            ]
          ]
        ]
      },
      "properties": {
        "account": "publix",
        "name": "Publix Grocery Distribution Center Boynton Beach FL",
        "type": "Grocery Distribution Center",
        "archetype": "#10",
        "archetypeName": "Ship/Rcv Separate (Gate+GS)",
        "confidence": "high",
        "zone": "dockApron",
        "index": 3
      }
    },
    {
      "type": "Feature",
      "geometry": {
        "type": "Polygon",
        "coordinates": [
          [
            [
              -80.08075,
              26.5413
            ],
            [
              -80.0752,
              26.5413
            ],
            [
              -80.0752,
              26.542
            ],
            [
              -80.08075,
              26.542
            ],
            [
              -80.08075,
              26.5413
            ]
          ]
        ]
      },
      "properties": {
        "account": "publix",
        "name": "Publix Grocery Distribution Center Boynton Beach FL",
        "type": "Grocery Distribution Center",
        "archetype": "#10",
        "archetypeName": "Ship/Rcv Separate (Gate+GS)",
        "confidence": "high",
        "zone": "staging"
      }
    },
    {
      "type": "Feature",
      "geometry": {
        "type": "Polygon",
        "coordinates": [
          [
            [
              -81.2796,
              28.4587
            ],
            [
              -81.282,
              28.4586
            ],
            [
              -81.2848,
              28.4575
            ],
            [
              -81.2843,
              28.4535
            ],
            [
              -81.2805,
              28.453
            ],
            [
              -81.2786,
              28.4562
            ],
            [
              -81.2796,
              28.4587
            ]
          ]
        ]
      },
      "properties": {
        "account": "publix",
        "name": "Publix Refrigerated DC Orlando FL",
        "type": "Refrigerated DC",
        "archetype": "#6",
        "archetypeName": "Gate + GS (not BU sens.) + campus",
        "confidence": "high",
        "zone": "perimeter",
        "truckGate": true,
        "guardShack": true,
        "remoteGs": false,
        "fastLaneOpportunity": true,
        "backupSensitive": false,
        "dropYard": true,
        "multipleFacilities": true,
        "scale": false,
        "shipRcvSeparate": true,
        "urbanRural": "Urban",
        "dockDoors": "50+",
        "dropArea": "50+",
        "yardMetrics": {
          "dockDoorCount": 110,
          "trailersVisible": 180,
          "trailerParkingCapacity": 320,
          "truckGateCount": 1,
          "buildingCount": 3,
          "siteAreaAcres": 72.4,
          "railServed": false
        }
      }
    },
    {
      "type": "Feature",
      "geometry": {
        "type": "Polygon",
        "coordinates": [
          [
            [
              -81.2803,
              28.4561
            ],
            [
              -81.28055,
              28.4558
            ],
            [
              -81.2802,
              28.45558
            ],
            [
              -81.27995,
              28.45588
            ],
            [
              -81.2803,
              28.4561
            ]
          ]
        ]
      },
      "properties": {
        "account": "publix",
        "name": "Publix Refrigerated DC Orlando FL",
        "type": "Refrigerated DC",
        "archetype": "#6",
        "archetypeName": "Gate + GS (not BU sens.) + campus",
        "confidence": "high",
        "zone": "truckGate"
      }
    },
    {
      "type": "Feature",
      "geometry": {
        "type": "Polygon",
        "coordinates": [
          [
            [
              -81.2837,
              28.4572
            ],
            [
              -81.285,
              28.4556
            ],
            [
              -81.2843,
              28.4552
            ],
            [
              -81.283,
              28.4568
            ],
            [
              -81.2837,
              28.4572
            ]
          ]
        ]
      },
      "properties": {
        "account": "publix",
        "name": "Publix Refrigerated DC Orlando FL",
        "type": "Refrigerated DC",
        "archetype": "#6",
        "archetypeName": "Gate + GS (not BU sens.) + campus",
        "confidence": "high",
        "zone": "dropYard",
        "index": 1
      }
    },
    {
      "type": "Feature",
      "geometry": {
        "type": "Polygon",
        "coordinates": [
          [
            [
              -81.2801,
              28.4552
            ],
            [
              -81.2811,
              28.4541
            ],
            [
              -81.2804,
              28.4536
            ],
            [
              -81.2794,
              28.4547
            ],
            [
              -81.2801,
              28.4552
            ]
          ]
        ]
      },
      "properties": {
        "account": "publix",
        "name": "Publix Refrigerated DC Orlando FL",
        "type": "Refrigerated DC",
        "archetype": "#6",
        "archetypeName": "Gate + GS (not BU sens.) + campus",
        "confidence": "high",
        "zone": "dropYard",
        "index": 2
      }
    },
    {
      "type": "Feature",
      "geometry": {
        "type": "Polygon",
        "coordinates": [
          [
            [
              -81.2834,
              28.4577
            ],
            [
              -81.2854,
              28.45505
            ],
            [
              -81.2849,
              28.4547
            ],
            [
              -81.2829,
              28.45735
            ],
            [
              -81.2834,
              28.4577
            ]
          ]
        ]
      },
      "properties": {
        "account": "publix",
        "name": "Publix Refrigerated DC Orlando FL",
        "type": "Refrigerated DC",
        "archetype": "#6",
        "archetypeName": "Gate + GS (not BU sens.) + campus",
        "confidence": "high",
        "zone": "dockApron",
        "index": 1
      }
    },
    {
      "type": "Feature",
      "geometry": {
        "type": "Polygon",
        "coordinates": [
          [
            [
              -81.281,
              28.4559
            ],
            [
              -81.2817,
              28.45505
            ],
            [
              -81.2812,
              28.4547
            ],
            [
              -81.2805,
              28.45555
            ],
            [
              -81.281,
              28.4559
            ]
          ]
        ]
      },
      "properties": {
        "account": "publix",
        "name": "Publix Refrigerated DC Orlando FL",
        "type": "Refrigerated DC",
        "archetype": "#6",
        "archetypeName": "Gate + GS (not BU sens.) + campus",
        "confidence": "high",
        "zone": "staging"
      }
    },
    {
      "type": "Feature",
      "geometry": {
        "type": "Polygon",
        "coordinates": [
          [
            [
              -81.8215,
              30.31555
            ],
            [
              -81.82175,
              30.3147
            ],
            [
              -81.8215,
              30.3137
            ],
            [
              -81.8195,
              30.3135
            ],
            [
              -81.8164,
              30.3136
            ],
            [
              -81.816,
              30.3147
            ],
            [
              -81.8168,
              30.3159
            ],
            [
              -81.8195,
              30.316
            ],
            [
              -81.8215,
              30.31555
            ]
          ]
        ]
      },
      "properties": {
        "account": "publix",
        "name": "Publix Grocery Distribution Center Jacksonville FL",
        "type": "Grocery Distribution Center",
        "archetype": "#6",
        "archetypeName": "Gate + GS (not BU sens.) + campus",
        "confidence": "high",
        "zone": "perimeter",
        "truckGate": true,
        "guardShack": true,
        "remoteGs": false,
        "fastLaneOpportunity": true,
        "backupSensitive": false,
        "dropYard": true,
        "multipleFacilities": true,
        "scale": false,
        "shipRcvSeparate": true,
        "urbanRural": "Urban",
        "dockDoors": "50+",
        "dropArea": "50+",
        "yardMetrics": {
          "dockDoorCount": 140,
          "trailersVisible": 180,
          "trailerParkingCapacity": 250,
          "truckGateCount": 1,
          "buildingCount": 3,
          "siteAreaAcres": 32.3,
          "railServed": true
        }
      }
    },
    {
      "type": "Feature",
      "geometry": {
        "type": "Polygon",
        "coordinates": [
          [
            [
              -81.81925,
              30.31545
            ],
            [
              -81.81925,
              30.31505
            ],
            [
              -81.81885,
              30.31505
            ],
            [
              -81.81885,
              30.31545
            ],
            [
              -81.81925,
              30.31545
            ]
          ]
        ]
      },
      "properties": {
        "account": "publix",
        "name": "Publix Grocery Distribution Center Jacksonville FL",
        "type": "Grocery Distribution Center",
        "archetype": "#6",
        "archetypeName": "Gate + GS (not BU sens.) + campus",
        "confidence": "high",
        "zone": "truckGate"
      }
    },
    {
      "type": "Feature",
      "geometry": {
        "type": "Polygon",
        "coordinates": [
          [
            [
              -81.81935,
              30.3147
            ],
            [
              -81.8195,
              30.31395
            ],
            [
              -81.81845,
              30.31385
            ],
            [
              -81.8183,
              30.3146
            ],
            [
              -81.81935,
              30.3147
            ]
          ]
        ]
      },
      "properties": {
        "account": "publix",
        "name": "Publix Grocery Distribution Center Jacksonville FL",
        "type": "Grocery Distribution Center",
        "archetype": "#6",
        "archetypeName": "Gate + GS (not BU sens.) + campus",
        "confidence": "high",
        "zone": "dropYard",
        "index": 1
      }
    },
    {
      "type": "Feature",
      "geometry": {
        "type": "Polygon",
        "coordinates": [
          [
            [
              -81.82055,
              30.3143
            ],
            [
              -81.8208,
              30.31345
            ],
            [
              -81.8201,
              30.3133
            ],
            [
              -81.81985,
              30.31415
            ],
            [
              -81.82055,
              30.3143
            ]
          ]
        ]
      },
      "properties": {
        "account": "publix",
        "name": "Publix Grocery Distribution Center Jacksonville FL",
        "type": "Grocery Distribution Center",
        "archetype": "#6",
        "archetypeName": "Gate + GS (not BU sens.) + campus",
        "confidence": "high",
        "zone": "dropYard",
        "index": 2
      }
    },
    {
      "type": "Feature",
      "geometry": {
        "type": "Polygon",
        "coordinates": [
          [
            [
              -81.81995,
              30.31455
            ],
            [
              -81.82,
              30.3144
            ],
            [
              -81.81885,
              30.3142
            ],
            [
              -81.8188,
              30.31435
            ],
            [
              -81.81995,
              30.31455
            ]
          ]
        ]
      },
      "properties": {
        "account": "publix",
        "name": "Publix Grocery Distribution Center Jacksonville FL",
        "type": "Grocery Distribution Center",
        "archetype": "#6",
        "archetypeName": "Gate + GS (not BU sens.) + campus",
        "confidence": "high",
        "zone": "dockApron",
        "index": 1
      }
    },
    {
      "type": "Feature",
      "geometry": {
        "type": "Polygon",
        "coordinates": [
          [
            [
              -81.8213,
              30.314
            ],
            [
              -81.82135,
              30.31383
            ],
            [
              -81.8204,
              30.31368
            ],
            [
              -81.82035,
              30.31385
            ],
            [
              -81.8213,
              30.314
            ]
          ]
        ]
      },
      "properties": {
        "account": "publix",
        "name": "Publix Grocery Distribution Center Jacksonville FL",
        "type": "Grocery Distribution Center",
        "archetype": "#6",
        "archetypeName": "Gate + GS (not BU sens.) + campus",
        "confidence": "high",
        "zone": "dockApron",
        "index": 2
      }
    },
    {
      "type": "Feature",
      "geometry": {
        "type": "Polygon",
        "coordinates": [
          [
            [
              -81.8179,
              30.31525
            ],
            [
              -81.81792,
              30.31508
            ],
            [
              -81.81662,
              30.31498
            ],
            [
              -81.8166,
              30.31515
            ],
            [
              -81.8179,
              30.31525
            ]
          ]
        ]
      },
      "properties": {
        "account": "publix",
        "name": "Publix Grocery Distribution Center Jacksonville FL",
        "type": "Grocery Distribution Center",
        "archetype": "#6",
        "archetypeName": "Gate + GS (not BU sens.) + campus",
        "confidence": "high",
        "zone": "dockApron",
        "index": 3
      }
    },
    {
      "type": "Feature",
      "geometry": {
        "type": "Polygon",
        "coordinates": [
          [
            [
              -81.81935,
              30.31555
            ],
            [
              -81.81935,
              30.3151
            ],
            [
              -81.8188,
              30.3151
            ],
            [
              -81.8188,
              30.31555
            ],
            [
              -81.81935,
              30.31555
            ]
          ]
        ]
      },
      "properties": {
        "account": "publix",
        "name": "Publix Grocery Distribution Center Jacksonville FL",
        "type": "Grocery Distribution Center",
        "archetype": "#6",
        "archetypeName": "Gate + GS (not BU sens.) + campus",
        "confidence": "high",
        "zone": "staging"
      }
    },
    {
      "type": "Feature",
      "geometry": {
        "type": "Polygon",
        "coordinates": [
          [
            [
              -82.4887,
              27.2681
            ],
            [
              -82.48905,
              27.266
            ],
            [
              -82.48895,
              27.2633
            ],
            [
              -82.4879,
              27.2621
            ],
            [
              -82.4858,
              27.2623
            ],
            [
              -82.4851,
              27.2643
            ],
            [
              -82.4856,
              27.268
            ],
            [
              -82.4887,
              27.2681
            ]
          ]
        ]
      },
      "properties": {
        "account": "publix",
        "name": "Publix Distribution Center Sarasota FL",
        "type": "Grocery Distribution Center",
        "archetype": "#9",
        "archetypeName": "Gate + No GS (remote check-in)",
        "confidence": "high",
        "zone": "perimeter",
        "truckGate": true,
        "guardShack": false,
        "remoteGs": true,
        "fastLaneOpportunity": false,
        "backupSensitive": false,
        "dropYard": true,
        "multipleFacilities": false,
        "scale": false,
        "shipRcvSeparate": true,
        "urbanRural": "Urban",
        "dockDoors": "50+",
        "dropArea": "50+",
        "yardMetrics": {
          "dockDoorCount": 55,
          "trailersVisible": 70,
          "trailerParkingCapacity": 110,
          "truckGateCount": 1,
          "buildingCount": 2,
          "siteAreaAcres": 55,
          "railServed": false
        }
      }
    },
    {
      "type": "Feature",
      "geometry": {
        "type": "Polygon",
        "coordinates": [
          [
            [
              -82.4879,
              27.26405
            ],
            [
              -82.48793,
              27.2638
            ],
            [
              -82.48748,
              27.26375
            ],
            [
              -82.48745,
              27.264
            ],
            [
              -82.4879,
              27.26405
            ]
          ]
        ]
      },
      "properties": {
        "account": "publix",
        "name": "Publix Distribution Center Sarasota FL",
        "type": "Grocery Distribution Center",
        "archetype": "#9",
        "archetypeName": "Gate + No GS (remote check-in)",
        "confidence": "high",
        "zone": "truckGate"
      }
    },
    {
      "type": "Feature",
      "geometry": {
        "type": "Polygon",
        "coordinates": [
          [
            [
              -82.4879,
              27.2679
            ],
            [
              -82.48795,
              27.2663
            ],
            [
              -82.486,
              27.26625
            ],
            [
              -82.48605,
              27.26785
            ],
            [
              -82.4879,
              27.2679
            ]
          ]
        ]
      },
      "properties": {
        "account": "publix",
        "name": "Publix Distribution Center Sarasota FL",
        "type": "Grocery Distribution Center",
        "archetype": "#9",
        "archetypeName": "Gate + No GS (remote check-in)",
        "confidence": "high",
        "zone": "dropYard",
        "index": 1
      }
    },
    {
      "type": "Feature",
      "geometry": {
        "type": "Polygon",
        "coordinates": [
          [
            [
              -82.4888,
              27.2664
            ],
            [
              -82.48888,
              27.26425
            ],
            [
              -82.48825,
              27.2642
            ],
            [
              -82.48815,
              27.26635
            ],
            [
              -82.4888,
              27.2664
            ]
          ]
        ]
      },
      "properties": {
        "account": "publix",
        "name": "Publix Distribution Center Sarasota FL",
        "type": "Grocery Distribution Center",
        "archetype": "#9",
        "archetypeName": "Gate + No GS (remote check-in)",
        "confidence": "high",
        "zone": "dropYard",
        "index": 2
      }
    },
    {
      "type": "Feature",
      "geometry": {
        "type": "Polygon",
        "coordinates": [
          [
            [
              -82.487,
              27.26315
            ],
            [
              -82.48702,
              27.26283
            ],
            [
              -82.48542,
              27.2628
            ],
            [
              -82.4854,
              27.26312
            ],
            [
              -82.487,
              27.26315
            ]
          ]
        ]
      },
      "properties": {
        "account": "publix",
        "name": "Publix Distribution Center Sarasota FL",
        "type": "Grocery Distribution Center",
        "archetype": "#9",
        "archetypeName": "Gate + No GS (remote check-in)",
        "confidence": "high",
        "zone": "dockApron",
        "index": 1
      }
    },
    {
      "type": "Feature",
      "geometry": {
        "type": "Polygon",
        "coordinates": [
          [
            [
              -82.4872,
              27.26565
            ],
            [
              -82.48715,
              27.26425
            ],
            [
              -82.48685,
              27.26423
            ],
            [
              -82.4869,
              27.26563
            ],
            [
              -82.4872,
              27.26565
            ]
          ]
        ]
      },
      "properties": {
        "account": "publix",
        "name": "Publix Distribution Center Sarasota FL",
        "type": "Grocery Distribution Center",
        "archetype": "#9",
        "archetypeName": "Gate + No GS (remote check-in)",
        "confidence": "high",
        "zone": "dockApron",
        "index": 2
      }
    },
    {
      "type": "Feature",
      "geometry": {
        "type": "Polygon",
        "coordinates": [
          [
            [
              -82.48748,
              27.2643
            ],
            [
              -82.48745,
              27.26332
            ],
            [
              -82.48625,
              27.2633
            ],
            [
              -82.4863,
              27.26428
            ],
            [
              -82.48748,
              27.2643
            ]
          ]
        ]
      },
      "properties": {
        "account": "publix",
        "name": "Publix Distribution Center Sarasota FL",
        "type": "Grocery Distribution Center",
        "archetype": "#9",
        "archetypeName": "Gate + No GS (remote check-in)",
        "confidence": "high",
        "zone": "staging"
      }
    },
    {
      "type": "Feature",
      "geometry": {
        "type": "Polygon",
        "coordinates": [
          [
            [
              -83.9352,
              33.9938
            ],
            [
              -83.9355,
              33.9878
            ],
            [
              -83.932,
              33.9866
            ],
            [
              -83.9288,
              33.9868
            ],
            [
              -83.9268,
              33.9905
            ],
            [
              -83.9288,
              33.9942
            ],
            [
              -83.9352,
              33.9938
            ]
          ]
        ]
      },
      "properties": {
        "account": "publix",
        "name": "Publix Distribution Campus Dacula GA (Atlanta)",
        "type": "Distribution Campus",
        "archetype": "#9",
        "archetypeName": "Gate + No GS (remote check-in)",
        "confidence": "high",
        "zone": "perimeter",
        "truckGate": true,
        "guardShack": false,
        "remoteGs": true,
        "fastLaneOpportunity": true,
        "backupSensitive": false,
        "dropYard": true,
        "multipleFacilities": true,
        "scale": false,
        "shipRcvSeparate": true,
        "urbanRural": "Urban",
        "dockDoors": "50+",
        "dropArea": "50+",
        "yardMetrics": {
          "dockDoorCount": 140,
          "trailersVisible": 360,
          "trailerParkingCapacity": 420,
          "truckGateCount": 1,
          "buildingCount": 4,
          "siteAreaAcres": 136.1,
          "railServed": false
        }
      }
    },
    {
      "type": "Feature",
      "geometry": {
        "type": "Polygon",
        "coordinates": [
          [
            [
              -83.9347,
              33.9901
            ],
            [
              -83.93455,
              33.98955
            ],
            [
              -83.93315,
              33.98975
            ],
            [
              -83.9333,
              33.9903
            ],
            [
              -83.9347,
              33.9901
            ]
          ]
        ]
      },
      "properties": {
        "account": "publix",
        "name": "Publix Distribution Campus Dacula GA (Atlanta)",
        "type": "Distribution Campus",
        "archetype": "#9",
        "archetypeName": "Gate + No GS (remote check-in)",
        "confidence": "high",
        "zone": "truckGate"
      }
    },
    {
      "type": "Feature",
      "geometry": {
        "type": "Polygon",
        "coordinates": [
          [
            [
              -83.93215,
              33.98985
            ],
            [
              -83.93355,
              33.98865
            ],
            [
              -83.93285,
              33.988
            ],
            [
              -83.93145,
              33.9892
            ],
            [
              -83.93215,
              33.98985
            ]
          ]
        ]
      },
      "properties": {
        "account": "publix",
        "name": "Publix Distribution Campus Dacula GA (Atlanta)",
        "type": "Distribution Campus",
        "archetype": "#9",
        "archetypeName": "Gate + No GS (remote check-in)",
        "confidence": "high",
        "zone": "dropYard",
        "index": 1
      }
    },
    {
      "type": "Feature",
      "geometry": {
        "type": "Polygon",
        "coordinates": [
          [
            [
              -83.9347,
              33.9927
            ],
            [
              -83.9355,
              33.9912
            ],
            [
              -83.9341,
              33.9908
            ],
            [
              -83.9333,
              33.9923
            ],
            [
              -83.9347,
              33.9927
            ]
          ]
        ]
      },
      "properties": {
        "account": "publix",
        "name": "Publix Distribution Campus Dacula GA (Atlanta)",
        "type": "Distribution Campus",
        "archetype": "#9",
        "archetypeName": "Gate + No GS (remote check-in)",
        "confidence": "high",
        "zone": "dropYard",
        "index": 2
      }
    },
    {
      "type": "Feature",
      "geometry": {
        "type": "Polygon",
        "coordinates": [
          [
            [
              -83.9334,
              33.993
            ],
            [
              -83.9302,
              33.9888
            ],
            [
              -83.9299,
              33.9892
            ],
            [
              -83.9331,
              33.9934
            ],
            [
              -83.9334,
              33.993
            ]
          ]
        ]
      },
      "properties": {
        "account": "publix",
        "name": "Publix Distribution Campus Dacula GA (Atlanta)",
        "type": "Distribution Campus",
        "archetype": "#9",
        "archetypeName": "Gate + No GS (remote check-in)",
        "confidence": "high",
        "zone": "dockApron",
        "index": 1
      }
    },
    {
      "type": "Feature",
      "geometry": {
        "type": "Polygon",
        "coordinates": [
          [
            [
              -83.9318,
              33.9928
            ],
            [
              -83.9287,
              33.9886
            ],
            [
              -83.9284,
              33.989
            ],
            [
              -83.9315,
              33.9932
            ],
            [
              -83.9318,
              33.9928
            ]
          ]
        ]
      },
      "properties": {
        "account": "publix",
        "name": "Publix Distribution Campus Dacula GA (Atlanta)",
        "type": "Distribution Campus",
        "archetype": "#9",
        "archetypeName": "Gate + No GS (remote check-in)",
        "confidence": "high",
        "zone": "dockApron",
        "index": 2
      }
    },
    {
      "type": "Feature",
      "geometry": {
        "type": "Polygon",
        "coordinates": [
          [
            [
              -83.9312,
              33.98935
            ],
            [
              -83.93215,
              33.9885
            ],
            [
              -83.9315,
              33.988
            ],
            [
              -83.93055,
              33.98885
            ],
            [
              -83.9312,
              33.98935
            ]
          ]
        ]
      },
      "properties": {
        "account": "publix",
        "name": "Publix Distribution Campus Dacula GA (Atlanta)",
        "type": "Distribution Campus",
        "archetype": "#9",
        "archetypeName": "Gate + No GS (remote check-in)",
        "confidence": "high",
        "zone": "staging"
      }
    },
    {
      "type": "Feature",
      "geometry": {
        "type": "Polygon",
        "coordinates": [
          [
            [
              -87.049276,
              33.302909
            ],
            [
              -87.052194,
              33.300557
            ],
            [
              -87.051473,
              33.298979
            ],
            [
              -87.048589,
              33.298634
            ],
            [
              -87.046976,
              33.301159
            ],
            [
              -87.049276,
              33.302909
            ]
          ]
        ]
      },
      "properties": {
        "account": "publix",
        "name": "Publix Refrigerated DC McCalla AL",
        "type": "Refrigerated DC",
        "archetype": "#9",
        "archetypeName": "Gate + No GS (remote check-in)",
        "confidence": "high",
        "zone": "perimeter",
        "truckGate": true,
        "guardShack": false,
        "remoteGs": true,
        "fastLaneOpportunity": true,
        "backupSensitive": false,
        "dropYard": true,
        "multipleFacilities": false,
        "scale": false,
        "shipRcvSeparate": true,
        "urbanRural": "Rural",
        "dockDoors": "50+",
        "dropArea": "50+",
        "yardMetrics": {
          "dockDoorCount": 110,
          "trailersVisible": 95,
          "trailerParkingCapacity": 140,
          "truckGateCount": 1,
          "buildingCount": 1,
          "siteAreaAcres": 34.6,
          "railServed": false
        }
      }
    },
    {
      "type": "Feature",
      "geometry": {
        "type": "Polygon",
        "coordinates": [
          [
            [
              -87.049001,
              33.30268
            ],
            [
              -87.049379,
              33.302393
            ],
            [
              -87.049001,
              33.302134
            ],
            [
              -87.048624,
              33.302393
            ],
            [
              -87.049001,
              33.30268
            ]
          ]
        ]
      },
      "properties": {
        "account": "publix",
        "name": "Publix Refrigerated DC McCalla AL",
        "type": "Refrigerated DC",
        "archetype": "#9",
        "archetypeName": "Gate + No GS (remote check-in)",
        "confidence": "high",
        "zone": "truckGate"
      }
    },
    {
      "type": "Feature",
      "geometry": {
        "type": "Polygon",
        "coordinates": [
          [
            [
              -87.052125,
              33.300011
            ],
            [
              -87.052469,
              33.29961
            ],
            [
              -87.051405,
              33.298634
            ],
            [
              -87.050787,
              33.298979
            ],
            [
              -87.052125,
              33.300011
            ]
          ]
        ]
      },
      "properties": {
        "account": "publix",
        "name": "Publix Refrigerated DC McCalla AL",
        "type": "Refrigerated DC",
        "archetype": "#9",
        "archetypeName": "Gate + No GS (remote check-in)",
        "confidence": "high",
        "zone": "dropYard",
        "index": 1
      }
    },
    {
      "type": "Feature",
      "geometry": {
        "type": "Polygon",
        "coordinates": [
          [
            [
              -87.047834,
              33.30093
            ],
            [
              -87.048452,
              33.299782
            ],
            [
              -87.047766,
              33.299552
            ],
            [
              -87.047045,
              33.301102
            ],
            [
              -87.047834,
              33.30093
            ]
          ]
        ]
      },
      "properties": {
        "account": "publix",
        "name": "Publix Refrigerated DC McCalla AL",
        "type": "Refrigerated DC",
        "archetype": "#9",
        "archetypeName": "Gate + No GS (remote check-in)",
        "confidence": "high",
        "zone": "dropYard",
        "index": 2
      }
    },
    {
      "type": "Feature",
      "geometry": {
        "type": "Polygon",
        "coordinates": [
          [
            [
              -87.051988,
              33.3007
            ],
            [
              -87.050787,
              33.299438
            ],
            [
              -87.050169,
              33.299782
            ],
            [
              -87.05137,
              33.30093
            ],
            [
              -87.051988,
              33.3007
            ]
          ]
        ]
      },
      "properties": {
        "account": "publix",
        "name": "Publix Refrigerated DC McCalla AL",
        "type": "Refrigerated DC",
        "archetype": "#9",
        "archetypeName": "Gate + No GS (remote check-in)",
        "confidence": "high",
        "zone": "dockApron",
        "index": 1
      }
    },
    {
      "type": "Feature",
      "geometry": {
        "type": "Polygon",
        "coordinates": [
          [
            [
              -87.050787,
              33.299438
            ],
            [
              -87.0501,
              33.298806
            ],
            [
              -87.049001,
              33.298979
            ],
            [
              -87.049722,
              33.299524
            ],
            [
              -87.050787,
              33.299438
            ]
          ]
        ]
      },
      "properties": {
        "account": "publix",
        "name": "Publix Refrigerated DC McCalla AL",
        "type": "Refrigerated DC",
        "archetype": "#9",
        "archetypeName": "Gate + No GS (remote check-in)",
        "confidence": "high",
        "zone": "dockApron",
        "index": 2
      }
    },
    {
      "type": "Feature",
      "geometry": {
        "type": "Polygon",
        "coordinates": [
          [
            [
              -87.049448,
              33.302393
            ],
            [
              -87.049722,
              33.302106
            ],
            [
              -87.048452,
              33.301102
            ],
            [
              -87.048178,
              33.301389
            ],
            [
              -87.049448,
              33.302393
            ]
          ]
        ]
      },
      "properties": {
        "account": "publix",
        "name": "Publix Refrigerated DC McCalla AL",
        "type": "Refrigerated DC",
        "archetype": "#9",
        "archetypeName": "Gate + No GS (remote check-in)",
        "confidence": "high",
        "zone": "dockApron",
        "index": 3
      }
    },
    {
      "type": "Feature",
      "geometry": {
        "type": "Polygon",
        "coordinates": [
          [
            [
              -87.049001,
              33.30268
            ],
            [
              -87.0492,
              33.302134
            ],
            [
              -87.0485,
              33.3019
            ],
            [
              -87.0483,
              33.302393
            ],
            [
              -87.049001,
              33.30268
            ]
          ]
        ]
      },
      "properties": {
        "account": "publix",
        "name": "Publix Refrigerated DC McCalla AL",
        "type": "Refrigerated DC",
        "archetype": "#9",
        "archetypeName": "Gate + No GS (remote check-in)",
        "confidence": "high",
        "zone": "staging"
      }
    },
    {
      "type": "Feature",
      "geometry": {
        "type": "Polygon",
        "coordinates": [
          [
            [
              -79.66585,
              36.0837
            ],
            [
              -79.6664,
              36.0821
            ],
            [
              -79.66505,
              36.07915
            ],
            [
              -79.6559,
              36.07995
            ],
            [
              -79.65605,
              36.0834
            ],
            [
              -79.66585,
              36.0837
            ]
          ]
        ]
      },
      "properties": {
        "account": "publix",
        "name": "Publix Grocery Distribution Center McLeansville NC (Greensboro)",
        "type": "Grocery Distribution Center",
        "archetype": "#6",
        "archetypeName": "Gate + GS (not BU sens.) + campus",
        "confidence": "high",
        "zone": "perimeter",
        "truckGate": true,
        "guardShack": true,
        "remoteGs": false,
        "fastLaneOpportunity": true,
        "backupSensitive": false,
        "dropYard": true,
        "multipleFacilities": true,
        "scale": false,
        "shipRcvSeparate": true,
        "urbanRural": "Rural",
        "dockDoors": "50+",
        "dropArea": "50+",
        "yardMetrics": {
          "dockDoorCount": 210,
          "trailersVisible": 140,
          "trailerParkingCapacity": 320,
          "truckGateCount": 1,
          "buildingCount": 5,
          "siteAreaAcres": 98.8,
          "railServed": false
        }
      }
    },
    {
      "type": "Feature",
      "geometry": {
        "type": "Polygon",
        "coordinates": [
          [
            [
              -79.6652,
              36.083
            ],
            [
              -79.66535,
              36.08272
            ],
            [
              -79.6644,
              36.0823
            ],
            [
              -79.66425,
              36.08255
            ],
            [
              -79.6652,
              36.083
            ]
          ]
        ]
      },
      "properties": {
        "account": "publix",
        "name": "Publix Grocery Distribution Center McLeansville NC (Greensboro)",
        "type": "Grocery Distribution Center",
        "archetype": "#6",
        "archetypeName": "Gate + GS (not BU sens.) + campus",
        "confidence": "high",
        "zone": "truckGate"
      }
    },
    {
      "type": "Feature",
      "geometry": {
        "type": "Polygon",
        "coordinates": [
          [
            [
              -79.6588,
              36.08305
            ],
            [
              -79.65885,
              36.0808
            ],
            [
              -79.65615,
              36.08075
            ],
            [
              -79.6561,
              36.083
            ],
            [
              -79.6588,
              36.08305
            ]
          ]
        ]
      },
      "properties": {
        "account": "publix",
        "name": "Publix Grocery Distribution Center McLeansville NC (Greensboro)",
        "type": "Grocery Distribution Center",
        "archetype": "#6",
        "archetypeName": "Gate + GS (not BU sens.) + campus",
        "confidence": "high",
        "zone": "dropYard",
        "index": 1
      }
    },
    {
      "type": "Feature",
      "geometry": {
        "type": "Polygon",
        "coordinates": [
          [
            [
              -79.6645,
              36.08345
            ],
            [
              -79.66452,
              36.08308
            ],
            [
              -79.65948,
              36.083
            ],
            [
              -79.65945,
              36.08335
            ],
            [
              -79.6645,
              36.08345
            ]
          ]
        ]
      },
      "properties": {
        "account": "publix",
        "name": "Publix Grocery Distribution Center McLeansville NC (Greensboro)",
        "type": "Grocery Distribution Center",
        "archetype": "#6",
        "archetypeName": "Gate + GS (not BU sens.) + campus",
        "confidence": "high",
        "zone": "dropYard",
        "index": 2
      }
    },
    {
      "type": "Feature",
      "geometry": {
        "type": "Polygon",
        "coordinates": [
          [
            [
              -79.6652,
              36.0821
            ],
            [
              -79.66522,
              36.08175
            ],
            [
              -79.65762,
              36.0815
            ],
            [
              -79.6576,
              36.08185
            ],
            [
              -79.6652,
              36.0821
            ]
          ]
        ]
      },
      "properties": {
        "account": "publix",
        "name": "Publix Grocery Distribution Center McLeansville NC (Greensboro)",
        "type": "Grocery Distribution Center",
        "archetype": "#6",
        "archetypeName": "Gate + GS (not BU sens.) + campus",
        "confidence": "high",
        "zone": "dockApron",
        "index": 1
      }
    },
    {
      "type": "Feature",
      "geometry": {
        "type": "Polygon",
        "coordinates": [
          [
            [
              -79.6648,
              36.0796
            ],
            [
              -79.66482,
              36.0793
            ],
            [
              -79.65732,
              36.07905
            ],
            [
              -79.6573,
              36.07935
            ],
            [
              -79.6648,
              36.0796
            ]
          ]
        ]
      },
      "properties": {
        "account": "publix",
        "name": "Publix Grocery Distribution Center McLeansville NC (Greensboro)",
        "type": "Grocery Distribution Center",
        "archetype": "#6",
        "archetypeName": "Gate + GS (not BU sens.) + campus",
        "confidence": "high",
        "zone": "dockApron",
        "index": 2
      }
    },
    {
      "type": "Feature",
      "geometry": {
        "type": "Polygon",
        "coordinates": [
          [
            [
              -79.6661,
              36.0836
            ],
            [
              -79.66655,
              36.08315
            ],
            [
              -79.666,
              36.08285
            ],
            [
              -79.66555,
              36.0833
            ],
            [
              -79.6661,
              36.0836
            ]
          ]
        ]
      },
      "properties": {
        "account": "publix",
        "name": "Publix Grocery Distribution Center McLeansville NC (Greensboro)",
        "type": "Grocery Distribution Center",
        "archetype": "#6",
        "archetypeName": "Gate + GS (not BU sens.) + campus",
        "confidence": "high",
        "zone": "staging"
      }
    }
  ]
}
