{
  "type": "FeatureCollection",
  "features": [
    {
      "type": "Feature",
      "geometry": {
        "type": "Polygon",
        "coordinates": [
          [
            [
              -81.472302,
              41.407864
            ],
            [
              -81.47395,
              41.404568
            ],
            [
              -81.472714,
              41.402096
            ],
            [
              -81.468182,
              41.403744
            ],
            [
              -81.467907,
              41.406937
            ],
            [
              -81.472302,
              41.407864
            ]
          ]
        ]
      },
      "properties": {
        "account": "nestle-usa",
        "name": "Nestlé Prepared Foods - Solon OH",
        "type": "Frozen food manufacturing plant",
        "archetype": "#9",
        "archetypeName": "Gate + No GS (remote check-in)",
        "confidence": "medium",
        "zone": "perimeter",
        "truckGate": true,
        "guardShack": false,
        "remoteGs": true,
        "fastLaneOpportunity": true,
        "backupSensitive": false,
        "dropYard": true,
        "multipleFacilities": false,
        "scale": false,
        "shipRcvSeparate": false,
        "urbanRural": "Urban",
        "dockDoors": "25-50",
        "dropArea": "25-50",
        "yardMetrics": {
          "dockDoorCount": 30,
          "trailersVisible": 35,
          "trailerParkingCapacity": 60,
          "truckGateCount": 1,
          "buildingCount": 1,
          "siteAreaAcres": 51.5,
          "railServed": true
        }
      }
    },
    {
      "type": "Feature",
      "geometry": {
        "type": "Polygon",
        "coordinates": [
          [
            [
              -81.472302,
              41.402096
            ],
            [
              -81.472027,
              41.401478
            ],
            [
              -81.471203,
              41.401684
            ],
            [
              -81.471478,
              41.402302
            ],
            [
              -81.472302,
              41.402096
            ]
          ]
        ]
      },
      "properties": {
        "account": "nestle-usa",
        "name": "Nestlé Prepared Foods - Solon OH",
        "type": "Frozen food manufacturing plant",
        "archetype": "#9",
        "archetypeName": "Gate + No GS (remote check-in)",
        "confidence": "medium",
        "zone": "truckGate"
      }
    },
    {
      "type": "Feature",
      "geometry": {
        "type": "Polygon",
        "coordinates": [
          [
            [
              -81.472714,
              41.406216
            ],
            [
              -81.472851,
              41.405495
            ],
            [
              -81.471066,
              41.405083
            ],
            [
              -81.470928,
              41.405804
            ],
            [
              -81.472714,
              41.406216
            ]
          ]
        ]
      },
      "properties": {
        "account": "nestle-usa",
        "name": "Nestlé Prepared Foods - Solon OH",
        "type": "Frozen food manufacturing plant",
        "archetype": "#9",
        "archetypeName": "Gate + No GS (remote check-in)",
        "confidence": "medium",
        "zone": "dropYard",
        "index": 1
      }
    },
    {
      "type": "Feature",
      "geometry": {
        "type": "Polygon",
        "coordinates": [
          [
            [
              -81.470242,
              41.40498
            ],
            [
              -81.47031,
              41.404465
            ],
            [
              -81.468388,
              41.404053
            ],
            [
              -81.468319,
              41.404568
            ],
            [
              -81.470242,
              41.40498
            ]
          ]
        ]
      },
      "properties": {
        "account": "nestle-usa",
        "name": "Nestlé Prepared Foods - Solon OH",
        "type": "Frozen food manufacturing plant",
        "archetype": "#9",
        "archetypeName": "Gate + No GS (remote check-in)",
        "confidence": "medium",
        "zone": "dockApron",
        "index": 1
      }
    },
    {
      "type": "Feature",
      "geometry": {
        "type": "Polygon",
        "coordinates": [
          [
            [
              -90.582865,
              35.821026
            ],
            [
              -90.582865,
              35.81724
            ],
            [
              -90.575586,
              35.81724
            ],
            [
              -90.575586,
              35.821026
            ],
            [
              -90.582865,
              35.821026
            ]
          ]
        ]
      },
      "properties": {
        "account": "nestle-usa",
        "name": "Nestlé Prepared Foods - Jonesboro AR",
        "type": "Frozen food manufacturing plant",
        "archetype": "#10",
        "archetypeName": "Ship/Rcv Separate (Gate+GS)",
        "confidence": "high",
        "zone": "perimeter",
        "truckGate": true,
        "guardShack": true,
        "remoteGs": false,
        "fastLaneOpportunity": true,
        "backupSensitive": false,
        "dropYard": true,
        "multipleFacilities": false,
        "scale": false,
        "shipRcvSeparate": true,
        "urbanRural": "Rural",
        "dockDoors": "25-50",
        "dropArea": "50+",
        "yardMetrics": {
          "dockDoorCount": 40,
          "trailersVisible": 55,
          "trailerParkingCapacity": 110,
          "truckGateCount": 1,
          "buildingCount": 1,
          "siteAreaAcres": 78.2,
          "railServed": false
        }
      }
    },
    {
      "type": "Feature",
      "geometry": {
        "type": "Polygon",
        "coordinates": [
          [
            [
              -90.578539,
              35.821416
            ],
            [
              -90.578539,
              35.820859
            ],
            [
              -90.577715,
              35.820859
            ],
            [
              -90.577715,
              35.821416
            ],
            [
              -90.578539,
              35.821416
            ]
          ]
        ]
      },
      "properties": {
        "account": "nestle-usa",
        "name": "Nestlé Prepared Foods - Jonesboro AR",
        "type": "Frozen food manufacturing plant",
        "archetype": "#10",
        "archetypeName": "Ship/Rcv Separate (Gate+GS)",
        "confidence": "high",
        "zone": "truckGate"
      }
    },
    {
      "type": "Feature",
      "geometry": {
        "type": "Polygon",
        "coordinates": [
          [
            [
              -90.58362,
              35.819745
            ],
            [
              -90.583689,
              35.818521
            ],
            [
              -90.581766,
              35.818409
            ],
            [
              -90.581697,
              35.819634
            ],
            [
              -90.58362,
              35.819745
            ]
          ]
        ]
      },
      "properties": {
        "account": "nestle-usa",
        "name": "Nestlé Prepared Foods - Jonesboro AR",
        "type": "Frozen food manufacturing plant",
        "archetype": "#10",
        "archetypeName": "Ship/Rcv Separate (Gate+GS)",
        "confidence": "high",
        "zone": "dropYard",
        "index": 1
      }
    },
    {
      "type": "Feature",
      "geometry": {
        "type": "Polygon",
        "coordinates": [
          [
            [
              -90.577852,
              35.820414
            ],
            [
              -90.577921,
              35.818743
            ],
            [
              -90.576685,
              35.818632
            ],
            [
              -90.576616,
              35.820302
            ],
            [
              -90.577852,
              35.820414
            ]
          ]
        ]
      },
      "properties": {
        "account": "nestle-usa",
        "name": "Nestlé Prepared Foods - Jonesboro AR",
        "type": "Frozen food manufacturing plant",
        "archetype": "#10",
        "archetypeName": "Ship/Rcv Separate (Gate+GS)",
        "confidence": "high",
        "zone": "dockApron",
        "index": 1
      }
    },
    {
      "type": "Feature",
      "geometry": {
        "type": "Polygon",
        "coordinates": [
          [
            [
              -81.689947,
              35.057597
            ],
            [
              -81.690359,
              35.056024
            ],
            [
              -81.690359,
              35.053438
            ],
            [
              -81.6872,
              35.052651
            ],
            [
              -81.685003,
              35.054
            ],
            [
              -81.685552,
              35.056698
            ],
            [
              -81.689947,
              35.057597
            ]
          ]
        ]
      },
      "properties": {
        "account": "nestle-usa",
        "name": "Nestlé Prepared Foods - Gaffney SC",
        "type": "Frozen food manufacturing plant",
        "archetype": "#7",
        "archetypeName": "Gate + GS (not BU sens.) + fast lane opp",
        "confidence": "high",
        "zone": "perimeter",
        "truckGate": true,
        "guardShack": true,
        "remoteGs": false,
        "fastLaneOpportunity": true,
        "backupSensitive": false,
        "dropYard": true,
        "multipleFacilities": false,
        "scale": false,
        "shipRcvSeparate": false,
        "urbanRural": "Rural",
        "dockDoors": "25-50",
        "dropArea": "10-25",
        "yardMetrics": {
          "dockDoorCount": 28,
          "trailersVisible": 18,
          "trailerParkingCapacity": 30,
          "truckGateCount": 1,
          "buildingCount": 2,
          "siteAreaAcres": 71.7,
          "railServed": true
        }
      }
    },
    {
      "type": "Feature",
      "geometry": {
        "type": "Polygon",
        "coordinates": [
          [
            [
              -81.688161,
              35.052988
            ],
            [
              -81.688299,
              35.052314
            ],
            [
              -81.687475,
              35.052201
            ],
            [
              -81.687337,
              35.052876
            ],
            [
              -81.688161,
              35.052988
            ]
          ]
        ]
      },
      "properties": {
        "account": "nestle-usa",
        "name": "Nestlé Prepared Foods - Gaffney SC",
        "type": "Frozen food manufacturing plant",
        "archetype": "#7",
        "archetypeName": "Gate + GS (not BU sens.) + fast lane opp",
        "confidence": "high",
        "zone": "truckGate"
      }
    },
    {
      "type": "Feature",
      "geometry": {
        "type": "Polygon",
        "coordinates": [
          [
            [
              -81.689123,
              35.057485
            ],
            [
              -81.689397,
              35.056698
            ],
            [
              -81.686788,
              35.056136
            ],
            [
              -81.686513,
              35.056923
            ],
            [
              -81.689123,
              35.057485
            ]
          ]
        ]
      },
      "properties": {
        "account": "nestle-usa",
        "name": "Nestlé Prepared Foods - Gaffney SC",
        "type": "Frozen food manufacturing plant",
        "archetype": "#7",
        "archetypeName": "Gate + GS (not BU sens.) + fast lane opp",
        "confidence": "high",
        "zone": "dropYard",
        "index": 1
      }
    },
    {
      "type": "Feature",
      "geometry": {
        "type": "Polygon",
        "coordinates": [
          [
            [
              -81.688299,
              35.055237
            ],
            [
              -81.688367,
              35.054675
            ],
            [
              -81.68617,
              35.054337
            ],
            [
              -81.686101,
              35.054899
            ],
            [
              -81.688299,
              35.055237
            ]
          ]
        ]
      },
      "properties": {
        "account": "nestle-usa",
        "name": "Nestlé Prepared Foods - Gaffney SC",
        "type": "Frozen food manufacturing plant",
        "archetype": "#7",
        "archetypeName": "Gate + GS (not BU sens.) + fast lane opp",
        "confidence": "high",
        "zone": "dockApron",
        "index": 1
      }
    },
    {
      "type": "Feature",
      "geometry": {
        "type": "Polygon",
        "coordinates": [
          [
            [
              -88.328045,
              44.286381
            ],
            [
              -88.32832,
              44.284808
            ],
            [
              -88.326397,
              44.28412
            ],
            [
              -88.321728,
              44.285398
            ],
            [
              -88.322003,
              44.28648
            ],
            [
              -88.328045,
              44.286381
            ]
          ]
        ]
      },
      "properties": {
        "account": "nestle-usa",
        "name": "Nestlé Pizza Division - Little Chute WI",
        "type": "Frozen pizza manufacturing plant",
        "archetype": "#7",
        "archetypeName": "Gate + GS (not BU sens.) + fast lane opp",
        "confidence": "high",
        "zone": "perimeter",
        "truckGate": true,
        "guardShack": true,
        "remoteGs": false,
        "fastLaneOpportunity": true,
        "backupSensitive": false,
        "dropYard": true,
        "multipleFacilities": false,
        "scale": false,
        "shipRcvSeparate": false,
        "urbanRural": "Urban",
        "dockDoors": "25-50",
        "dropArea": "50+",
        "yardMetrics": {
          "dockDoorCount": 35,
          "trailersVisible": 50,
          "trailerParkingCapacity": 75,
          "truckGateCount": 2,
          "buildingCount": 1,
          "siteAreaAcres": 52.7,
          "railServed": true
        }
      }
    },
    {
      "type": "Feature",
      "geometry": {
        "type": "Polygon",
        "coordinates": [
          [
            [
              -88.328183,
              44.286283
            ],
            [
              -88.328183,
              44.285792
            ],
            [
              -88.327359,
              44.285792
            ],
            [
              -88.327359,
              44.286283
            ],
            [
              -88.328183,
              44.286283
            ]
          ]
        ]
      },
      "properties": {
        "account": "nestle-usa",
        "name": "Nestlé Pizza Division - Little Chute WI",
        "type": "Frozen pizza manufacturing plant",
        "archetype": "#7",
        "archetypeName": "Gate + GS (not BU sens.) + fast lane opp",
        "confidence": "high",
        "zone": "truckGate"
      }
    },
    {
      "type": "Feature",
      "geometry": {
        "type": "Polygon",
        "coordinates": [
          [
            [
              -88.327771,
              44.286283
            ],
            [
              -88.327839,
              44.285398
            ],
            [
              -88.326466,
              44.285398
            ],
            [
              -88.326397,
              44.286283
            ],
            [
              -88.327771,
              44.286283
            ]
          ]
        ]
      },
      "properties": {
        "account": "nestle-usa",
        "name": "Nestlé Pizza Division - Little Chute WI",
        "type": "Frozen pizza manufacturing plant",
        "archetype": "#7",
        "archetypeName": "Gate + GS (not BU sens.) + fast lane opp",
        "confidence": "high",
        "zone": "dropYard",
        "index": 1
      }
    },
    {
      "type": "Feature",
      "geometry": {
        "type": "Polygon",
        "coordinates": [
          [
            [
              -88.325573,
              44.286283
            ],
            [
              -88.325642,
              44.285841
            ],
            [
              -88.322621,
              44.285792
            ],
            [
              -88.322552,
              44.286234
            ],
            [
              -88.325573,
              44.286283
            ]
          ]
        ]
      },
      "properties": {
        "account": "nestle-usa",
        "name": "Nestlé Pizza Division - Little Chute WI",
        "type": "Frozen pizza manufacturing plant",
        "archetype": "#7",
        "archetypeName": "Gate + GS (not BU sens.) + fast lane opp",
        "confidence": "high",
        "zone": "dockApron",
        "index": 1
      }
    },
    {
      "type": "Feature",
      "geometry": {
        "type": "Polygon",
        "coordinates": [
          [
            [
              -83.908972,
              38.097432
            ],
            [
              -83.909247,
              38.096135
            ],
            [
              -83.908148,
              38.094622
            ],
            [
              -83.90444,
              38.094838
            ],
            [
              -83.904852,
              38.097
            ],
            [
              -83.908972,
              38.097432
            ]
          ]
        ]
      },
      "properties": {
        "account": "nestle-usa",
        "name": "Nestlé Prepared Foods - Mount Sterling KY",
        "type": "Frozen food manufacturing plant (Hot Pockets)",
        "archetype": "#6",
        "archetypeName": "Gate + GS (not BU sens.) + campus",
        "confidence": "high",
        "zone": "perimeter",
        "truckGate": true,
        "guardShack": true,
        "remoteGs": false,
        "fastLaneOpportunity": true,
        "backupSensitive": false,
        "dropYard": true,
        "multipleFacilities": true,
        "scale": false,
        "shipRcvSeparate": true,
        "urbanRural": "Rural",
        "dockDoors": "25-50",
        "dropArea": "50+",
        "yardMetrics": {
          "dockDoorCount": 45,
          "trailersVisible": 45,
          "trailerParkingCapacity": 70,
          "truckGateCount": 1,
          "buildingCount": 2,
          "siteAreaAcres": 67.3,
          "railServed": false
        }
      }
    },
    {
      "type": "Feature",
      "geometry": {
        "type": "Polygon",
        "coordinates": [
          [
            [
              -83.904715,
              38.096352
            ],
            [
              -83.904715,
              38.095811
            ],
            [
              -83.903891,
              38.095811
            ],
            [
              -83.903891,
              38.096352
            ],
            [
              -83.904715,
              38.096352
            ]
          ]
        ]
      },
      "properties": {
        "account": "nestle-usa",
        "name": "Nestlé Prepared Foods - Mount Sterling KY",
        "type": "Frozen food manufacturing plant (Hot Pockets)",
        "archetype": "#6",
        "archetypeName": "Gate + GS (not BU sens.) + campus",
        "confidence": "high",
        "zone": "truckGate"
      }
    },
    {
      "type": "Feature",
      "geometry": {
        "type": "Polygon",
        "coordinates": [
          [
            [
              -83.908148,
              38.098297
            ],
            [
              -83.908217,
              38.097432
            ],
            [
              -83.905333,
              38.097216
            ],
            [
              -83.905264,
              38.098081
            ],
            [
              -83.908148,
              38.098297
            ]
          ]
        ]
      },
      "properties": {
        "account": "nestle-usa",
        "name": "Nestlé Prepared Foods - Mount Sterling KY",
        "type": "Frozen food manufacturing plant (Hot Pockets)",
        "archetype": "#6",
        "archetypeName": "Gate + GS (not BU sens.) + campus",
        "confidence": "high",
        "zone": "dropYard",
        "index": 1
      }
    },
    {
      "type": "Feature",
      "geometry": {
        "type": "Polygon",
        "coordinates": [
          [
            [
              -83.908697,
              38.09646
            ],
            [
              -83.908766,
              38.095919
            ],
            [
              -83.90547,
              38.095703
            ],
            [
              -83.905401,
              38.096243
            ],
            [
              -83.908697,
              38.09646
            ]
          ]
        ]
      },
      "properties": {
        "account": "nestle-usa",
        "name": "Nestlé Prepared Foods - Mount Sterling KY",
        "type": "Frozen food manufacturing plant (Hot Pockets)",
        "archetype": "#6",
        "archetypeName": "Gate + GS (not BU sens.) + campus",
        "confidence": "high",
        "zone": "dockApron",
        "index": 1
      }
    },
    {
      "type": "Feature",
      "geometry": {
        "type": "Polygon",
        "coordinates": [
          [
            [
              -111.626409,
              40.190588
            ],
            [
              -111.626547,
              40.18912
            ],
            [
              -111.625997,
              40.187021
            ],
            [
              -111.622152,
              40.187441
            ],
            [
              -111.622427,
              40.190379
            ],
            [
              -111.626409,
              40.190588
            ]
          ]
        ]
      },
      "properties": {
        "account": "nestle-usa",
        "name": "Nestlé Prepared Foods - Springville UT",
        "type": "Frozen food manufacturing plant",
        "archetype": "#9",
        "archetypeName": "Gate + No GS (remote check-in)",
        "confidence": "medium",
        "zone": "perimeter",
        "truckGate": true,
        "guardShack": false,
        "remoteGs": true,
        "fastLaneOpportunity": false,
        "backupSensitive": false,
        "dropYard": true,
        "multipleFacilities": false,
        "scale": false,
        "shipRcvSeparate": true,
        "urbanRural": "Rural",
        "dockDoors": "25-50",
        "dropArea": "50+",
        "yardMetrics": {
          "dockDoorCount": 45,
          "trailersVisible": 110,
          "trailerParkingCapacity": 150,
          "truckGateCount": 1,
          "buildingCount": 3,
          "siteAreaAcres": 38,
          "railServed": true
        }
      }
    },
    {
      "type": "Feature",
      "geometry": {
        "type": "Polygon",
        "coordinates": [
          [
            [
              -111.626272,
              40.187651
            ],
            [
              -111.626272,
              40.187126
            ],
            [
              -111.625448,
              40.187126
            ],
            [
              -111.625448,
              40.187651
            ],
            [
              -111.626272,
              40.187651
            ]
          ]
        ]
      },
      "properties": {
        "account": "nestle-usa",
        "name": "Nestlé Prepared Foods - Springville UT",
        "type": "Frozen food manufacturing plant",
        "archetype": "#9",
        "archetypeName": "Gate + No GS (remote check-in)",
        "confidence": "medium",
        "zone": "truckGate"
      }
    },
    {
      "type": "Feature",
      "geometry": {
        "type": "Polygon",
        "coordinates": [
          [
            [
              -111.625997,
              40.1887
            ],
            [
              -111.626066,
              40.187808
            ],
            [
              -111.62277,
              40.187651
            ],
            [
              -111.622701,
              40.18849
            ],
            [
              -111.625997,
              40.1887
            ]
          ]
        ]
      },
      "properties": {
        "account": "nestle-usa",
        "name": "Nestlé Prepared Foods - Springville UT",
        "type": "Frozen food manufacturing plant",
        "archetype": "#9",
        "archetypeName": "Gate + No GS (remote check-in)",
        "confidence": "medium",
        "zone": "dropYard",
        "index": 1
      }
    },
    {
      "type": "Feature",
      "geometry": {
        "type": "Polygon",
        "coordinates": [
          [
            [
              -111.626135,
              40.190169
            ],
            [
              -111.626203,
              40.189644
            ],
            [
              -111.623869,
              40.189539
            ],
            [
              -111.6238,
              40.190064
            ],
            [
              -111.626135,
              40.190169
            ]
          ]
        ]
      },
      "properties": {
        "account": "nestle-usa",
        "name": "Nestlé Prepared Foods - Springville UT",
        "type": "Frozen food manufacturing plant",
        "archetype": "#9",
        "archetypeName": "Gate + No GS (remote check-in)",
        "confidence": "medium",
        "zone": "dockApron",
        "index": 1
      }
    },
    {
      "type": "Feature",
      "geometry": {
        "type": "Polygon",
        "coordinates": [
          [
            [
              -93.612011,
              40.081115
            ],
            [
              -93.612079,
              40.08017
            ],
            [
              -93.611461,
              40.079224
            ],
            [
              -93.608646,
              40.079329
            ],
            [
              -93.608577,
              40.080958
            ],
            [
              -93.612011,
              40.081115
            ]
          ]
        ]
      },
      "properties": {
        "account": "nestle-usa",
        "name": "Nestlé Professional - Trenton MO",
        "type": "Food manufacturing plant (foodservice / Chef-mate)",
        "archetype": "#3",
        "archetypeName": "No Gate / No GS",
        "confidence": "medium",
        "zone": "perimeter",
        "truckGate": false,
        "guardShack": false,
        "remoteGs": false,
        "fastLaneOpportunity": false,
        "backupSensitive": false,
        "dropYard": true,
        "multipleFacilities": false,
        "scale": false,
        "shipRcvSeparate": false,
        "urbanRural": "Rural",
        "dockDoors": "10-25",
        "dropArea": "10-25",
        "yardMetrics": {
          "dockDoorCount": 14,
          "trailersVisible": 22,
          "trailerParkingCapacity": 35,
          "truckGateCount": 1,
          "buildingCount": 1,
          "siteAreaAcres": 12,
          "railServed": true
        }
      }
    },
    {
      "type": "Feature",
      "geometry": {
        "type": "Polygon",
        "coordinates": [
          [
            [
              -93.609401,
              40.081063
            ],
            [
              -93.609401,
              40.0808
            ],
            [
              -93.608989,
              40.0808
            ],
            [
              -93.608989,
              40.081063
            ],
            [
              -93.609401,
              40.081063
            ]
          ]
        ]
      },
      "properties": {
        "account": "nestle-usa",
        "name": "Nestlé Professional - Trenton MO",
        "type": "Food manufacturing plant (foodservice / Chef-mate)",
        "archetype": "#3",
        "archetypeName": "No Gate / No GS",
        "confidence": "medium",
        "zone": "truckGate"
      }
    },
    {
      "type": "Feature",
      "geometry": {
        "type": "Polygon",
        "coordinates": [
          [
            [
              -93.609264,
              40.0808
            ],
            [
              -93.609298,
              40.079487
            ],
            [
              -93.608612,
              40.079434
            ],
            [
              -93.608577,
              40.080747
            ],
            [
              -93.609264,
              40.0808
            ]
          ]
        ]
      },
      "properties": {
        "account": "nestle-usa",
        "name": "Nestlé Professional - Trenton MO",
        "type": "Food manufacturing plant (foodservice / Chef-mate)",
        "archetype": "#3",
        "archetypeName": "No Gate / No GS",
        "confidence": "medium",
        "zone": "dropYard",
        "index": 1
      }
    },
    {
      "type": "Feature",
      "geometry": {
        "type": "Polygon",
        "coordinates": [
          [
            [
              -93.611873,
              40.0808
            ],
            [
              -93.611908,
              40.080537
            ],
            [
              -93.610191,
              40.080432
            ],
            [
              -93.610157,
              40.080695
            ],
            [
              -93.611873,
              40.0808
            ]
          ]
        ]
      },
      "properties": {
        "account": "nestle-usa",
        "name": "Nestlé Professional - Trenton MO",
        "type": "Food manufacturing plant (foodservice / Chef-mate)",
        "archetype": "#3",
        "archetypeName": "No Gate / No GS",
        "confidence": "medium",
        "zone": "dockApron",
        "index": 1
      }
    },
    {
      "type": "Feature",
      "geometry": {
        "type": "Polygon",
        "coordinates": [
          [
            [
              -85.747845,
              40.039251
            ],
            [
              -85.74812,
              40.037359
            ],
            [
              -85.745373,
              40.035887
            ],
            [
              -85.740155,
              40.036518
            ],
            [
              -85.740704,
              40.039462
            ],
            [
              -85.747845,
              40.039251
            ]
          ]
        ]
      },
      "properties": {
        "account": "nestle-usa",
        "name": "Nestlé Beverage - Anderson IN",
        "type": "Beverage manufacturing plant + distribution center",
        "archetype": "#9",
        "archetypeName": "Gate + No GS (remote check-in)",
        "confidence": "medium",
        "zone": "perimeter",
        "truckGate": true,
        "guardShack": false,
        "remoteGs": true,
        "fastLaneOpportunity": true,
        "backupSensitive": false,
        "dropYard": true,
        "multipleFacilities": false,
        "scale": false,
        "shipRcvSeparate": true,
        "urbanRural": "Rural",
        "dockDoors": "50+",
        "dropArea": "50+",
        "yardMetrics": {
          "dockDoorCount": 70,
          "trailersVisible": 180,
          "trailerParkingCapacity": 260,
          "truckGateCount": 1,
          "buildingCount": 2,
          "siteAreaAcres": 80,
          "railServed": false
        }
      }
    },
    {
      "type": "Feature",
      "geometry": {
        "type": "Polygon",
        "coordinates": [
          [
            [
              -85.740979,
              40.036728
            ],
            [
              -85.740979,
              40.036202
            ],
            [
              -85.740155,
              40.036202
            ],
            [
              -85.740155,
              40.036728
            ],
            [
              -85.740979,
              40.036728
            ]
          ]
        ]
      },
      "properties": {
        "account": "nestle-usa",
        "name": "Nestlé Beverage - Anderson IN",
        "type": "Beverage manufacturing plant + distribution center",
        "archetype": "#9",
        "archetypeName": "Gate + No GS (remote check-in)",
        "confidence": "medium",
        "zone": "truckGate"
      }
    },
    {
      "type": "Feature",
      "geometry": {
        "type": "Polygon",
        "coordinates": [
          [
            [
              -85.747296,
              40.036938
            ],
            [
              -85.747365,
              40.035992
            ],
            [
              -85.744618,
              40.035992
            ],
            [
              -85.744549,
              40.036938
            ],
            [
              -85.747296,
              40.036938
            ]
          ]
        ]
      },
      "properties": {
        "account": "nestle-usa",
        "name": "Nestlé Beverage - Anderson IN",
        "type": "Beverage manufacturing plant + distribution center",
        "archetype": "#9",
        "archetypeName": "Gate + No GS (remote check-in)",
        "confidence": "medium",
        "zone": "dropYard",
        "index": 1
      }
    },
    {
      "type": "Feature",
      "geometry": {
        "type": "Polygon",
        "coordinates": [
          [
            [
              -85.747845,
              40.039041
            ],
            [
              -85.747914,
              40.038305
            ],
            [
              -85.745442,
              40.038305
            ],
            [
              -85.745373,
              40.039041
            ],
            [
              -85.747845,
              40.039041
            ]
          ]
        ]
      },
      "properties": {
        "account": "nestle-usa",
        "name": "Nestlé Beverage - Anderson IN",
        "type": "Beverage manufacturing plant + distribution center",
        "archetype": "#9",
        "archetypeName": "Gate + No GS (remote check-in)",
        "confidence": "medium",
        "zone": "dropYard",
        "index": 2
      }
    },
    {
      "type": "Feature",
      "geometry": {
        "type": "Polygon",
        "coordinates": [
          [
            [
              -85.745099,
              40.037149
            ],
            [
              -85.745167,
              40.036675
            ],
            [
              -85.741597,
              40.036728
            ],
            [
              -85.741528,
              40.037201
            ],
            [
              -85.745099,
              40.037149
            ]
          ]
        ]
      },
      "properties": {
        "account": "nestle-usa",
        "name": "Nestlé Beverage - Anderson IN",
        "type": "Beverage manufacturing plant + distribution center",
        "archetype": "#9",
        "archetypeName": "Gate + No GS (remote check-in)",
        "confidence": "medium",
        "zone": "dockApron",
        "index": 1
      }
    },
    {
      "type": "Feature",
      "geometry": {
        "type": "Polygon",
        "coordinates": [
          [
            [
              -112.384496,
              33.558404
            ],
            [
              -112.384496,
              33.552453
            ],
            [
              -112.376805,
              33.552453
            ],
            [
              -112.376805,
              33.558404
            ],
            [
              -112.384496,
              33.558404
            ]
          ]
        ]
      },
      "properties": {
        "account": "nestle-usa",
        "name": "Nestlé Beverage Factory & DC - Glendale AZ (Waddell)",
        "type": "Beverage manufacturing plant + distribution center",
        "archetype": "#9",
        "archetypeName": "Gate + No GS (remote check-in)",
        "confidence": "low",
        "zone": "perimeter",
        "truckGate": true,
        "guardShack": false,
        "remoteGs": true,
        "fastLaneOpportunity": true,
        "backupSensitive": false,
        "dropYard": true,
        "multipleFacilities": false,
        "scale": false,
        "shipRcvSeparate": false,
        "urbanRural": "Rural",
        "dockDoors": "25-50",
        "dropArea": "25-50",
        "yardMetrics": {
          "dockDoorCount": 45,
          "trailersVisible": 0,
          "trailerParkingCapacity": 120,
          "truckGateCount": 1,
          "buildingCount": 1,
          "siteAreaAcres": 110,
          "railServed": false
        }
      }
    },
    {
      "type": "Feature",
      "geometry": {
        "type": "Polygon",
        "coordinates": [
          [
            [
              -112.383123,
              33.557489
            ],
            [
              -112.383123,
              33.556573
            ],
            [
              -112.377904,
              33.556573
            ],
            [
              -112.377904,
              33.557489
            ],
            [
              -112.383123,
              33.557489
            ]
          ]
        ]
      },
      "properties": {
        "account": "nestle-usa",
        "name": "Nestlé Beverage Factory & DC - Glendale AZ (Waddell)",
        "type": "Beverage manufacturing plant + distribution center",
        "archetype": "#9",
        "archetypeName": "Gate + No GS (remote check-in)",
        "confidence": "low",
        "zone": "dockApron",
        "index": 1
      }
    },
    {
      "type": "Feature",
      "geometry": {
        "type": "Polygon",
        "coordinates": [
          [
            [
              -88.271159,
              42.667722
            ],
            [
              -88.271845,
              42.666005
            ],
            [
              -88.269373,
              42.663884
            ],
            [
              -88.265528,
              42.664692
            ],
            [
              -88.266901,
              42.66752
            ],
            [
              -88.271159,
              42.667722
            ]
          ]
        ]
      },
      "properties": {
        "account": "nestle-usa",
        "name": "Nestlé USA Baking - Burlington WI",
        "type": "Baking ingredients manufacturing plant",
        "archetype": "#3",
        "archetypeName": "No Gate / No GS",
        "confidence": "medium",
        "zone": "perimeter",
        "truckGate": false,
        "guardShack": false,
        "remoteGs": false,
        "fastLaneOpportunity": false,
        "backupSensitive": false,
        "dropYard": true,
        "multipleFacilities": false,
        "scale": false,
        "shipRcvSeparate": true,
        "urbanRural": "Rural",
        "dockDoors": "25-50",
        "dropArea": "25-50",
        "yardMetrics": {
          "dockDoorCount": 40,
          "trailersVisible": 65,
          "trailerParkingCapacity": 90,
          "truckGateCount": 1,
          "buildingCount": 2,
          "siteAreaAcres": 30,
          "railServed": true
        }
      }
    },
    {
      "type": "Feature",
      "geometry": {
        "type": "Polygon",
        "coordinates": [
          [
            [
              -88.270197,
              42.664288
            ],
            [
              -88.270197,
              42.663783
            ],
            [
              -88.269373,
              42.663783
            ],
            [
              -88.269373,
              42.664288
            ],
            [
              -88.270197,
              42.664288
            ]
          ]
        ]
      },
      "properties": {
        "account": "nestle-usa",
        "name": "Nestlé USA Baking - Burlington WI",
        "type": "Baking ingredients manufacturing plant",
        "archetype": "#3",
        "archetypeName": "No Gate / No GS",
        "confidence": "medium",
        "zone": "truckGate"
      }
    },
    {
      "type": "Feature",
      "geometry": {
        "type": "Polygon",
        "coordinates": [
          [
            [
              -88.270747,
              42.66752
            ],
            [
              -88.270953,
              42.666712
            ],
            [
              -88.268206,
              42.666409
            ],
            [
              -88.268,
              42.667217
            ],
            [
              -88.270747,
              42.66752
            ]
          ]
        ]
      },
      "properties": {
        "account": "nestle-usa",
        "name": "Nestlé USA Baking - Burlington WI",
        "type": "Baking ingredients manufacturing plant",
        "archetype": "#3",
        "archetypeName": "No Gate / No GS",
        "confidence": "medium",
        "zone": "dropYard",
        "index": 1
      }
    },
    {
      "type": "Feature",
      "geometry": {
        "type": "Polygon",
        "coordinates": [
          [
            [
              -88.269373,
              42.665904
            ],
            [
              -88.269511,
              42.665399
            ],
            [
              -88.266489,
              42.664995
            ],
            [
              -88.266352,
              42.6655
            ],
            [
              -88.269373,
              42.665904
            ]
          ]
        ]
      },
      "properties": {
        "account": "nestle-usa",
        "name": "Nestlé USA Baking - Burlington WI",
        "type": "Baking ingredients manufacturing plant",
        "archetype": "#3",
        "archetypeName": "No Gate / No GS",
        "confidence": "medium",
        "zone": "dockApron",
        "index": 1
      }
    },
    {
      "type": "Feature",
      "geometry": {
        "type": "Polygon",
        "coordinates": [
          [
            [
              -91.528596,
              44.833935
            ],
            [
              -91.52942,
              44.832474
            ],
            [
              -91.527635,
              44.830721
            ],
            [
              -91.524201,
              44.830137
            ],
            [
              -91.522965,
              44.832474
            ],
            [
              -91.523927,
              44.834616
            ],
            [
              -91.525987,
              44.834714
            ],
            [
              -91.528596,
              44.833935
            ]
          ]
        ]
      },
      "properties": {
        "account": "nestle-usa",
        "name": "Nestlé Health Science - Eau Claire WI",
        "type": "Nutritional beverage manufacturing plant",
        "archetype": "#10",
        "archetypeName": "Ship/Rcv Separate (Gate+GS)",
        "confidence": "high",
        "zone": "perimeter",
        "truckGate": true,
        "guardShack": true,
        "remoteGs": false,
        "fastLaneOpportunity": true,
        "backupSensitive": false,
        "dropYard": true,
        "multipleFacilities": false,
        "scale": false,
        "shipRcvSeparate": true,
        "urbanRural": "Urban",
        "dockDoors": "25-50",
        "dropArea": "10-25",
        "yardMetrics": {
          "dockDoorCount": 32,
          "trailersVisible": 22,
          "trailerParkingCapacity": 30,
          "truckGateCount": 1,
          "buildingCount": 3,
          "siteAreaAcres": 33,
          "railServed": false
        }
      }
    },
    {
      "type": "Feature",
      "geometry": {
        "type": "Polygon",
        "coordinates": [
          [
            [
              -91.528321,
              44.832863
            ],
            [
              -91.528047,
              44.832279
            ],
            [
              -91.527223,
              44.832474
            ],
            [
              -91.527497,
              44.833058
            ],
            [
              -91.528321,
              44.832863
            ]
          ]
        ]
      },
      "properties": {
        "account": "nestle-usa",
        "name": "Nestlé Health Science - Eau Claire WI",
        "type": "Nutritional beverage manufacturing plant",
        "archetype": "#10",
        "archetypeName": "Ship/Rcv Separate (Gate+GS)",
        "confidence": "high",
        "zone": "truckGate"
      }
    },
    {
      "type": "Feature",
      "geometry": {
        "type": "Polygon",
        "coordinates": [
          [
            [
              -91.52942,
              44.832474
            ],
            [
              -91.528939,
              44.831792
            ],
            [
              -91.527291,
              44.832377
            ],
            [
              -91.527772,
              44.833058
            ],
            [
              -91.52942,
              44.832474
            ]
          ]
        ]
      },
      "properties": {
        "account": "nestle-usa",
        "name": "Nestlé Health Science - Eau Claire WI",
        "type": "Nutritional beverage manufacturing plant",
        "archetype": "#10",
        "archetypeName": "Ship/Rcv Separate (Gate+GS)",
        "confidence": "high",
        "zone": "dropYard",
        "index": 1
      }
    },
    {
      "type": "Feature",
      "geometry": {
        "type": "Polygon",
        "coordinates": [
          [
            [
              -91.528047,
              44.833448
            ],
            [
              -91.527772,
              44.832961
            ],
            [
              -91.524751,
              44.833837
            ],
            [
              -91.525025,
              44.834324
            ],
            [
              -91.528047,
              44.833448
            ]
          ]
        ]
      },
      "properties": {
        "account": "nestle-usa",
        "name": "Nestlé Health Science - Eau Claire WI",
        "type": "Nutritional beverage manufacturing plant",
        "archetype": "#10",
        "archetypeName": "Ship/Rcv Separate (Gate+GS)",
        "confidence": "high",
        "zone": "dockApron",
        "index": 1
      }
    },
    {
      "type": "Feature",
      "geometry": {
        "type": "Polygon",
        "coordinates": [
          [
            [
              -84.156635,
              33.410693
            ],
            [
              -84.156909,
              33.410234
            ],
            [
              -84.153613,
              33.405534
            ],
            [
              -84.151279,
              33.406566
            ],
            [
              -84.1543,
              33.411381
            ],
            [
              -84.156635,
              33.410693
            ]
          ]
        ]
      },
      "properties": {
        "account": "nestle-usa",
        "name": "Nestlé USA Distribution Center - McDonough GA",
        "type": "Distribution center",
        "archetype": "#10",
        "archetypeName": "Ship/Rcv Separate (Gate+GS)",
        "confidence": "high",
        "zone": "perimeter",
        "truckGate": true,
        "guardShack": true,
        "remoteGs": false,
        "fastLaneOpportunity": true,
        "backupSensitive": false,
        "dropYard": true,
        "multipleFacilities": false,
        "scale": false,
        "shipRcvSeparate": true,
        "urbanRural": "Rural",
        "dockDoors": "50+",
        "dropArea": "50+",
        "yardMetrics": {
          "dockDoorCount": 110,
          "trailersVisible": 175,
          "trailerParkingCapacity": 150,
          "truckGateCount": 1,
          "buildingCount": 2,
          "siteAreaAcres": 42,
          "railServed": true
        }
      }
    },
    {
      "type": "Feature",
      "geometry": {
        "type": "Polygon",
        "coordinates": [
          [
            [
              -84.153476,
              33.406107
            ],
            [
              -84.153064,
              33.405419
            ],
            [
              -84.15224,
              33.405649
            ],
            [
              -84.152652,
              33.406336
            ],
            [
              -84.153476,
              33.406107
            ]
          ]
        ]
      },
      "properties": {
        "account": "nestle-usa",
        "name": "Nestlé USA Distribution Center - McDonough GA",
        "type": "Distribution center",
        "archetype": "#10",
        "archetypeName": "Ship/Rcv Separate (Gate+GS)",
        "confidence": "high",
        "zone": "truckGate"
      }
    },
    {
      "type": "Feature",
      "geometry": {
        "type": "Polygon",
        "coordinates": [
          [
            [
              -84.156497,
              33.410234
            ],
            [
              -84.154025,
              33.405993
            ],
            [
              -84.152652,
              33.406566
            ],
            [
              -84.155124,
              33.410693
            ],
            [
              -84.156497,
              33.410234
            ]
          ]
        ]
      },
      "properties": {
        "account": "nestle-usa",
        "name": "Nestlé USA Distribution Center - McDonough GA",
        "type": "Distribution center",
        "archetype": "#10",
        "archetypeName": "Ship/Rcv Separate (Gate+GS)",
        "confidence": "high",
        "zone": "dropYard",
        "index": 1
      }
    },
    {
      "type": "Feature",
      "geometry": {
        "type": "Polygon",
        "coordinates": [
          [
            [
              -84.156223,
              33.410463
            ],
            [
              -84.153888,
              33.406336
            ],
            [
              -84.152103,
              33.407024
            ],
            [
              -84.154437,
              33.411037
            ],
            [
              -84.156223,
              33.410463
            ]
          ]
        ]
      },
      "properties": {
        "account": "nestle-usa",
        "name": "Nestlé USA Distribution Center - McDonough GA",
        "type": "Distribution center",
        "archetype": "#10",
        "archetypeName": "Ship/Rcv Separate (Gate+GS)",
        "confidence": "high",
        "zone": "dockApron",
        "index": 1
      }
    }
  ]
}
