{
  "type": "FeatureCollection",
  "features": [
    {
      "type": "Feature",
      "geometry": {
        "type": "Polygon",
        "coordinates": [
          [
            [
              -84.544338,
              38.270626
            ],
            [
              -84.545986,
              38.259843
            ],
            [
              -84.54269,
              38.248197
            ],
            [
              -84.530605,
              38.246471
            ],
            [
              -84.522915,
              38.255099
            ],
            [
              -84.528408,
              38.27192
            ],
            [
              -84.544338,
              38.270626
            ]
          ]
        ]
      },
      "properties": {
        "account": "toyota",
        "name": "Toyota Motor Manufacturing Kentucky - Georgetown KY",
        "type": "Vehicle Assembly Plant",
        "archetype": "#6",
        "archetypeName": "Gate + GS (not BU sens.) + campus",
        "confidence": "high",
        "zone": "perimeter",
        "truckGate": true,
        "guardShack": true,
        "remoteGs": false,
        "fastLaneOpportunity": true,
        "backupSensitive": false,
        "dropYard": true,
        "multipleFacilities": true,
        "scale": false,
        "shipRcvSeparate": true,
        "urbanRural": "Rural",
        "dockDoors": "50+",
        "dropArea": "50+",
        "yardMetrics": {
          "dockDoorCount": 220,
          "trailersVisible": 850,
          "trailerParkingCapacity": 1100,
          "truckGateCount": 3,
          "buildingCount": 14,
          "siteAreaAcres": 1050,
          "railServed": true
        }
      }
    },
    {
      "type": "Feature",
      "geometry": {
        "type": "Polygon",
        "coordinates": [
          [
            [
              -84.543789,
              38.251648
            ],
            [
              -84.54324,
              38.248628
            ],
            [
              -84.537197,
              38.249059
            ],
            [
              -84.537747,
              38.252079
            ],
            [
              -84.543789,
              38.251648
            ]
          ]
        ]
      },
      "properties": {
        "account": "toyota",
        "name": "Toyota Motor Manufacturing Kentucky - Georgetown KY",
        "type": "Vehicle Assembly Plant",
        "archetype": "#6",
        "archetypeName": "Gate + GS (not BU sens.) + campus",
        "confidence": "high",
        "zone": "dropYard",
        "index": 1
      }
    },
    {
      "type": "Feature",
      "geometry": {
        "type": "Polygon",
        "coordinates": [
          [
            [
              -84.54269,
              38.268038
            ],
            [
              -84.542141,
              38.26545
            ],
            [
              -84.530056,
              38.266744
            ],
            [
              -84.530605,
              38.269332
            ],
            [
              -84.54269,
              38.268038
            ]
          ]
        ]
      },
      "properties": {
        "account": "toyota",
        "name": "Toyota Motor Manufacturing Kentucky - Georgetown KY",
        "type": "Vehicle Assembly Plant",
        "archetype": "#6",
        "archetypeName": "Gate + GS (not BU sens.) + campus",
        "confidence": "high",
        "zone": "dockApron",
        "index": 1
      }
    },
    {
      "type": "Feature",
      "geometry": {
        "type": "Polygon",
        "coordinates": [
          [
            [
              -87.568493,
              38.303795
            ],
            [
              -87.568493,
              38.292156
            ],
            [
              -87.567395,
              38.277064
            ],
            [
              -87.556408,
              38.277064
            ],
            [
              -87.552014,
              38.284826
            ],
            [
              -87.554211,
              38.303795
            ],
            [
              -87.568493,
              38.303795
            ]
          ]
        ]
      },
      "properties": {
        "account": "toyota",
        "name": "Toyota Motor Manufacturing Indiana - Princeton IN",
        "type": "Vehicle Assembly Plant",
        "archetype": "#6",
        "archetypeName": "Gate + GS (not BU sens.) + campus",
        "confidence": "high",
        "zone": "perimeter",
        "truckGate": true,
        "guardShack": true,
        "remoteGs": false,
        "fastLaneOpportunity": true,
        "backupSensitive": false,
        "dropYard": true,
        "multipleFacilities": true,
        "scale": false,
        "shipRcvSeparate": true,
        "urbanRural": "Rural",
        "dockDoors": "50+",
        "dropArea": "50+",
        "yardMetrics": {
          "dockDoorCount": 150,
          "trailersVisible": 600,
          "trailerParkingCapacity": 850,
          "truckGateCount": 2,
          "buildingCount": 9,
          "siteAreaAcres": 730,
          "railServed": true
        }
      }
    },
    {
      "type": "Feature",
      "geometry": {
        "type": "Polygon",
        "coordinates": [
          [
            [
              -87.565197,
              38.303795
            ],
            [
              -87.565197,
              38.30164
            ],
            [
              -87.560803,
              38.30164
            ],
            [
              -87.560803,
              38.303795
            ],
            [
              -87.565197,
              38.303795
            ]
          ]
        ]
      },
      "properties": {
        "account": "toyota",
        "name": "Toyota Motor Manufacturing Indiana - Princeton IN",
        "type": "Vehicle Assembly Plant",
        "archetype": "#6",
        "archetypeName": "Gate + GS (not BU sens.) + campus",
        "confidence": "high",
        "zone": "truckGate"
      }
    },
    {
      "type": "Feature",
      "geometry": {
        "type": "Polygon",
        "coordinates": [
          [
            [
              -87.566845,
              38.287844
            ],
            [
              -87.566845,
              38.283101
            ],
            [
              -87.560253,
              38.283101
            ],
            [
              -87.560253,
              38.287844
            ],
            [
              -87.566845,
              38.287844
            ]
          ]
        ]
      },
      "properties": {
        "account": "toyota",
        "name": "Toyota Motor Manufacturing Indiana - Princeton IN",
        "type": "Vehicle Assembly Plant",
        "archetype": "#6",
        "archetypeName": "Gate + GS (not BU sens.) + campus",
        "confidence": "high",
        "zone": "dropYard",
        "index": 1
      }
    },
    {
      "type": "Feature",
      "geometry": {
        "type": "Polygon",
        "coordinates": [
          [
            [
              -87.565197,
              38.295174
            ],
            [
              -87.565197,
              38.292587
            ],
            [
              -87.554211,
              38.292587
            ],
            [
              -87.554211,
              38.295174
            ],
            [
              -87.565197,
              38.295174
            ]
          ]
        ]
      },
      "properties": {
        "account": "toyota",
        "name": "Toyota Motor Manufacturing Indiana - Princeton IN",
        "type": "Vehicle Assembly Plant",
        "archetype": "#6",
        "archetypeName": "Gate + GS (not BU sens.) + campus",
        "confidence": "high",
        "zone": "dockApron",
        "index": 1
      }
    },
    {
      "type": "Feature",
      "geometry": {
        "type": "Polygon",
        "coordinates": [
          [
            [
              -98.556233,
              29.267292
            ],
            [
              -98.55843,
              29.260104
            ],
            [
              -98.553486,
              29.248122
            ],
            [
              -98.533711,
              29.249081
            ],
            [
              -98.529316,
              29.254832
            ],
            [
              -98.530415,
              29.269209
            ],
            [
              -98.556233,
              29.267292
            ]
          ]
        ]
      },
      "properties": {
        "account": "toyota",
        "name": "Toyota Motor Manufacturing Texas - San Antonio TX",
        "type": "Vehicle Assembly Plant",
        "archetype": "#6",
        "archetypeName": "Gate + GS (not BU sens.) + campus",
        "confidence": "high",
        "zone": "perimeter",
        "truckGate": true,
        "guardShack": true,
        "remoteGs": false,
        "fastLaneOpportunity": true,
        "backupSensitive": false,
        "dropYard": true,
        "multipleFacilities": true,
        "scale": false,
        "shipRcvSeparate": true,
        "urbanRural": "Rural",
        "dockDoors": "50+",
        "dropArea": "25-50",
        "yardMetrics": {
          "dockDoorCount": 130,
          "trailersVisible": 350,
          "trailerParkingCapacity": 600,
          "truckGateCount": 2,
          "buildingCount": 20,
          "siteAreaAcres": 900,
          "railServed": true
        }
      }
    },
    {
      "type": "Feature",
      "geometry": {
        "type": "Polygon",
        "coordinates": [
          [
            [
              -98.551289,
              29.246205
            ],
            [
              -98.551289,
              29.243329
            ],
            [
              -98.547993,
              29.243329
            ],
            [
              -98.547993,
              29.246205
            ],
            [
              -98.551289,
              29.246205
            ]
          ]
        ]
      },
      "properties": {
        "account": "toyota",
        "name": "Toyota Motor Manufacturing Texas - San Antonio TX",
        "type": "Vehicle Assembly Plant",
        "archetype": "#6",
        "archetypeName": "Gate + GS (not BU sens.) + campus",
        "confidence": "high",
        "zone": "truckGate"
      }
    },
    {
      "type": "Feature",
      "geometry": {
        "type": "Polygon",
        "coordinates": [
          [
            [
              -98.546895,
              29.265854
            ],
            [
              -98.546895,
              29.256749
            ],
            [
              -98.5425,
              29.256749
            ],
            [
              -98.5425,
              29.265854
            ],
            [
              -98.546895,
              29.265854
            ]
          ]
        ]
      },
      "properties": {
        "account": "toyota",
        "name": "Toyota Motor Manufacturing Texas - San Antonio TX",
        "type": "Vehicle Assembly Plant",
        "archetype": "#6",
        "archetypeName": "Gate + GS (not BU sens.) + campus",
        "confidence": "high",
        "zone": "dropYard",
        "index": 1
      }
    },
    {
      "type": "Feature",
      "geometry": {
        "type": "Polygon",
        "coordinates": [
          [
            [
              -98.545796,
              29.264896
            ],
            [
              -98.545796,
              29.2625
            ],
            [
              -98.53481,
              29.262021
            ],
            [
              -98.53481,
              29.264417
            ],
            [
              -98.545796,
              29.264896
            ]
          ]
        ]
      },
      "properties": {
        "account": "toyota",
        "name": "Toyota Motor Manufacturing Texas - San Antonio TX",
        "type": "Vehicle Assembly Plant",
        "archetype": "#6",
        "archetypeName": "Gate + GS (not BU sens.) + campus",
        "confidence": "high",
        "zone": "dockApron",
        "index": 1
      }
    },
    {
      "type": "Feature",
      "geometry": {
        "type": "Polygon",
        "coordinates": [
          [
            [
              -88.90324,
              34.386847
            ],
            [
              -88.90324,
              34.378687
            ],
            [
              -88.893627,
              34.374153
            ],
            [
              -88.88731,
              34.379367
            ],
            [
              -88.893627,
              34.388887
            ],
            [
              -88.90324,
              34.386847
            ]
          ]
        ]
      },
      "properties": {
        "account": "toyota",
        "name": "Toyota Motor Manufacturing Mississippi - Blue Springs MS",
        "type": "Vehicle Assembly Plant",
        "archetype": "#10",
        "archetypeName": "Ship/Rcv Separate (Gate+GS)",
        "confidence": "high",
        "zone": "perimeter",
        "truckGate": true,
        "guardShack": true,
        "remoteGs": false,
        "fastLaneOpportunity": true,
        "backupSensitive": false,
        "dropYard": true,
        "multipleFacilities": false,
        "scale": false,
        "shipRcvSeparate": true,
        "urbanRural": "Rural",
        "dockDoors": "50+",
        "dropArea": "25-50",
        "yardMetrics": {
          "dockDoorCount": 90,
          "trailersVisible": 220,
          "trailerParkingCapacity": 400,
          "truckGateCount": 2,
          "buildingCount": 5,
          "siteAreaAcres": 470,
          "railServed": true
        }
      }
    },
    {
      "type": "Feature",
      "geometry": {
        "type": "Polygon",
        "coordinates": [
          [
            [
              -88.900493,
              34.382767
            ],
            [
              -88.899944,
              34.380727
            ],
            [
              -88.897197,
              34.381407
            ],
            [
              -88.897747,
              34.383447
            ],
            [
              -88.900493,
              34.382767
            ]
          ]
        ]
      },
      "properties": {
        "account": "toyota",
        "name": "Toyota Motor Manufacturing Mississippi - Blue Springs MS",
        "type": "Vehicle Assembly Plant",
        "archetype": "#10",
        "archetypeName": "Ship/Rcv Separate (Gate+GS)",
        "confidence": "high",
        "zone": "dropYard",
        "index": 1
      }
    },
    {
      "type": "Feature",
      "geometry": {
        "type": "Polygon",
        "coordinates": [
          [
            [
              -88.897747,
              34.383673
            ],
            [
              -88.897197,
              34.382313
            ],
            [
              -88.892253,
              34.383673
            ],
            [
              -88.892803,
              34.385033
            ],
            [
              -88.897747,
              34.383673
            ]
          ]
        ]
      },
      "properties": {
        "account": "toyota",
        "name": "Toyota Motor Manufacturing Mississippi - Blue Springs MS",
        "type": "Vehicle Assembly Plant",
        "archetype": "#10",
        "archetypeName": "Ship/Rcv Separate (Gate+GS)",
        "confidence": "high",
        "zone": "dockApron",
        "index": 1
      }
    },
    {
      "type": "Feature",
      "geometry": {
        "type": "Polygon",
        "coordinates": [
          [
            [
              -81.996395,
              38.601864
            ],
            [
              -81.997493,
              38.598
            ],
            [
              -81.996395,
              38.591989
            ],
            [
              -81.992,
              38.59156
            ],
            [
              -81.989253,
              38.601434
            ],
            [
              -81.996395,
              38.601864
            ]
          ]
        ]
      },
      "properties": {
        "account": "toyota",
        "name": "Toyota Motor Manufacturing West Virginia - Buffalo WV",
        "type": "Powertrain Plant (engines/transmissions)",
        "archetype": "#9",
        "archetypeName": "Gate + No GS (remote check-in)",
        "confidence": "medium",
        "zone": "perimeter",
        "truckGate": true,
        "guardShack": false,
        "remoteGs": true,
        "fastLaneOpportunity": true,
        "backupSensitive": false,
        "dropYard": true,
        "multipleFacilities": true,
        "scale": false,
        "shipRcvSeparate": true,
        "urbanRural": "Rural",
        "dockDoors": "50+",
        "dropArea": "50+",
        "yardMetrics": {
          "dockDoorCount": 60,
          "trailersVisible": 85,
          "trailerParkingCapacity": 200,
          "truckGateCount": 1,
          "buildingCount": 6,
          "siteAreaAcres": 311,
          "railServed": false
        }
      }
    },
    {
      "type": "Feature",
      "geometry": {
        "type": "Polygon",
        "coordinates": [
          [
            [
              -81.995296,
              38.598
            ],
            [
              -81.995845,
              38.595853
            ],
            [
              -81.992549,
              38.595424
            ],
            [
              -81.992,
              38.597571
            ],
            [
              -81.995296,
              38.598
            ]
          ]
        ]
      },
      "properties": {
        "account": "toyota",
        "name": "Toyota Motor Manufacturing West Virginia - Buffalo WV",
        "type": "Powertrain Plant (engines/transmissions)",
        "archetype": "#9",
        "archetypeName": "Gate + No GS (remote check-in)",
        "confidence": "medium",
        "zone": "dropYard",
        "index": 1
      }
    },
    {
      "type": "Feature",
      "geometry": {
        "type": "Polygon",
        "coordinates": [
          [
            [
              -81.995845,
              38.598859
            ],
            [
              -81.99612,
              38.597785
            ],
            [
              -81.991176,
              38.597356
            ],
            [
              -81.990901,
              38.598429
            ],
            [
              -81.995845,
              38.598859
            ]
          ]
        ]
      },
      "properties": {
        "account": "toyota",
        "name": "Toyota Motor Manufacturing West Virginia - Buffalo WV",
        "type": "Powertrain Plant (engines/transmissions)",
        "archetype": "#9",
        "archetypeName": "Gate + No GS (remote check-in)",
        "confidence": "medium",
        "zone": "dockApron",
        "index": 1
      }
    },
    {
      "type": "Feature",
      "geometry": {
        "type": "Polygon",
        "coordinates": [
          [
            [
              -86.853493,
              34.690275
            ],
            [
              -86.854592,
              34.684629
            ],
            [
              -86.853493,
              34.676272
            ],
            [
              -86.841408,
              34.677176
            ],
            [
              -86.842507,
              34.689824
            ],
            [
              -86.853493,
              34.690275
            ]
          ]
        ]
      },
      "properties": {
        "account": "toyota",
        "name": "Mazda Toyota Manufacturing USA - Huntsville AL",
        "type": "Vehicle Assembly Plant (Mazda-Toyota JV)",
        "archetype": "#9",
        "archetypeName": "Gate + No GS (remote check-in)",
        "confidence": "medium",
        "zone": "perimeter",
        "truckGate": true,
        "guardShack": false,
        "remoteGs": true,
        "fastLaneOpportunity": true,
        "backupSensitive": false,
        "dropYard": true,
        "multipleFacilities": true,
        "scale": false,
        "shipRcvSeparate": true,
        "urbanRural": "Rural",
        "dockDoors": "50+",
        "dropArea": "50+",
        "yardMetrics": {
          "dockDoorCount": 80,
          "trailersVisible": 110,
          "trailerParkingCapacity": 300,
          "truckGateCount": 2,
          "buildingCount": 8,
          "siteAreaAcres": 504,
          "railServed": false
        }
      }
    },
    {
      "type": "Feature",
      "geometry": {
        "type": "Polygon",
        "coordinates": [
          [
            [
              -86.844704,
              34.684629
            ],
            [
              -86.844704,
              34.68079
            ],
            [
              -86.841408,
              34.68079
            ],
            [
              -86.841408,
              34.684629
            ],
            [
              -86.844704,
              34.684629
            ]
          ]
        ]
      },
      "properties": {
        "account": "toyota",
        "name": "Mazda Toyota Manufacturing USA - Huntsville AL",
        "type": "Vehicle Assembly Plant (Mazda-Toyota JV)",
        "archetype": "#9",
        "archetypeName": "Gate + No GS (remote check-in)",
        "confidence": "medium",
        "zone": "dropYard",
        "index": 1
      }
    },
    {
      "type": "Feature",
      "geometry": {
        "type": "Polygon",
        "coordinates": [
          [
            [
              -86.849648,
              34.683048
            ],
            [
              -86.849648,
              34.681693
            ],
            [
              -86.844704,
              34.681693
            ],
            [
              -86.844704,
              34.683048
            ],
            [
              -86.849648,
              34.683048
            ]
          ]
        ]
      },
      "properties": {
        "account": "toyota",
        "name": "Mazda Toyota Manufacturing USA - Huntsville AL",
        "type": "Vehicle Assembly Plant (Mazda-Toyota JV)",
        "archetype": "#9",
        "archetypeName": "Gate + No GS (remote check-in)",
        "confidence": "medium",
        "zone": "dockApron",
        "index": 1
      }
    },
    {
      "type": "Feature",
      "geometry": {
        "type": "Polygon",
        "coordinates": [
          [
            [
              -79.647578,
              35.90084
            ],
            [
              -79.647578,
              35.893275
            ],
            [
              -79.640986,
              35.884819
            ],
            [
              -79.623408,
              35.88571
            ],
            [
              -79.620112,
              35.89906
            ],
            [
              -79.623408,
              35.90173
            ],
            [
              -79.647578,
              35.90084
            ]
          ]
        ]
      },
      "properties": {
        "account": "toyota",
        "name": "Toyota Battery Manufacturing North Carolina - Liberty NC",
        "type": "Battery Manufacturing Plant",
        "archetype": "#9",
        "archetypeName": "Gate + No GS (remote check-in)",
        "confidence": "low",
        "zone": "perimeter",
        "truckGate": true,
        "guardShack": false,
        "remoteGs": true,
        "fastLaneOpportunity": true,
        "backupSensitive": false,
        "dropYard": true,
        "multipleFacilities": true,
        "scale": false,
        "shipRcvSeparate": false,
        "urbanRural": "Rural",
        "dockDoors": "25-50",
        "dropArea": "25-50",
        "yardMetrics": {
          "dockDoorCount": 50,
          "trailersVisible": 40,
          "trailerParkingCapacity": 200,
          "truckGateCount": 1,
          "buildingCount": 5,
          "siteAreaAcres": 1116,
          "railServed": false
        }
      }
    },
    {
      "type": "Feature",
      "geometry": {
        "type": "Polygon",
        "coordinates": [
          [
            [
              -79.643184,
              35.897725
            ],
            [
              -79.643184,
              35.893275
            ],
            [
              -79.634395,
              35.893275
            ],
            [
              -79.634395,
              35.897725
            ],
            [
              -79.643184,
              35.897725
            ]
          ]
        ]
      },
      "properties": {
        "account": "toyota",
        "name": "Toyota Battery Manufacturing North Carolina - Liberty NC",
        "type": "Battery Manufacturing Plant",
        "archetype": "#9",
        "archetypeName": "Gate + No GS (remote check-in)",
        "confidence": "low",
        "zone": "dropYard",
        "index": 1
      }
    },
    {
      "type": "Feature",
      "geometry": {
        "type": "Polygon",
        "coordinates": [
          [
            [
              -79.635493,
              35.893275
            ],
            [
              -79.635493,
              35.89105
            ],
            [
              -79.627253,
              35.89105
            ],
            [
              -79.627253,
              35.893275
            ],
            [
              -79.635493,
              35.893275
            ]
          ]
        ]
      },
      "properties": {
        "account": "toyota",
        "name": "Toyota Battery Manufacturing North Carolina - Liberty NC",
        "type": "Battery Manufacturing Plant",
        "archetype": "#9",
        "archetypeName": "Gate + No GS (remote check-in)",
        "confidence": "low",
        "zone": "dockApron",
        "index": 1
      }
    },
    {
      "type": "Feature",
      "geometry": {
        "type": "Polygon",
        "coordinates": [
          [
            [
              -86.642993,
              34.832656
            ],
            [
              -86.642993,
              34.829951
            ],
            [
              -86.641895,
              34.826795
            ],
            [
              -86.634204,
              34.826795
            ],
            [
              -86.634204,
              34.832205
            ],
            [
              -86.642993,
              34.832656
            ]
          ]
        ]
      },
      "properties": {
        "account": "toyota",
        "name": "Toyota Motor Manufacturing Alabama - Huntsville AL",
        "type": "Engine Plant",
        "archetype": "#7",
        "archetypeName": "Gate + GS (not BU sens.) + fast lane opp",
        "confidence": "high",
        "zone": "perimeter",
        "truckGate": true,
        "guardShack": true,
        "remoteGs": false,
        "fastLaneOpportunity": true,
        "backupSensitive": false,
        "dropYard": true,
        "multipleFacilities": false,
        "scale": false,
        "shipRcvSeparate": false,
        "urbanRural": "Rural",
        "dockDoors": "25-50",
        "dropArea": "50+",
        "yardMetrics": {
          "dockDoorCount": 35,
          "trailersVisible": 120,
          "trailerParkingCapacity": 250,
          "truckGateCount": 1,
          "buildingCount": 4,
          "siteAreaAcres": 275,
          "railServed": false
        }
      }
    },
    {
      "type": "Feature",
      "geometry": {
        "type": "Polygon",
        "coordinates": [
          [
            [
              -86.642993,
              34.821834
            ],
            [
              -86.642993,
              34.820481
            ],
            [
              -86.640247,
              34.820481
            ],
            [
              -86.640247,
              34.821834
            ],
            [
              -86.642993,
              34.821834
            ]
          ]
        ]
      },
      "properties": {
        "account": "toyota",
        "name": "Toyota Motor Manufacturing Alabama - Huntsville AL",
        "type": "Engine Plant",
        "archetype": "#7",
        "archetypeName": "Gate + GS (not BU sens.) + fast lane opp",
        "confidence": "high",
        "zone": "truckGate"
      }
    },
    {
      "type": "Feature",
      "geometry": {
        "type": "Polygon",
        "coordinates": [
          [
            [
              -86.640247,
              34.831755
            ],
            [
              -86.640247,
              34.830402
            ],
            [
              -86.635303,
              34.830402
            ],
            [
              -86.635303,
              34.831755
            ],
            [
              -86.640247,
              34.831755
            ]
          ]
        ]
      },
      "properties": {
        "account": "toyota",
        "name": "Toyota Motor Manufacturing Alabama - Huntsville AL",
        "type": "Engine Plant",
        "archetype": "#7",
        "archetypeName": "Gate + GS (not BU sens.) + fast lane opp",
        "confidence": "high",
        "zone": "dropYard",
        "index": 1
      }
    },
    {
      "type": "Feature",
      "geometry": {
        "type": "Polygon",
        "coordinates": [
          [
            [
              -86.641345,
              34.830402
            ],
            [
              -86.641345,
              34.829275
            ],
            [
              -86.635852,
              34.829275
            ],
            [
              -86.635852,
              34.830402
            ],
            [
              -86.641345,
              34.830402
            ]
          ]
        ]
      },
      "properties": {
        "account": "toyota",
        "name": "Toyota Motor Manufacturing Alabama - Huntsville AL",
        "type": "Engine Plant",
        "archetype": "#7",
        "archetypeName": "Gate + GS (not BU sens.) + fast lane opp",
        "confidence": "high",
        "zone": "dockApron",
        "index": 1
      }
    },
    {
      "type": "Feature",
      "geometry": {
        "type": "Polygon",
        "coordinates": [
          [
            [
              -90.972061,
              38.964668
            ],
            [
              -90.972611,
              38.962746
            ],
            [
              -90.970413,
              38.961892
            ],
            [
              -90.967667,
              38.962319
            ],
            [
              -90.967941,
              38.964668
            ],
            [
              -90.972061,
              38.964668
            ]
          ]
        ]
      },
      "properties": {
        "account": "toyota",
        "name": "Toyota Motor Manufacturing Missouri - Troy MO",
        "type": "Powertrain Plant (aluminum castings)",
        "archetype": "#7",
        "archetypeName": "Gate + GS (not BU sens.) + fast lane opp",
        "confidence": "high",
        "zone": "perimeter",
        "truckGate": true,
        "guardShack": true,
        "remoteGs": false,
        "fastLaneOpportunity": true,
        "backupSensitive": false,
        "dropYard": true,
        "multipleFacilities": false,
        "scale": false,
        "shipRcvSeparate": false,
        "urbanRural": "Rural",
        "dockDoors": "10-25",
        "dropArea": "50+",
        "yardMetrics": {
          "dockDoorCount": 14,
          "trailersVisible": 55,
          "trailerParkingCapacity": 80,
          "truckGateCount": 1,
          "buildingCount": 6,
          "siteAreaAcres": 73.4,
          "railServed": false
        }
      }
    },
    {
      "type": "Feature",
      "geometry": {
        "type": "Polygon",
        "coordinates": [
          [
            [
              -90.971512,
              38.964027
            ],
            [
              -90.971512,
              38.963386
            ],
            [
              -90.968216,
              38.963386
            ],
            [
              -90.968216,
              38.964027
            ],
            [
              -90.971512,
              38.964027
            ]
          ]
        ]
      },
      "properties": {
        "account": "toyota",
        "name": "Toyota Motor Manufacturing Missouri - Troy MO",
        "type": "Powertrain Plant (aluminum castings)",
        "archetype": "#7",
        "archetypeName": "Gate + GS (not BU sens.) + fast lane opp",
        "confidence": "high",
        "zone": "dockApron",
        "index": 1
      }
    },
    {
      "type": "Feature",
      "geometry": {
        "type": "Polygon",
        "coordinates": [
          [
            [
              -88.943747,
              35.60068
            ],
            [
              -88.944296,
              35.597777
            ],
            [
              -88.942099,
              35.59666
            ],
            [
              -88.939627,
              35.597107
            ],
            [
              -88.939901,
              35.60068
            ],
            [
              -88.943747,
              35.60068
            ]
          ]
        ]
      },
      "properties": {
        "account": "toyota",
        "name": "Toyota Motor Manufacturing Tennessee - Jackson TN",
        "type": "Powertrain Plant (aluminum castings)",
        "archetype": "#7",
        "archetypeName": "Gate + GS (not BU sens.) + fast lane opp",
        "confidence": "high",
        "zone": "perimeter",
        "truckGate": true,
        "guardShack": true,
        "remoteGs": false,
        "fastLaneOpportunity": true,
        "backupSensitive": false,
        "dropYard": true,
        "multipleFacilities": false,
        "scale": false,
        "shipRcvSeparate": false,
        "urbanRural": "Rural",
        "dockDoors": "10-25",
        "dropArea": "10-25",
        "yardMetrics": {
          "dockDoorCount": 12,
          "trailersVisible": 14,
          "trailerParkingCapacity": 30,
          "truckGateCount": 1,
          "buildingCount": 4,
          "siteAreaAcres": 121,
          "railServed": false
        }
      }
    },
    {
      "type": "Feature",
      "geometry": {
        "type": "Polygon",
        "coordinates": [
          [
            [
              -88.942099,
              35.597553
            ],
            [
              -88.942099,
              35.59666
            ],
            [
              -88.939901,
              35.59666
            ],
            [
              -88.939901,
              35.597553
            ],
            [
              -88.942099,
              35.597553
            ]
          ]
        ]
      },
      "properties": {
        "account": "toyota",
        "name": "Toyota Motor Manufacturing Tennessee - Jackson TN",
        "type": "Powertrain Plant (aluminum castings)",
        "archetype": "#7",
        "archetypeName": "Gate + GS (not BU sens.) + fast lane opp",
        "confidence": "high",
        "zone": "dropYard",
        "index": 1
      }
    },
    {
      "type": "Feature",
      "geometry": {
        "type": "Polygon",
        "coordinates": [
          [
            [
              -88.941549,
              35.600233
            ],
            [
              -88.941549,
              35.598447
            ],
            [
              -88.939901,
              35.598447
            ],
            [
              -88.939901,
              35.600233
            ],
            [
              -88.941549,
              35.600233
            ]
          ]
        ]
      },
      "properties": {
        "account": "toyota",
        "name": "Toyota Motor Manufacturing Tennessee - Jackson TN",
        "type": "Powertrain Plant (aluminum castings)",
        "archetype": "#7",
        "archetypeName": "Gate + GS (not BU sens.) + fast lane opp",
        "confidence": "high",
        "zone": "dockApron",
        "index": 1
      }
    },
    {
      "type": "Feature",
      "geometry": {
        "type": "Polygon",
        "coordinates": [
          [
            [
              -118.164335,
              33.872982
            ],
            [
              -118.164335,
              33.87036
            ],
            [
              -118.160077,
              33.870246
            ],
            [
              -118.160077,
              33.872868
            ],
            [
              -118.164335,
              33.872982
            ]
          ]
        ]
      },
      "properties": {
        "account": "toyota",
        "name": "TABC Inc - Long Beach CA",
        "type": "Parts/Components Plant (stamping, welding, catalytic converters)",
        "archetype": "#9",
        "archetypeName": "Gate + No GS (remote check-in)",
        "confidence": "medium",
        "zone": "perimeter",
        "truckGate": true,
        "guardShack": false,
        "remoteGs": true,
        "fastLaneOpportunity": false,
        "backupSensitive": true,
        "dropYard": false,
        "multipleFacilities": false,
        "scale": false,
        "shipRcvSeparate": false,
        "urbanRural": "Urban",
        "dockDoors": "0-10",
        "dropArea": "0-10",
        "yardMetrics": {
          "dockDoorCount": 10,
          "trailersVisible": 4,
          "trailerParkingCapacity": 12,
          "truckGateCount": 2,
          "buildingCount": 5,
          "siteAreaAcres": 26.7,
          "railServed": false
        }
      }
    },
    {
      "type": "Feature",
      "geometry": {
        "type": "Polygon",
        "coordinates": [
          [
            [
              -118.16406,
              33.869904
            ],
            [
              -118.16406,
              33.86922
            ],
            [
              -118.160077,
              33.86922
            ],
            [
              -118.160077,
              33.869904
            ],
            [
              -118.16406,
              33.869904
            ]
          ]
        ]
      },
      "properties": {
        "account": "toyota",
        "name": "TABC Inc - Long Beach CA",
        "type": "Parts/Components Plant (stamping, welding, catalytic converters)",
        "archetype": "#9",
        "archetypeName": "Gate + No GS (remote check-in)",
        "confidence": "medium",
        "zone": "dropYard",
        "index": 1
      }
    },
    {
      "type": "Feature",
      "geometry": {
        "type": "Polygon",
        "coordinates": [
          [
            [
              -118.16406,
              33.87264
            ],
            [
              -118.16406,
              33.87207
            ],
            [
              -118.162,
              33.87207
            ],
            [
              -118.162,
              33.87264
            ],
            [
              -118.16406,
              33.87264
            ]
          ]
        ]
      },
      "properties": {
        "account": "toyota",
        "name": "TABC Inc - Long Beach CA",
        "type": "Parts/Components Plant (stamping, welding, catalytic converters)",
        "archetype": "#9",
        "archetypeName": "Gate + No GS (remote check-in)",
        "confidence": "medium",
        "zone": "dockApron",
        "index": 1
      }
    },
    {
      "type": "Feature",
      "geometry": {
        "type": "Polygon",
        "coordinates": [
          [
            [
              -84.709549,
              39.055433
            ],
            [
              -84.710373,
              39.052767
            ],
            [
              -84.709549,
              39.050314
            ],
            [
              -84.706803,
              39.051807
            ],
            [
              -84.705704,
              39.054366
            ],
            [
              -84.705979,
              39.05522
            ],
            [
              -84.709549,
              39.055433
            ]
          ]
        ]
      },
      "properties": {
        "account": "toyota",
        "name": "North American Parts Center Kentucky - Hebron KY",
        "type": "Parts Procurement & Distribution Hub",
        "archetype": "#10",
        "archetypeName": "Ship/Rcv Separate (Gate+GS)",
        "confidence": "medium",
        "zone": "perimeter",
        "truckGate": true,
        "guardShack": true,
        "remoteGs": false,
        "fastLaneOpportunity": true,
        "backupSensitive": false,
        "dropYard": true,
        "multipleFacilities": false,
        "scale": false,
        "shipRcvSeparate": true,
        "urbanRural": "Rural",
        "dockDoors": "50+",
        "dropArea": "50+",
        "yardMetrics": {
          "dockDoorCount": 90,
          "trailersVisible": 180,
          "trailerParkingCapacity": 240,
          "truckGateCount": 1,
          "buildingCount": 1,
          "siteAreaAcres": 92.8,
          "railServed": false
        }
      }
    },
    {
      "type": "Feature",
      "geometry": {
        "type": "Polygon",
        "coordinates": [
          [
            [
              -84.710099,
              39.053727
            ],
            [
              -84.709412,
              39.05074
            ],
            [
              -84.708313,
              39.050954
            ],
            [
              -84.709,
              39.053833
            ],
            [
              -84.710099,
              39.053727
            ]
          ]
        ]
      },
      "properties": {
        "account": "toyota",
        "name": "North American Parts Center Kentucky - Hebron KY",
        "type": "Parts Procurement & Distribution Hub",
        "archetype": "#10",
        "archetypeName": "Ship/Rcv Separate (Gate+GS)",
        "confidence": "medium",
        "zone": "dropYard",
        "index": 1
      }
    },
    {
      "type": "Feature",
      "geometry": {
        "type": "Polygon",
        "coordinates": [
          [
            [
              -84.709,
              39.055006
            ],
            [
              -84.709137,
              39.054366
            ],
            [
              -84.706391,
              39.054153
            ],
            [
              -84.706253,
              39.054793
            ],
            [
              -84.709,
              39.055006
            ]
          ]
        ]
      },
      "properties": {
        "account": "toyota",
        "name": "North American Parts Center Kentucky - Hebron KY",
        "type": "Parts Procurement & Distribution Hub",
        "archetype": "#10",
        "archetypeName": "Ship/Rcv Separate (Gate+GS)",
        "confidence": "medium",
        "zone": "dockApron",
        "index": 1
      }
    },
    {
      "type": "Feature",
      "geometry": {
        "type": "Polygon",
        "coordinates": [
          [
            [
              -118.228937,
              33.780283
            ],
            [
              -118.228937,
              33.771607
            ],
            [
              -118.2185,
              33.771607
            ],
            [
              -118.217951,
              33.780283
            ],
            [
              -118.228937,
              33.780283
            ]
          ]
        ]
      },
      "properties": {
        "account": "toyota",
        "name": "Toyota Logistics Services Vehicle Distribution Center - Long Beach CA",
        "type": "Vehicle Distribution Center (port processing)",
        "archetype": "#7",
        "archetypeName": "Gate + GS (not BU sens.) + fast lane opp",
        "confidence": "medium",
        "zone": "perimeter",
        "truckGate": true,
        "guardShack": true,
        "remoteGs": false,
        "fastLaneOpportunity": true,
        "backupSensitive": false,
        "dropYard": true,
        "multipleFacilities": false,
        "scale": false,
        "shipRcvSeparate": false,
        "urbanRural": "Urban",
        "dockDoors": "10-25",
        "dropArea": "50+",
        "yardMetrics": {
          "dockDoorCount": 14,
          "trailersVisible": 18,
          "trailerParkingCapacity": 60,
          "truckGateCount": 2,
          "buildingCount": 4,
          "siteAreaAcres": 62,
          "railServed": true
        }
      }
    },
    {
      "type": "Feature",
      "geometry": {
        "type": "Polygon",
        "coordinates": [
          [
            [
              -118.228388,
              33.77937
            ],
            [
              -118.228388,
              33.772977
            ],
            [
              -118.219049,
              33.772977
            ],
            [
              -118.219049,
              33.77937
            ],
            [
              -118.228388,
              33.77937
            ]
          ]
        ]
      },
      "properties": {
        "account": "toyota",
        "name": "Toyota Logistics Services Vehicle Distribution Center - Long Beach CA",
        "type": "Vehicle Distribution Center (port processing)",
        "archetype": "#7",
        "archetypeName": "Gate + GS (not BU sens.) + fast lane opp",
        "confidence": "medium",
        "zone": "dropYard",
        "index": 1
      }
    },
    {
      "type": "Feature",
      "geometry": {
        "type": "Polygon",
        "coordinates": [
          [
            [
              -122.762789,
              45.643413
            ],
            [
              -122.762789,
              45.639381
            ],
            [
              -122.759493,
              45.633427
            ],
            [
              -122.747408,
              45.632275
            ],
            [
              -122.74631,
              45.642261
            ],
            [
              -122.762789,
              45.643413
            ]
          ]
        ]
      },
      "properties": {
        "account": "toyota",
        "name": "Toyota Logistics Services Vehicle Distribution Center - Portland OR",
        "type": "Vehicle Distribution Center (port processing)",
        "archetype": "#7",
        "archetypeName": "Gate + GS (not BU sens.) + fast lane opp",
        "confidence": "medium",
        "zone": "perimeter",
        "truckGate": true,
        "guardShack": true,
        "remoteGs": false,
        "fastLaneOpportunity": true,
        "backupSensitive": false,
        "dropYard": true,
        "multipleFacilities": false,
        "scale": false,
        "shipRcvSeparate": false,
        "urbanRural": "Urban",
        "dockDoors": "0-10",
        "dropArea": "25-50",
        "yardMetrics": {
          "dockDoorCount": 8,
          "trailersVisible": 6,
          "trailerParkingCapacity": 35,
          "truckGateCount": 1,
          "buildingCount": 5,
          "siteAreaAcres": 48,
          "railServed": true
        }
      }
    },
    {
      "type": "Feature",
      "geometry": {
        "type": "Polygon",
        "coordinates": [
          [
            [
              -122.756747,
              45.641301
            ],
            [
              -122.757296,
              45.636116
            ],
            [
              -122.748507,
              45.63554
            ],
            [
              -122.747958,
              45.640725
            ],
            [
              -122.756747,
              45.641301
            ]
          ]
        ]
      },
      "properties": {
        "account": "toyota",
        "name": "Toyota Logistics Services Vehicle Distribution Center - Portland OR",
        "type": "Vehicle Distribution Center (port processing)",
        "archetype": "#7",
        "archetypeName": "Gate + GS (not BU sens.) + fast lane opp",
        "confidence": "medium",
        "zone": "dropYard",
        "index": 1
      }
    },
    {
      "type": "Feature",
      "geometry": {
        "type": "Polygon",
        "coordinates": [
          [
            [
              -74.141493,
              40.700247
            ],
            [
              -74.142042,
              40.696082
            ],
            [
              -74.138197,
              40.688169
            ],
            [
              -74.129408,
              40.689418
            ],
            [
              -74.12831,
              40.698165
            ],
            [
              -74.141493,
              40.700247
            ]
          ]
        ]
      },
      "properties": {
        "account": "toyota",
        "name": "Toyota Logistics Services Vehicle Distribution Center - Newark NJ",
        "type": "Vehicle Distribution Center (port processing)",
        "archetype": "#7",
        "archetypeName": "Gate + GS (not BU sens.) + fast lane opp",
        "confidence": "medium",
        "zone": "perimeter",
        "truckGate": true,
        "guardShack": true,
        "remoteGs": false,
        "fastLaneOpportunity": true,
        "backupSensitive": false,
        "dropYard": true,
        "multipleFacilities": false,
        "scale": false,
        "shipRcvSeparate": false,
        "urbanRural": "Urban",
        "dockDoors": "10-25",
        "dropArea": "50+",
        "yardMetrics": {
          "dockDoorCount": 12,
          "trailersVisible": 45,
          "trailerParkingCapacity": 80,
          "truckGateCount": 2,
          "buildingCount": 5,
          "siteAreaAcres": 58,
          "railServed": true
        }
      }
    },
    {
      "type": "Feature",
      "geometry": {
        "type": "Polygon",
        "coordinates": [
          [
            [
              -74.13016,
              40.69592
            ],
            [
              -74.135254,
              40.696231
            ],
            [
              -74.135798,
              40.691038
            ],
            [
              -74.130704,
              40.690727
            ],
            [
              -74.13016,
              40.69592
            ]
          ]
        ]
      },
      "properties": {
        "account": "toyota",
        "name": "Toyota Logistics Services Vehicle Distribution Center - Newark NJ",
        "type": "Vehicle Distribution Center (port processing)",
        "archetype": "#7",
        "archetypeName": "Gate + GS (not BU sens.) + fast lane opp",
        "confidence": "medium",
        "zone": "dropYard",
        "index": 1
      }
    },
    {
      "type": "Feature",
      "geometry": {
        "type": "Polygon",
        "coordinates": [
          [
            [
              -117.584547,
              34.033
            ],
            [
              -117.584547,
              34.030269
            ],
            [
              -117.578779,
              34.030269
            ],
            [
              -117.578779,
              34.033
            ],
            [
              -117.584547,
              34.033
            ]
          ]
        ]
      },
      "properties": {
        "account": "toyota",
        "name": "Toyota Parts Distribution Center - Ontario CA",
        "type": "Parts Distribution Center",
        "archetype": "#9",
        "archetypeName": "Gate + No GS (remote check-in)",
        "confidence": "medium",
        "zone": "perimeter",
        "truckGate": true,
        "guardShack": false,
        "remoteGs": true,
        "fastLaneOpportunity": true,
        "backupSensitive": false,
        "dropYard": true,
        "multipleFacilities": false,
        "scale": false,
        "shipRcvSeparate": false,
        "urbanRural": "Urban",
        "dockDoors": "50+",
        "dropArea": "50+",
        "yardMetrics": {
          "dockDoorCount": 70,
          "trailersVisible": 70,
          "trailerParkingCapacity": 110,
          "truckGateCount": 1,
          "buildingCount": 1,
          "siteAreaAcres": 42,
          "railServed": false
        }
      }
    },
    {
      "type": "Feature",
      "geometry": {
        "type": "Polygon",
        "coordinates": [
          [
            [
              -117.584272,
              34.030269
            ],
            [
              -117.584272,
              34.029358
            ],
            [
              -117.579053,
              34.029358
            ],
            [
              -117.579053,
              34.030269
            ],
            [
              -117.584272,
              34.030269
            ]
          ]
        ]
      },
      "properties": {
        "account": "toyota",
        "name": "Toyota Parts Distribution Center - Ontario CA",
        "type": "Parts Distribution Center",
        "archetype": "#9",
        "archetypeName": "Gate + No GS (remote check-in)",
        "confidence": "medium",
        "zone": "dropYard",
        "index": 1
      }
    },
    {
      "type": "Feature",
      "geometry": {
        "type": "Polygon",
        "coordinates": [
          [
            [
              -117.584272,
              34.030269
            ],
            [
              -117.584272,
              34.029586
            ],
            [
              -117.579053,
              34.029586
            ],
            [
              -117.579053,
              34.030269
            ],
            [
              -117.584272,
              34.030269
            ]
          ]
        ]
      },
      "properties": {
        "account": "toyota",
        "name": "Toyota Parts Distribution Center - Ontario CA",
        "type": "Parts Distribution Center",
        "archetype": "#9",
        "archetypeName": "Gate + No GS (remote check-in)",
        "confidence": "medium",
        "zone": "dockApron",
        "index": 1
      }
    },
    {
      "type": "Feature",
      "geometry": {
        "type": "Polygon",
        "coordinates": [
          [
            [
              -71.236235,
              42.01736
            ],
            [
              -71.236235,
              42.016442
            ],
            [
              -71.235274,
              42.015728
            ],
            [
              -71.233626,
              42.016442
            ],
            [
              -71.234038,
              42.017768
            ],
            [
              -71.236235,
              42.01736
            ]
          ]
        ]
      },
      "properties": {
        "account": "toyota",
        "name": "Toyota Parts Distribution Center - Mansfield MA",
        "type": "Parts Distribution Center",
        "archetype": "#3",
        "archetypeName": "No Gate / No GS",
        "confidence": "high",
        "zone": "perimeter",
        "truckGate": false,
        "guardShack": false,
        "remoteGs": false,
        "fastLaneOpportunity": false,
        "backupSensitive": false,
        "dropYard": true,
        "multipleFacilities": false,
        "scale": false,
        "shipRcvSeparate": false,
        "urbanRural": "Rural",
        "dockDoors": "10-25",
        "dropArea": "10-25",
        "yardMetrics": {
          "dockDoorCount": 18,
          "trailersVisible": 22,
          "trailerParkingCapacity": 30,
          "truckGateCount": 1,
          "buildingCount": 1,
          "siteAreaAcres": 16,
          "railServed": false
        }
      }
    },
    {
      "type": "Feature",
      "geometry": {
        "type": "Polygon",
        "coordinates": [
          [
            [
              -71.236235,
              42.017258
            ],
            [
              -71.236098,
              42.01685
            ],
            [
              -71.234999,
              42.017054
            ],
            [
              -71.235137,
              42.017462
            ],
            [
              -71.236235,
              42.017258
            ]
          ]
        ]
      },
      "properties": {
        "account": "toyota",
        "name": "Toyota Parts Distribution Center - Mansfield MA",
        "type": "Parts Distribution Center",
        "archetype": "#3",
        "archetypeName": "No Gate / No GS",
        "confidence": "high",
        "zone": "dockApron",
        "index": 1
      }
    }
  ]
}
