{
  "type": "FeatureCollection",
  "features": [
    {
      "type": "Feature",
      "geometry": {
        "type": "Polygon",
        "coordinates": [
          [
            [
              -75.631247,
              40.578212
            ],
            [
              -75.631521,
              40.577586
            ],
            [
              -75.631247,
              40.576543
            ],
            [
              -75.631659,
              40.575813
            ],
            [
              -75.631659,
              40.574874
            ],
            [
              -75.630011,
              40.574353
            ],
            [
              -75.627813,
              40.574248
            ],
            [
              -75.626577,
              40.574978
            ],
            [
              -75.626303,
              40.577273
            ],
            [
              -75.626852,
              40.577899
            ],
            [
              -75.631247,
              40.578212
            ]
          ]
        ]
      },
      "properties": {
        "account": "boston-beer-company",
        "name": "Samuel Adams Pennsylvania Brewery - Breinigsville PA",
        "type": "Brewery / production facility (largest in network; includes ~1M sq ft brewery + warehouse space on ~76 acres)",
        "archetype": "#6",
        "archetypeName": "Gate + GS (not BU sens.) + campus",
        "confidence": "high",
        "zone": "perimeter",
        "truckGate": true,
        "guardShack": true,
        "remoteGs": false,
        "fastLaneOpportunity": true,
        "backupSensitive": false,
        "dropYard": true,
        "multipleFacilities": true,
        "scale": true,
        "shipRcvSeparate": true,
        "urbanRural": "Rural",
        "dockDoors": "25-50",
        "dropArea": "50+",
        "yardMetrics": {
          "dockDoorCount": 40,
          "trailersVisible": 170,
          "trailerParkingCapacity": 250,
          "truckGateCount": 1,
          "buildingCount": 4,
          "siteAreaAcres": 70.3,
          "railServed": true
        }
      }
    },
    {
      "type": "Feature",
      "geometry": {
        "type": "Polygon",
        "coordinates": [
          [
            [
              -75.629771,
              40.577781
            ],
            [
              -75.629835,
              40.578206
            ],
            [
              -75.6308,
              40.578121
            ],
            [
              -75.630735,
              40.577697
            ],
            [
              -75.629771,
              40.577781
            ]
          ]
        ]
      },
      "properties": {
        "account": "boston-beer-company",
        "name": "Samuel Adams Pennsylvania Brewery - Breinigsville PA",
        "type": "Brewery / production facility (largest in network; includes ~1M sq ft brewery + warehouse space on ~76 acres)",
        "archetype": "#6",
        "archetypeName": "Gate + GS (not BU sens.) + campus",
        "confidence": "high",
        "zone": "truckGate"
      }
    },
    {
      "type": "Feature",
      "geometry": {
        "type": "Polygon",
        "coordinates": [
          [
            [
              -75.629847,
              40.57477
            ],
            [
              -75.630036,
              40.57601
            ],
            [
              -75.631685,
              40.575865
            ],
            [
              -75.631496,
              40.574625
            ],
            [
              -75.629847,
              40.57477
            ]
          ]
        ]
      },
      "properties": {
        "account": "boston-beer-company",
        "name": "Samuel Adams Pennsylvania Brewery - Breinigsville PA",
        "type": "Brewery / production facility (largest in network; includes ~1M sq ft brewery + warehouse space on ~76 acres)",
        "archetype": "#6",
        "archetypeName": "Gate + GS (not BU sens.) + campus",
        "confidence": "high",
        "zone": "dropYard",
        "index": 1
      }
    },
    {
      "type": "Feature",
      "geometry": {
        "type": "Polygon",
        "coordinates": [
          [
            [
              -75.627012,
              40.575724
            ],
            [
              -75.627092,
              40.576248
            ],
            [
              -75.62985,
              40.576006
            ],
            [
              -75.629771,
              40.575482
            ],
            [
              -75.627012,
              40.575724
            ]
          ]
        ]
      },
      "properties": {
        "account": "boston-beer-company",
        "name": "Samuel Adams Pennsylvania Brewery - Breinigsville PA",
        "type": "Brewery / production facility (largest in network; includes ~1M sq ft brewery + warehouse space on ~76 acres)",
        "archetype": "#6",
        "archetypeName": "Gate + GS (not BU sens.) + campus",
        "confidence": "high",
        "zone": "dockApron",
        "index": 1
      }
    },
    {
      "type": "Feature",
      "geometry": {
        "type": "Polygon",
        "coordinates": [
          [
            [
              -84.521634,
              39.115276
            ],
            [
              -84.524004,
              39.11518
            ],
            [
              -84.52391,
              39.11379
            ],
            [
              -84.52154,
              39.113886
            ],
            [
              -84.521634,
              39.115276
            ]
          ]
        ]
      },
      "properties": {
        "account": "boston-beer-company",
        "name": "Cincinnati Brewery - Cincinnati OH",
        "type": "Brewery / canning production facility (Over-the-Rhine; $85M canning expansion 2020 quadrupled canning capacity)",
        "archetype": "#3",
        "archetypeName": "No Gate / No GS",
        "confidence": "high",
        "zone": "perimeter",
        "truckGate": false,
        "guardShack": false,
        "remoteGs": false,
        "fastLaneOpportunity": false,
        "backupSensitive": true,
        "dropYard": true,
        "multipleFacilities": true,
        "scale": false,
        "shipRcvSeparate": false,
        "urbanRural": "Urban",
        "dockDoors": "10-25",
        "dropArea": "10-25",
        "yardMetrics": {
          "dockDoorCount": 16,
          "trailersVisible": 22,
          "trailerParkingCapacity": 35,
          "truckGateCount": 0,
          "buildingCount": 5,
          "siteAreaAcres": 15.7,
          "railServed": false
        }
      }
    },
    {
      "type": "Feature",
      "geometry": {
        "type": "Polygon",
        "coordinates": [
          [
            [
              -84.523515,
              39.114124
            ],
            [
              -84.523862,
              39.11411
            ],
            [
              -84.523847,
              39.113876
            ],
            [
              -84.5235,
              39.11389
            ],
            [
              -84.523515,
              39.114124
            ]
          ]
        ]
      },
      "properties": {
        "account": "boston-beer-company",
        "name": "Cincinnati Brewery - Cincinnati OH",
        "type": "Brewery / canning production facility (Over-the-Rhine; $85M canning expansion 2020 quadrupled canning capacity)",
        "archetype": "#3",
        "archetypeName": "No Gate / No GS",
        "confidence": "high",
        "zone": "truckGate"
      }
    },
    {
      "type": "Feature",
      "geometry": {
        "type": "Polygon",
        "coordinates": [
          [
            [
              -84.523239,
              39.114728
            ],
            [
              -84.523933,
              39.1147
            ],
            [
              -84.523883,
              39.113964
            ],
            [
              -84.523189,
              39.113992
            ],
            [
              -84.523239,
              39.114728
            ]
          ]
        ]
      },
      "properties": {
        "account": "boston-beer-company",
        "name": "Cincinnati Brewery - Cincinnati OH",
        "type": "Brewery / canning production facility (Over-the-Rhine; $85M canning expansion 2020 quadrupled canning capacity)",
        "archetype": "#3",
        "archetypeName": "No Gate / No GS",
        "confidence": "high",
        "zone": "dropYard",
        "index": 1
      }
    },
    {
      "type": "Feature",
      "geometry": {
        "type": "Polygon",
        "coordinates": [
          [
            [
              -84.522736,
              39.114968
            ],
            [
              -84.522991,
              39.114958
            ],
            [
              -84.522944,
              39.114258
            ],
            [
              -84.522689,
              39.114268
            ],
            [
              -84.522736,
              39.114968
            ]
          ]
        ]
      },
      "properties": {
        "account": "boston-beer-company",
        "name": "Cincinnati Brewery - Cincinnati OH",
        "type": "Brewery / canning production facility (Over-the-Rhine; $85M canning expansion 2020 quadrupled canning capacity)",
        "archetype": "#3",
        "archetypeName": "No Gate / No GS",
        "confidence": "high",
        "zone": "dockApron",
        "index": 1
      }
    },
    {
      "type": "Feature",
      "geometry": {
        "type": "Polygon",
        "coordinates": [
          [
            [
              -75.311236,
              38.770875
            ],
            [
              -75.311305,
              38.7705
            ],
            [
              -75.311099,
              38.769858
            ],
            [
              -75.309451,
              38.769858
            ],
            [
              -75.309107,
              38.770232
            ],
            [
              -75.309107,
              38.771035
            ],
            [
              -75.311236,
              38.770875
            ]
          ]
        ]
      },
      "properties": {
        "account": "boston-beer-company",
        "name": "Milton Brewery (Dogfish Head) - Milton DE",
        "type": "Brewery / production facility (Dogfish Head main production; acquired by Boston Beer 2019)",
        "archetype": "#3",
        "archetypeName": "No Gate / No GS",
        "confidence": "high",
        "zone": "perimeter",
        "truckGate": false,
        "guardShack": false,
        "remoteGs": false,
        "fastLaneOpportunity": false,
        "backupSensitive": false,
        "dropYard": false,
        "multipleFacilities": false,
        "scale": false,
        "shipRcvSeparate": true,
        "urbanRural": "Rural",
        "dockDoors": "10-25",
        "dropArea": "0-10",
        "yardMetrics": {
          "dockDoorCount": 12,
          "trailersVisible": 3,
          "trailerParkingCapacity": 15,
          "truckGateCount": 0,
          "buildingCount": 2,
          "siteAreaAcres": 20,
          "railServed": false
        }
      }
    },
    {
      "type": "Feature",
      "geometry": {
        "type": "Polygon",
        "coordinates": [
          [
            [
              -75.309657,
              38.770179
            ],
            [
              -75.309725,
              38.769911
            ],
            [
              -75.309245,
              38.769858
            ],
            [
              -75.309176,
              38.770125
            ],
            [
              -75.309657,
              38.770179
            ]
          ]
        ]
      },
      "properties": {
        "account": "boston-beer-company",
        "name": "Milton Brewery (Dogfish Head) - Milton DE",
        "type": "Brewery / production facility (Dogfish Head main production; acquired by Boston Beer 2019)",
        "archetype": "#3",
        "archetypeName": "No Gate / No GS",
        "confidence": "high",
        "zone": "truckGate"
      }
    },
    {
      "type": "Feature",
      "geometry": {
        "type": "Polygon",
        "coordinates": [
          [
            [
              -75.31103,
              38.770714
            ],
            [
              -75.311099,
              38.7705
            ],
            [
              -75.310069,
              38.770446
            ],
            [
              -75.31,
              38.770661
            ],
            [
              -75.31103,
              38.770714
            ]
          ]
        ]
      },
      "properties": {
        "account": "boston-beer-company",
        "name": "Milton Brewery (Dogfish Head) - Milton DE",
        "type": "Brewery / production facility (Dogfish Head main production; acquired by Boston Beer 2019)",
        "archetype": "#3",
        "archetypeName": "No Gate / No GS",
        "confidence": "high",
        "zone": "dockApron",
        "index": 1
      }
    },
    {
      "type": "Feature",
      "geometry": {
        "type": "Polygon",
        "coordinates": [
          [
            [
              -71.102112,
              42.314467
            ],
            [
              -71.102278,
              42.315083
            ],
            [
              -71.103684,
              42.314875
            ],
            [
              -71.103518,
              42.314259
            ],
            [
              -71.102112,
              42.314467
            ]
          ]
        ]
      },
      "properties": {
        "account": "boston-beer-company",
        "name": "Samuel Adams Boston Brewery - Jamaica Plain, Boston MA",
        "type": "Brewery / production facility (heritage Jamaica Plain site; smaller footprint, taproom-attached)",
        "archetype": "#3",
        "archetypeName": "No Gate / No GS",
        "confidence": "high",
        "zone": "perimeter",
        "truckGate": false,
        "guardShack": false,
        "remoteGs": false,
        "fastLaneOpportunity": false,
        "backupSensitive": true,
        "dropYard": false,
        "multipleFacilities": false,
        "scale": false,
        "shipRcvSeparate": false,
        "urbanRural": "Urban",
        "dockDoors": "0-10",
        "dropArea": "NONE",
        "yardMetrics": {
          "dockDoorCount": 2,
          "trailersVisible": 0,
          "trailerParkingCapacity": 0,
          "truckGateCount": 0,
          "buildingCount": 3,
          "siteAreaAcres": 2.4,
          "railServed": false
        }
      }
    },
    {
      "type": "Feature",
      "geometry": {
        "type": "Polygon",
        "coordinates": [
          [
            [
              -74.224961,
              41.590305
            ],
            [
              -74.225099,
              41.589176
            ],
            [
              -74.223176,
              41.589073
            ],
            [
              -74.223039,
              41.590203
            ],
            [
              -74.224961,
              41.590305
            ]
          ]
        ]
      },
      "properties": {
        "account": "boston-beer-company",
        "name": "Angry Orchard Innovation Cidery - Walden NY",
        "type": "Cidery / production facility (company-owned 60-acre apple orchard + Innovation Cider House; specialty/small-batch cider production)",
        "archetype": "#3",
        "archetypeName": "No Gate / No GS",
        "confidence": "high",
        "zone": "perimeter",
        "truckGate": false,
        "guardShack": false,
        "remoteGs": false,
        "fastLaneOpportunity": false,
        "backupSensitive": false,
        "dropYard": false,
        "multipleFacilities": false,
        "scale": false,
        "shipRcvSeparate": false,
        "urbanRural": "Rural",
        "dockDoors": "0-10",
        "dropArea": "NONE",
        "yardMetrics": {
          "dockDoorCount": 1,
          "trailersVisible": 0,
          "trailerParkingCapacity": 0,
          "truckGateCount": 0,
          "buildingCount": 2,
          "siteAreaAcres": 75.6,
          "railServed": false
        }
      }
    }
  ]
}
