{
  "type": "FeatureCollection",
  "features": [
    {
      "type": "Feature",
      "geometry": {
        "type": "Polygon",
        "coordinates": [
          [
            [
              -77.763349,
              39.605543
            ],
            [
              -77.762525,
              39.603004
            ],
            [
              -77.75813,
              39.603427
            ],
            [
              -77.758954,
              39.605967
            ],
            [
              -77.763349,
              39.605543
            ]
          ]
        ]
      },
      "properties": {
        "account": "gxo",
        "name": "GXO Conair Distribution Center - Hagerstown MD",
        "type": "Distribution Center",
        "archetype": "#10",
        "archetypeName": "Ship/Rcv Separate (Gate+GS)",
        "confidence": "medium",
        "zone": "perimeter",
        "truckGate": true,
        "guardShack": true,
        "remoteGs": false,
        "fastLaneOpportunity": true,
        "backupSensitive": false,
        "dropYard": true,
        "multipleFacilities": false,
        "scale": false,
        "shipRcvSeparate": true,
        "urbanRural": "Rural",
        "dockDoors": "50+",
        "dropArea": "50+",
        "yardMetrics": {
          "dockDoorCount": 378,
          "trailersVisible": 0,
          "trailerParkingCapacity": 250,
          "truckGateCount": 1,
          "buildingCount": 1,
          "siteAreaAcres": 144,
          "railServed": false
        }
      }
    },
    {
      "type": "Feature",
      "geometry": {
        "type": "Polygon",
        "coordinates": [
          [
            [
              -112.426607,
              33.413261
            ],
            [
              -112.426744,
              33.410395
            ],
            [
              -112.418779,
              33.41028
            ],
            [
              -112.418641,
              33.413146
            ],
            [
              -112.426607,
              33.413261
            ]
          ]
        ]
      },
      "properties": {
        "account": "gxo",
        "name": "GXO Abercrombie & Fitch Distribution Center - Goodyear AZ",
        "type": "Distribution Center",
        "archetype": "#10",
        "archetypeName": "Ship/Rcv Separate (Gate+GS)",
        "confidence": "high",
        "zone": "perimeter",
        "truckGate": true,
        "guardShack": true,
        "remoteGs": false,
        "fastLaneOpportunity": true,
        "backupSensitive": false,
        "dropYard": true,
        "multipleFacilities": false,
        "scale": false,
        "shipRcvSeparate": true,
        "urbanRural": "Urban",
        "dockDoors": "50+",
        "dropArea": "25-50",
        "yardMetrics": {
          "dockDoorCount": 130,
          "trailersVisible": 70,
          "trailerParkingCapacity": 110,
          "truckGateCount": 1,
          "buildingCount": 1,
          "siteAreaAcres": 71,
          "railServed": false
        }
      }
    },
    {
      "type": "Feature",
      "geometry": {
        "type": "Polygon",
        "coordinates": [
          [
            [
              -112.426469,
              33.411427
            ],
            [
              -112.426469,
              33.410624
            ],
            [
              -112.425645,
              33.410624
            ],
            [
              -112.425645,
              33.411427
            ],
            [
              -112.426469,
              33.411427
            ]
          ]
        ]
      },
      "properties": {
        "account": "gxo",
        "name": "GXO Abercrombie & Fitch Distribution Center - Goodyear AZ",
        "type": "Distribution Center",
        "archetype": "#10",
        "archetypeName": "Ship/Rcv Separate (Gate+GS)",
        "confidence": "high",
        "zone": "truckGate"
      }
    },
    {
      "type": "Feature",
      "geometry": {
        "type": "Polygon",
        "coordinates": [
          [
            [
              -112.426195,
              33.413032
            ],
            [
              -112.426195,
              33.412573
            ],
            [
              -112.419603,
              33.412459
            ],
            [
              -112.419603,
              33.412917
            ],
            [
              -112.426195,
              33.413032
            ]
          ]
        ]
      },
      "properties": {
        "account": "gxo",
        "name": "GXO Abercrombie & Fitch Distribution Center - Goodyear AZ",
        "type": "Distribution Center",
        "archetype": "#10",
        "archetypeName": "Ship/Rcv Separate (Gate+GS)",
        "confidence": "high",
        "zone": "dropYard",
        "index": 1
      }
    },
    {
      "type": "Feature",
      "geometry": {
        "type": "Polygon",
        "coordinates": [
          [
            [
              -112.426195,
              33.411198
            ],
            [
              -112.426195,
              33.410739
            ],
            [
              -112.419053,
              33.410624
            ],
            [
              -112.419053,
              33.411083
            ],
            [
              -112.426195,
              33.411198
            ]
          ]
        ]
      },
      "properties": {
        "account": "gxo",
        "name": "GXO Abercrombie & Fitch Distribution Center - Goodyear AZ",
        "type": "Distribution Center",
        "archetype": "#10",
        "archetypeName": "Ship/Rcv Separate (Gate+GS)",
        "confidence": "high",
        "zone": "dockApron",
        "index": 1
      }
    },
    {
      "type": "Feature",
      "geometry": {
        "type": "Polygon",
        "coordinates": [
          [
            [
              -81.348087,
              31.77246
            ],
            [
              -81.349254,
              31.769599
            ],
            [
              -81.346576,
              31.768432
            ],
            [
              -81.34534,
              31.771292
            ],
            [
              -81.348087,
              31.77246
            ]
          ]
        ]
      },
      "properties": {
        "account": "gxo",
        "name": "GXO Hasbro Flagship Distribution Center - Midway GA",
        "type": "Distribution Center",
        "archetype": "#9",
        "archetypeName": "Gate + No GS (remote check-in)",
        "confidence": "medium",
        "zone": "perimeter",
        "truckGate": true,
        "guardShack": false,
        "remoteGs": true,
        "fastLaneOpportunity": false,
        "backupSensitive": false,
        "dropYard": true,
        "multipleFacilities": false,
        "scale": false,
        "shipRcvSeparate": true,
        "urbanRural": "Rural",
        "dockDoors": "50+",
        "dropArea": "25-50",
        "yardMetrics": {
          "dockDoorCount": 110,
          "trailersVisible": 55,
          "trailerParkingCapacity": 70,
          "truckGateCount": 1,
          "buildingCount": 1,
          "siteAreaAcres": 38,
          "railServed": false
        }
      }
    },
    {
      "type": "Feature",
      "geometry": {
        "type": "Polygon",
        "coordinates": [
          [
            [
              -81.349391,
              31.770825
            ],
            [
              -81.349117,
              31.770534
            ],
            [
              -81.346439,
              31.772168
            ],
            [
              -81.346713,
              31.77246
            ],
            [
              -81.349391,
              31.770825
            ]
          ]
        ]
      },
      "properties": {
        "account": "gxo",
        "name": "GXO Hasbro Flagship Distribution Center - Midway GA",
        "type": "Distribution Center",
        "archetype": "#9",
        "archetypeName": "Gate + No GS (remote check-in)",
        "confidence": "medium",
        "zone": "dockApron",
        "index": 1
      }
    },
    {
      "type": "Feature",
      "geometry": {
        "type": "Polygon",
        "coordinates": [
          [
            [
              -84.536405,
              33.550993
            ],
            [
              -84.535439,
              33.553104
            ],
            [
              -84.539465,
              33.554401
            ],
            [
              -84.540431,
              33.55229
            ],
            [
              -84.536405,
              33.550993
            ]
          ]
        ]
      },
      "properties": {
        "account": "gxo",
        "name": "GXO Logistics Distribution Center - Fairburn GA",
        "type": "Distribution Center",
        "archetype": "#3",
        "archetypeName": "No Gate / No GS",
        "confidence": "high",
        "zone": "perimeter",
        "truckGate": false,
        "guardShack": false,
        "remoteGs": false,
        "fastLaneOpportunity": false,
        "backupSensitive": false,
        "dropYard": true,
        "multipleFacilities": false,
        "scale": false,
        "shipRcvSeparate": false,
        "urbanRural": "Urban",
        "dockDoors": "50+",
        "dropArea": "10-25",
        "yardMetrics": {
          "dockDoorCount": 115,
          "trailersVisible": 25,
          "trailerParkingCapacity": 60,
          "truckGateCount": 0,
          "buildingCount": 1,
          "siteAreaAcres": 52,
          "railServed": false
        }
      }
    },
    {
      "type": "Feature",
      "geometry": {
        "type": "Polygon",
        "coordinates": [
          [
            [
              -84.536655,
              33.551634
            ],
            [
              -84.536508,
              33.551955
            ],
            [
              -84.539627,
              33.55296
            ],
            [
              -84.539774,
              33.552639
            ],
            [
              -84.536655,
              33.551634
            ]
          ]
        ]
      },
      "properties": {
        "account": "gxo",
        "name": "GXO Logistics Distribution Center - Fairburn GA",
        "type": "Distribution Center",
        "archetype": "#3",
        "archetypeName": "No Gate / No GS",
        "confidence": "high",
        "zone": "dockApron",
        "index": 1
      }
    },
    {
      "type": "Feature",
      "geometry": {
        "type": "Polygon",
        "coordinates": [
          [
            [
              -86.489114,
              39.606881
            ],
            [
              -86.489114,
              39.603707
            ],
            [
              -86.481424,
              39.603707
            ],
            [
              -86.481424,
              39.606881
            ],
            [
              -86.489114,
              39.606881
            ]
          ]
        ]
      },
      "properties": {
        "account": "gxo",
        "name": "GXO Super Hub - Clayton IN",
        "type": "Distribution Center",
        "archetype": "#9",
        "archetypeName": "Gate + No GS (remote check-in)",
        "confidence": "medium",
        "zone": "perimeter",
        "truckGate": true,
        "guardShack": false,
        "remoteGs": true,
        "fastLaneOpportunity": true,
        "backupSensitive": false,
        "dropYard": true,
        "multipleFacilities": false,
        "scale": false,
        "shipRcvSeparate": true,
        "urbanRural": "Rural",
        "dockDoors": "50+",
        "dropArea": "50+",
        "yardMetrics": {
          "dockDoorCount": 220,
          "trailersVisible": 8,
          "trailerParkingCapacity": 320,
          "truckGateCount": 2,
          "buildingCount": 1,
          "siteAreaAcres": 60,
          "railServed": false
        }
      }
    },
    {
      "type": "Feature",
      "geometry": {
        "type": "Polygon",
        "coordinates": [
          [
            [
              -86.481836,
              39.60741
            ],
            [
              -86.481836,
              39.606881
            ],
            [
              -86.481012,
              39.606881
            ],
            [
              -86.481012,
              39.60741
            ],
            [
              -86.481836,
              39.60741
            ]
          ]
        ]
      },
      "properties": {
        "account": "gxo",
        "name": "GXO Super Hub - Clayton IN",
        "type": "Distribution Center",
        "archetype": "#9",
        "archetypeName": "Gate + No GS (remote check-in)",
        "confidence": "medium",
        "zone": "truckGate"
      }
    },
    {
      "type": "Feature",
      "geometry": {
        "type": "Polygon",
        "coordinates": [
          [
            [
              -86.48884,
              39.60667
            ],
            [
              -86.48884,
              39.606246
            ],
            [
              -86.481836,
              39.606246
            ],
            [
              -86.481836,
              39.60667
            ],
            [
              -86.48884,
              39.60667
            ]
          ]
        ]
      },
      "properties": {
        "account": "gxo",
        "name": "GXO Super Hub - Clayton IN",
        "type": "Distribution Center",
        "archetype": "#9",
        "archetypeName": "Gate + No GS (remote check-in)",
        "confidence": "medium",
        "zone": "dockApron",
        "index": 1
      }
    },
    {
      "type": "Feature",
      "geometry": {
        "type": "Polygon",
        "coordinates": [
          [
            [
              -86.48884,
              39.604448
            ],
            [
              -86.48884,
              39.604025
            ],
            [
              -86.481836,
              39.604025
            ],
            [
              -86.481836,
              39.604448
            ],
            [
              -86.48884,
              39.604448
            ]
          ]
        ]
      },
      "properties": {
        "account": "gxo",
        "name": "GXO Super Hub - Clayton IN",
        "type": "Distribution Center",
        "archetype": "#9",
        "archetypeName": "Gate + No GS (remote check-in)",
        "confidence": "medium",
        "zone": "dockApron",
        "index": 2
      }
    },
    {
      "type": "Feature",
      "geometry": {
        "type": "Polygon",
        "coordinates": [
          [
            [
              -86.490793,
              40.041826
            ],
            [
              -86.490793,
              40.039197
            ],
            [
              -86.487223,
              40.039197
            ],
            [
              -86.487223,
              40.041826
            ],
            [
              -86.490793,
              40.041826
            ]
          ]
        ]
      },
      "properties": {
        "account": "gxo",
        "name": "GXO Logistics Distribution Center - Lebanon IN",
        "type": "Distribution Center",
        "archetype": "#3",
        "archetypeName": "No Gate / No GS",
        "confidence": "high",
        "zone": "perimeter",
        "truckGate": false,
        "guardShack": false,
        "remoteGs": false,
        "fastLaneOpportunity": true,
        "backupSensitive": false,
        "dropYard": true,
        "multipleFacilities": false,
        "scale": false,
        "shipRcvSeparate": false,
        "urbanRural": "Rural",
        "dockDoors": "50+",
        "dropArea": "10-25",
        "yardMetrics": {
          "dockDoorCount": 55,
          "trailersVisible": 28,
          "trailerParkingCapacity": 70,
          "truckGateCount": 1,
          "buildingCount": 1,
          "siteAreaAcres": 49.2,
          "railServed": false
        }
      }
    },
    {
      "type": "Feature",
      "geometry": {
        "type": "Polygon",
        "coordinates": [
          [
            [
              -86.48942,
              40.041721
            ],
            [
              -86.48942,
              40.0413
            ],
            [
              -86.487223,
              40.0413
            ],
            [
              -86.487223,
              40.041721
            ],
            [
              -86.48942,
              40.041721
            ]
          ]
        ]
      },
      "properties": {
        "account": "gxo",
        "name": "GXO Logistics Distribution Center - Lebanon IN",
        "type": "Distribution Center",
        "archetype": "#3",
        "archetypeName": "No Gate / No GS",
        "confidence": "high",
        "zone": "dockApron",
        "index": 1
      }
    },
    {
      "type": "Feature",
      "geometry": {
        "type": "Polygon",
        "coordinates": [
          [
            [
              -86.385995,
              39.964924
            ],
            [
              -86.385171,
              39.961134
            ],
            [
              -86.379678,
              39.961766
            ],
            [
              -86.380502,
              39.965555
            ],
            [
              -86.385995,
              39.964924
            ]
          ]
        ]
      },
      "properties": {
        "account": "gxo",
        "name": "GXO Logistics Distribution Center - Whitestown IN",
        "type": "Distribution Center",
        "archetype": "#3",
        "archetypeName": "No Gate / No GS",
        "confidence": "high",
        "zone": "perimeter",
        "truckGate": false,
        "guardShack": false,
        "remoteGs": false,
        "fastLaneOpportunity": true,
        "backupSensitive": false,
        "dropYard": true,
        "multipleFacilities": false,
        "scale": false,
        "shipRcvSeparate": true,
        "urbanRural": "Urban",
        "dockDoors": "50+",
        "dropArea": "50+",
        "yardMetrics": {
          "dockDoorCount": 76,
          "trailersVisible": 45,
          "trailerParkingCapacity": 140,
          "truckGateCount": 2,
          "buildingCount": 1,
          "siteAreaAcres": 55,
          "railServed": false
        }
      }
    },
    {
      "type": "Feature",
      "geometry": {
        "type": "Polygon",
        "coordinates": [
          [
            [
              -86.384897,
              39.965239
            ],
            [
              -86.384759,
              39.963976
            ],
            [
              -86.380914,
              39.964292
            ],
            [
              -86.381051,
              39.965555
            ],
            [
              -86.384897,
              39.965239
            ]
          ]
        ]
      },
      "properties": {
        "account": "gxo",
        "name": "GXO Logistics Distribution Center - Whitestown IN",
        "type": "Distribution Center",
        "archetype": "#3",
        "archetypeName": "No Gate / No GS",
        "confidence": "high",
        "zone": "dropYard",
        "index": 1
      }
    },
    {
      "type": "Feature",
      "geometry": {
        "type": "Polygon",
        "coordinates": [
          [
            [
              -86.385309,
              39.962924
            ],
            [
              -86.385171,
              39.962397
            ],
            [
              -86.380227,
              39.962924
            ],
            [
              -86.380365,
              39.96345
            ],
            [
              -86.385309,
              39.962924
            ]
          ]
        ]
      },
      "properties": {
        "account": "gxo",
        "name": "GXO Logistics Distribution Center - Whitestown IN",
        "type": "Distribution Center",
        "archetype": "#3",
        "archetypeName": "No Gate / No GS",
        "confidence": "high",
        "zone": "dockApron",
        "index": 1
      }
    },
    {
      "type": "Feature",
      "geometry": {
        "type": "Polygon",
        "coordinates": [
          [
            [
              -75.348873,
              40.462631
            ],
            [
              -75.34956,
              40.458869
            ],
            [
              -75.346264,
              40.45866
            ],
            [
              -75.345577,
              40.462422
            ],
            [
              -75.348873,
              40.462631
            ]
          ]
        ]
      },
      "properties": {
        "account": "gxo",
        "name": "GXO IKEA Customer Distribution Center - Quakertown PA",
        "type": "Fulfillment Center",
        "archetype": "#3",
        "archetypeName": "No Gate / No GS",
        "confidence": "medium",
        "zone": "perimeter",
        "truckGate": false,
        "guardShack": false,
        "remoteGs": false,
        "fastLaneOpportunity": true,
        "backupSensitive": false,
        "dropYard": true,
        "multipleFacilities": false,
        "scale": false,
        "shipRcvSeparate": true,
        "urbanRural": "Rural",
        "dockDoors": "50+",
        "dropArea": "50+",
        "yardMetrics": {
          "dockDoorCount": 70,
          "trailersVisible": 60,
          "trailerParkingCapacity": 120,
          "truckGateCount": 1,
          "buildingCount": 1,
          "siteAreaAcres": 57,
          "railServed": false
        }
      }
    },
    {
      "type": "Feature",
      "geometry": {
        "type": "Polygon",
        "coordinates": [
          [
            [
              -75.348736,
              40.462213
            ],
            [
              -75.348873,
              40.46169
            ],
            [
              -75.345989,
              40.461481
            ],
            [
              -75.345852,
              40.462004
            ],
            [
              -75.348736,
              40.462213
            ]
          ]
        ]
      },
      "properties": {
        "account": "gxo",
        "name": "GXO IKEA Customer Distribution Center - Quakertown PA",
        "type": "Fulfillment Center",
        "archetype": "#3",
        "archetypeName": "No Gate / No GS",
        "confidence": "medium",
        "zone": "dockApron",
        "index": 1
      }
    },
    {
      "type": "Feature",
      "geometry": {
        "type": "Polygon",
        "coordinates": [
          [
            [
              -77.238381,
              40.207942
            ],
            [
              -77.23742,
              40.202278
            ],
            [
              -77.230553,
              40.202802
            ],
            [
              -77.231515,
              40.208466
            ],
            [
              -77.238381,
              40.207942
            ]
          ]
        ]
      },
      "properties": {
        "account": "gxo",
        "name": "GXO Logistics Distribution Center - Carlisle PA",
        "type": "Distribution Center",
        "archetype": "#9",
        "archetypeName": "Gate + No GS (remote check-in)",
        "confidence": "high",
        "zone": "perimeter",
        "truckGate": true,
        "guardShack": false,
        "remoteGs": true,
        "fastLaneOpportunity": true,
        "backupSensitive": false,
        "dropYard": true,
        "multipleFacilities": false,
        "scale": false,
        "shipRcvSeparate": true,
        "urbanRural": "Rural",
        "dockDoors": "50+",
        "dropArea": "50+",
        "yardMetrics": {
          "dockDoorCount": 110,
          "trailersVisible": 90,
          "trailerParkingCapacity": 180,
          "truckGateCount": 1,
          "buildingCount": 1,
          "siteAreaAcres": 78,
          "railServed": false
        }
      }
    },
    {
      "type": "Feature",
      "geometry": {
        "type": "Polygon",
        "coordinates": [
          [
            [
              -77.231103,
              40.205634
            ],
            [
              -77.230965,
              40.203536
            ],
            [
              -77.229317,
              40.203641
            ],
            [
              -77.229455,
              40.205739
            ],
            [
              -77.231103,
              40.205634
            ]
          ]
        ]
      },
      "properties": {
        "account": "gxo",
        "name": "GXO Logistics Distribution Center - Carlisle PA",
        "type": "Distribution Center",
        "archetype": "#9",
        "archetypeName": "Gate + No GS (remote check-in)",
        "confidence": "high",
        "zone": "dropYard",
        "index": 1
      }
    },
    {
      "type": "Feature",
      "geometry": {
        "type": "Polygon",
        "coordinates": [
          [
            [
              -77.237969,
              40.207837
            ],
            [
              -77.237832,
              40.207207
            ],
            [
              -77.231515,
              40.207732
            ],
            [
              -77.231652,
              40.208361
            ],
            [
              -77.237969,
              40.207837
            ]
          ]
        ]
      },
      "properties": {
        "account": "gxo",
        "name": "GXO Logistics Distribution Center - Carlisle PA",
        "type": "Distribution Center",
        "archetype": "#9",
        "archetypeName": "Gate + No GS (remote check-in)",
        "confidence": "high",
        "zone": "dockApron",
        "index": 1
      }
    },
    {
      "type": "Feature",
      "geometry": {
        "type": "Polygon",
        "coordinates": [
          [
            [
              -77.23742,
              40.2049
            ],
            [
              -77.237283,
              40.204271
            ],
            [
              -77.230965,
              40.20469
            ],
            [
              -77.231103,
              40.20532
            ],
            [
              -77.23742,
              40.2049
            ]
          ]
        ]
      },
      "properties": {
        "account": "gxo",
        "name": "GXO Logistics Distribution Center - Carlisle PA",
        "type": "Distribution Center",
        "archetype": "#9",
        "archetypeName": "Gate + No GS (remote check-in)",
        "confidence": "high",
        "zone": "dockApron",
        "index": 2
      }
    },
    {
      "type": "Feature",
      "geometry": {
        "type": "Polygon",
        "coordinates": [
          [
            [
              -75.321439,
              40.607612
            ],
            [
              -75.310968,
              40.609096
            ],
            [
              -75.312607,
              40.615856
            ],
            [
              -75.323078,
              40.614372
            ],
            [
              -75.321439,
              40.607612
            ]
          ]
        ]
      },
      "properties": {
        "account": "gxo",
        "name": "GXO Logistics Distribution Center - Bethlehem PA",
        "type": "Distribution Center",
        "archetype": "#10",
        "archetypeName": "Ship/Rcv Separate (Gate+GS)",
        "confidence": "high",
        "zone": "perimeter",
        "truckGate": true,
        "guardShack": true,
        "remoteGs": false,
        "fastLaneOpportunity": false,
        "backupSensitive": false,
        "dropYard": true,
        "multipleFacilities": false,
        "scale": false,
        "shipRcvSeparate": true,
        "urbanRural": "Urban",
        "dockDoors": "50+",
        "dropArea": "50+",
        "yardMetrics": {
          "dockDoorCount": 150,
          "trailersVisible": 110,
          "trailerParkingCapacity": 220,
          "truckGateCount": 1,
          "buildingCount": 1,
          "siteAreaAcres": 44,
          "railServed": false
        }
      }
    },
    {
      "type": "Feature",
      "geometry": {
        "type": "Polygon",
        "coordinates": [
          [
            [
              -75.316303,
              40.609765
            ],
            [
              -75.315954,
              40.609815
            ],
            [
              -75.316645,
              40.612661
            ],
            [
              -75.316994,
              40.612611
            ],
            [
              -75.316303,
              40.609765
            ]
          ]
        ]
      },
      "properties": {
        "account": "gxo",
        "name": "GXO Logistics Distribution Center - Bethlehem PA",
        "type": "Distribution Center",
        "archetype": "#10",
        "archetypeName": "Ship/Rcv Separate (Gate+GS)",
        "confidence": "high",
        "zone": "dockApron",
        "index": 1
      }
    },
    {
      "type": "Feature",
      "geometry": {
        "type": "Polygon",
        "coordinates": [
          [
            [
              -76.748872,
              40.208899
            ],
            [
              -76.748872,
              40.205752
            ],
            [
              -76.743516,
              40.205752
            ],
            [
              -76.743516,
              40.208899
            ],
            [
              -76.748872,
              40.208899
            ]
          ]
        ]
      },
      "properties": {
        "account": "gxo",
        "name": "GXO Logistics Distribution Center - Middletown PA",
        "type": "Fulfillment Center",
        "archetype": "#3",
        "archetypeName": "No Gate / No GS",
        "confidence": "high",
        "zone": "perimeter",
        "truckGate": false,
        "guardShack": false,
        "remoteGs": false,
        "fastLaneOpportunity": true,
        "backupSensitive": false,
        "dropYard": true,
        "multipleFacilities": false,
        "scale": false,
        "shipRcvSeparate": false,
        "urbanRural": "Rural",
        "dockDoors": "25-50",
        "dropArea": "10-25",
        "yardMetrics": {
          "dockDoorCount": 38,
          "trailersVisible": 22,
          "trailerParkingCapacity": 40,
          "truckGateCount": 1,
          "buildingCount": 1,
          "siteAreaAcres": 35.4,
          "railServed": false
        }
      }
    },
    {
      "type": "Feature",
      "geometry": {
        "type": "Polygon",
        "coordinates": [
          [
            [
              -76.748597,
              40.208689
            ],
            [
              -76.748597,
              40.208165
            ],
            [
              -76.743791,
              40.208165
            ],
            [
              -76.743791,
              40.208689
            ],
            [
              -76.748597,
              40.208689
            ]
          ]
        ]
      },
      "properties": {
        "account": "gxo",
        "name": "GXO Logistics Distribution Center - Middletown PA",
        "type": "Fulfillment Center",
        "archetype": "#3",
        "archetypeName": "No Gate / No GS",
        "confidence": "high",
        "zone": "dockApron",
        "index": 1
      }
    },
    {
      "type": "Feature",
      "geometry": {
        "type": "Polygon",
        "coordinates": [
          [
            [
              -76.748597,
              40.207221
            ],
            [
              -76.748597,
              40.206696
            ],
            [
              -76.743791,
              40.206696
            ],
            [
              -76.743791,
              40.207221
            ],
            [
              -76.748597,
              40.207221
            ]
          ]
        ]
      },
      "properties": {
        "account": "gxo",
        "name": "GXO Logistics Distribution Center - Middletown PA",
        "type": "Fulfillment Center",
        "archetype": "#3",
        "archetypeName": "No Gate / No GS",
        "confidence": "high",
        "zone": "dockApron",
        "index": 2
      }
    },
    {
      "type": "Feature",
      "geometry": {
        "type": "Polygon",
        "coordinates": [
          [
            [
              -76.61862,
              40.312594
            ],
            [
              -76.61862,
              40.309243
            ],
            [
              -76.610655,
              40.309243
            ],
            [
              -76.610655,
              40.312594
            ],
            [
              -76.61862,
              40.312594
            ]
          ]
        ]
      },
      "properties": {
        "account": "gxo",
        "name": "GXO Logistics Distribution Center - Palmyra PA",
        "type": "Distribution Center",
        "archetype": "#3",
        "archetypeName": "No Gate / No GS",
        "confidence": "high",
        "zone": "perimeter",
        "truckGate": false,
        "guardShack": false,
        "remoteGs": false,
        "fastLaneOpportunity": true,
        "backupSensitive": false,
        "dropYard": true,
        "multipleFacilities": false,
        "scale": false,
        "shipRcvSeparate": true,
        "urbanRural": "Rural",
        "dockDoors": "50+",
        "dropArea": "50+",
        "yardMetrics": {
          "dockDoorCount": 220,
          "trailersVisible": 240,
          "trailerParkingCapacity": 350,
          "truckGateCount": 1,
          "buildingCount": 1,
          "siteAreaAcres": 117.7,
          "railServed": true
        }
      }
    },
    {
      "type": "Feature",
      "geometry": {
        "type": "Polygon",
        "coordinates": [
          [
            [
              -76.618071,
              40.309243
            ],
            [
              -76.618071,
              40.308615
            ],
            [
              -76.616972,
              40.308615
            ],
            [
              -76.616972,
              40.309243
            ],
            [
              -76.618071,
              40.309243
            ]
          ]
        ]
      },
      "properties": {
        "account": "gxo",
        "name": "GXO Logistics Distribution Center - Palmyra PA",
        "type": "Distribution Center",
        "archetype": "#3",
        "archetypeName": "No Gate / No GS",
        "confidence": "high",
        "zone": "truckGate"
      }
    },
    {
      "type": "Feature",
      "geometry": {
        "type": "Polygon",
        "coordinates": [
          [
            [
              -76.610655,
              40.312385
            ],
            [
              -76.610655,
              40.310919
            ],
            [
              -76.609556,
              40.310919
            ],
            [
              -76.609556,
              40.312385
            ],
            [
              -76.610655,
              40.312385
            ]
          ]
        ]
      },
      "properties": {
        "account": "gxo",
        "name": "GXO Logistics Distribution Center - Palmyra PA",
        "type": "Distribution Center",
        "archetype": "#3",
        "archetypeName": "No Gate / No GS",
        "confidence": "high",
        "zone": "dropYard",
        "index": 1
      }
    },
    {
      "type": "Feature",
      "geometry": {
        "type": "Polygon",
        "coordinates": [
          [
            [
              -76.618345,
              40.31249
            ],
            [
              -76.618345,
              40.311966
            ],
            [
              -76.610929,
              40.311966
            ],
            [
              -76.610929,
              40.31249
            ],
            [
              -76.618345,
              40.31249
            ]
          ]
        ]
      },
      "properties": {
        "account": "gxo",
        "name": "GXO Logistics Distribution Center - Palmyra PA",
        "type": "Distribution Center",
        "archetype": "#3",
        "archetypeName": "No Gate / No GS",
        "confidence": "high",
        "zone": "dockApron",
        "index": 1
      }
    },
    {
      "type": "Feature",
      "geometry": {
        "type": "Polygon",
        "coordinates": [
          [
            [
              -76.618071,
              40.309976
            ],
            [
              -76.618071,
              40.309453
            ],
            [
              -76.611479,
              40.309453
            ],
            [
              -76.611479,
              40.309976
            ],
            [
              -76.618071,
              40.309976
            ]
          ]
        ]
      },
      "properties": {
        "account": "gxo",
        "name": "GXO Logistics Distribution Center - Palmyra PA",
        "type": "Distribution Center",
        "archetype": "#3",
        "archetypeName": "No Gate / No GS",
        "confidence": "high",
        "zone": "dockApron",
        "index": 2
      }
    },
    {
      "type": "Feature",
      "geometry": {
        "type": "Polygon",
        "coordinates": [
          [
            [
              -74.854911,
              40.016629
            ],
            [
              -74.85546,
              40.011265
            ],
            [
              -74.852027,
              40.011055
            ],
            [
              -74.851477,
              40.016419
            ],
            [
              -74.854911,
              40.016629
            ]
          ]
        ]
      },
      "properties": {
        "account": "gxo",
        "name": "GXO IKEA Distribution Center - Westampton NJ",
        "type": "Distribution Center",
        "archetype": "#3",
        "archetypeName": "No Gate / No GS",
        "confidence": "high",
        "zone": "perimeter",
        "truckGate": false,
        "guardShack": false,
        "remoteGs": false,
        "fastLaneOpportunity": true,
        "backupSensitive": false,
        "dropYard": true,
        "multipleFacilities": false,
        "scale": false,
        "shipRcvSeparate": true,
        "urbanRural": "Urban",
        "dockDoors": "50+",
        "dropArea": "50+",
        "yardMetrics": {
          "dockDoorCount": 130,
          "trailersVisible": 280,
          "trailerParkingCapacity": 320,
          "truckGateCount": 1,
          "buildingCount": 1,
          "siteAreaAcres": 67.5,
          "railServed": false
        }
      }
    },
    {
      "type": "Feature",
      "geometry": {
        "type": "Polygon",
        "coordinates": [
          [
            [
              -74.854636,
              40.012738
            ],
            [
              -74.854773,
              40.012212
            ],
            [
              -74.851752,
              40.012002
            ],
            [
              -74.851615,
              40.012527
            ],
            [
              -74.854636,
              40.012738
            ]
          ]
        ]
      },
      "properties": {
        "account": "gxo",
        "name": "GXO IKEA Distribution Center - Westampton NJ",
        "type": "Distribution Center",
        "archetype": "#3",
        "archetypeName": "No Gate / No GS",
        "confidence": "high",
        "zone": "dockApron",
        "index": 1
      }
    },
    {
      "type": "Feature",
      "geometry": {
        "type": "Polygon",
        "coordinates": [
          [
            [
              -83.334723,
              39.946342
            ],
            [
              -83.334723,
              39.942026
            ],
            [
              -83.331152,
              39.942026
            ],
            [
              -83.331152,
              39.946342
            ],
            [
              -83.334723,
              39.946342
            ]
          ]
        ]
      },
      "properties": {
        "account": "gxo",
        "name": "GXO Logistics Distribution Center - West Jefferson OH",
        "type": "Distribution Center",
        "archetype": "#3",
        "archetypeName": "No Gate / No GS",
        "confidence": "high",
        "zone": "perimeter",
        "truckGate": false,
        "guardShack": false,
        "remoteGs": false,
        "fastLaneOpportunity": true,
        "backupSensitive": false,
        "dropYard": true,
        "multipleFacilities": false,
        "scale": false,
        "shipRcvSeparate": true,
        "urbanRural": "Rural",
        "dockDoors": "50+",
        "dropArea": "10-25",
        "yardMetrics": {
          "dockDoorCount": 78,
          "trailersVisible": 36,
          "trailerParkingCapacity": 85,
          "truckGateCount": 1,
          "buildingCount": 1,
          "siteAreaAcres": 55.2,
          "railServed": false
        }
      }
    },
    {
      "type": "Feature",
      "geometry": {
        "type": "Polygon",
        "coordinates": [
          [
            [
              -83.334585,
              39.946132
            ],
            [
              -83.334585,
              39.945605
            ],
            [
              -83.331427,
              39.945605
            ],
            [
              -83.331427,
              39.946132
            ],
            [
              -83.334585,
              39.946132
            ]
          ]
        ]
      },
      "properties": {
        "account": "gxo",
        "name": "GXO Logistics Distribution Center - West Jefferson OH",
        "type": "Distribution Center",
        "archetype": "#3",
        "archetypeName": "No Gate / No GS",
        "confidence": "high",
        "zone": "dockApron",
        "index": 1
      }
    },
    {
      "type": "Feature",
      "geometry": {
        "type": "Polygon",
        "coordinates": [
          [
            [
              -84.195849,
              33.412082
            ],
            [
              -84.195299,
              33.409446
            ],
            [
              -84.19063,
              33.409904
            ],
            [
              -84.191179,
              33.412541
            ],
            [
              -84.195849,
              33.412082
            ]
          ]
        ]
      },
      "properties": {
        "account": "gxo",
        "name": "GXO Logistics Distribution Center - McDonough GA",
        "type": "Distribution Center",
        "archetype": "#3",
        "archetypeName": "No Gate / No GS",
        "confidence": "high",
        "zone": "perimeter",
        "truckGate": false,
        "guardShack": false,
        "remoteGs": false,
        "fastLaneOpportunity": true,
        "backupSensitive": false,
        "dropYard": true,
        "multipleFacilities": false,
        "scale": false,
        "shipRcvSeparate": true,
        "urbanRural": "Urban",
        "dockDoors": "50+",
        "dropArea": "50+",
        "yardMetrics": {
          "dockDoorCount": 120,
          "trailersVisible": 130,
          "trailerParkingCapacity": 200,
          "truckGateCount": 1,
          "buildingCount": 1,
          "siteAreaAcres": 50.6,
          "railServed": false
        }
      }
    },
    {
      "type": "Feature",
      "geometry": {
        "type": "Polygon",
        "coordinates": [
          [
            [
              -84.195711,
              33.410936
            ],
            [
              -84.195574,
              33.410363
            ],
            [
              -84.190905,
              33.410821
            ],
            [
              -84.191042,
              33.411395
            ],
            [
              -84.195711,
              33.410936
            ]
          ]
        ]
      },
      "properties": {
        "account": "gxo",
        "name": "GXO Logistics Distribution Center - McDonough GA",
        "type": "Distribution Center",
        "archetype": "#3",
        "archetypeName": "No Gate / No GS",
        "confidence": "high",
        "zone": "dockApron",
        "index": 1
      }
    },
    {
      "type": "Feature",
      "geometry": {
        "type": "Polygon",
        "coordinates": [
          [
            [
              -84.317959,
              33.620614
            ],
            [
              -84.315487,
              33.616154
            ],
            [
              -84.312603,
              33.617184
            ],
            [
              -84.315075,
              33.621644
            ],
            [
              -84.317959,
              33.620614
            ]
          ]
        ]
      },
      "properties": {
        "account": "gxo",
        "name": "GXO Logistics Distribution Center - Forest Park GA",
        "type": "Distribution Center",
        "archetype": "#3",
        "archetypeName": "No Gate / No GS",
        "confidence": "medium",
        "zone": "perimeter",
        "truckGate": false,
        "guardShack": false,
        "remoteGs": false,
        "fastLaneOpportunity": false,
        "backupSensitive": false,
        "dropYard": true,
        "multipleFacilities": false,
        "scale": false,
        "shipRcvSeparate": true,
        "urbanRural": "Urban",
        "dockDoors": "50+",
        "dropArea": "25-50",
        "yardMetrics": {
          "dockDoorCount": 208,
          "trailersVisible": 0,
          "trailerParkingCapacity": 280,
          "truckGateCount": 1,
          "buildingCount": 1,
          "siteAreaAcres": 48,
          "railServed": false
        }
      }
    },
    {
      "type": "Feature",
      "geometry": {
        "type": "Polygon",
        "coordinates": [
          [
            [
              -84.317959,
              33.6205
            ],
            [
              -84.317547,
              33.619814
            ],
            [
              -84.314937,
              33.620843
            ],
            [
              -84.315349,
              33.621529
            ],
            [
              -84.317959,
              33.6205
            ]
          ]
        ]
      },
      "properties": {
        "account": "gxo",
        "name": "GXO Logistics Distribution Center - Forest Park GA",
        "type": "Distribution Center",
        "archetype": "#3",
        "archetypeName": "No Gate / No GS",
        "confidence": "medium",
        "zone": "dockApron",
        "index": 1
      }
    },
    {
      "type": "Feature",
      "geometry": {
        "type": "Polygon",
        "coordinates": [
          [
            [
              -121.413997,
              37.763557
            ],
            [
              -121.413791,
              37.761494
            ],
            [
              -121.410427,
              37.761766
            ],
            [
              -121.410633,
              37.763828
            ],
            [
              -121.413997,
              37.763557
            ]
          ]
        ]
      },
      "properties": {
        "account": "gxo",
        "name": "GXO Logistics Distribution Center - Tracy CA",
        "type": "Distribution Center",
        "archetype": "#3",
        "archetypeName": "No Gate / No GS",
        "confidence": "medium",
        "zone": "perimeter",
        "truckGate": false,
        "guardShack": false,
        "remoteGs": false,
        "fastLaneOpportunity": false,
        "backupSensitive": false,
        "dropYard": false,
        "multipleFacilities": false,
        "scale": false,
        "shipRcvSeparate": false,
        "urbanRural": "Urban",
        "dockDoors": "50+",
        "dropArea": "0-10",
        "yardMetrics": {
          "dockDoorCount": 57,
          "trailersVisible": 4,
          "trailerParkingCapacity": 92,
          "truckGateCount": 2,
          "buildingCount": 1,
          "siteAreaAcres": 19.5,
          "railServed": false
        }
      }
    },
    {
      "type": "Feature",
      "geometry": {
        "type": "Polygon",
        "coordinates": [
          [
            [
              -121.413929,
              37.762037
            ],
            [
              -121.41386,
              37.761657
            ],
            [
              -121.410701,
              37.761929
            ],
            [
              -121.41077,
              37.762309
            ],
            [
              -121.413929,
              37.762037
            ]
          ]
        ]
      },
      "properties": {
        "account": "gxo",
        "name": "GXO Logistics Distribution Center - Tracy CA",
        "type": "Distribution Center",
        "archetype": "#3",
        "archetypeName": "No Gate / No GS",
        "confidence": "medium",
        "zone": "dockApron",
        "index": 1
      }
    },
    {
      "type": "Feature",
      "geometry": {
        "type": "Polygon",
        "coordinates": [
          [
            [
              -117.515046,
              34.062228
            ],
            [
              -117.515046,
              34.058587
            ],
            [
              -117.513123,
              34.058587
            ],
            [
              -117.513123,
              34.062228
            ],
            [
              -117.515046,
              34.062228
            ]
          ]
        ]
      },
      "properties": {
        "account": "gxo",
        "name": "GXO Logistics Distribution Center - Fontana CA",
        "type": "Distribution Center",
        "archetype": "#3",
        "archetypeName": "No Gate / No GS",
        "confidence": "medium",
        "zone": "perimeter",
        "truckGate": false,
        "guardShack": false,
        "remoteGs": false,
        "fastLaneOpportunity": false,
        "backupSensitive": false,
        "dropYard": false,
        "multipleFacilities": false,
        "scale": false,
        "shipRcvSeparate": false,
        "urbanRural": "Urban",
        "dockDoors": "25-50",
        "dropArea": "10-25",
        "yardMetrics": {
          "dockDoorCount": 38,
          "trailersVisible": 24,
          "trailerParkingCapacity": 35,
          "truckGateCount": 1,
          "buildingCount": 1,
          "siteAreaAcres": 16,
          "railServed": false
        }
      }
    },
    {
      "type": "Feature",
      "geometry": {
        "type": "Polygon",
        "coordinates": [
          [
            [
              -117.515046,
              34.062
            ],
            [
              -117.515046,
              34.061545
            ],
            [
              -117.513261,
              34.061545
            ],
            [
              -117.513261,
              34.062
            ],
            [
              -117.515046,
              34.062
            ]
          ]
        ]
      },
      "properties": {
        "account": "gxo",
        "name": "GXO Logistics Distribution Center - Fontana CA",
        "type": "Distribution Center",
        "archetype": "#3",
        "archetypeName": "No Gate / No GS",
        "confidence": "medium",
        "zone": "dockApron",
        "index": 1
      }
    },
    {
      "type": "Feature",
      "geometry": {
        "type": "Polygon",
        "coordinates": [
          [
            [
              -80.842546,
              35.772637
            ],
            [
              -80.842683,
              35.770074
            ],
            [
              -80.839525,
              35.769963
            ],
            [
              -80.839387,
              35.772525
            ],
            [
              -80.842546,
              35.772637
            ]
          ]
        ]
      },
      "properties": {
        "account": "gxo",
        "name": "GXO Logistics Distribution Center - Statesville NC",
        "type": "Distribution Center",
        "archetype": "#9",
        "archetypeName": "Gate + No GS (remote check-in)",
        "confidence": "medium",
        "zone": "perimeter",
        "truckGate": true,
        "guardShack": false,
        "remoteGs": true,
        "fastLaneOpportunity": false,
        "backupSensitive": false,
        "dropYard": true,
        "multipleFacilities": false,
        "scale": false,
        "shipRcvSeparate": true,
        "urbanRural": "Rural",
        "dockDoors": "50+",
        "dropArea": "10-25",
        "yardMetrics": {
          "dockDoorCount": 60,
          "trailersVisible": 12,
          "trailerParkingCapacity": 70,
          "truckGateCount": 1,
          "buildingCount": 1,
          "siteAreaAcres": 28,
          "railServed": false
        }
      }
    },
    {
      "type": "Feature",
      "geometry": {
        "type": "Polygon",
        "coordinates": [
          [
            [
              -80.842477,
              35.770464
            ],
            [
              -80.842477,
              35.770241
            ],
            [
              -80.839387,
              35.77013
            ],
            [
              -80.839387,
              35.770353
            ],
            [
              -80.842477,
              35.770464
            ]
          ]
        ]
      },
      "properties": {
        "account": "gxo",
        "name": "GXO Logistics Distribution Center - Statesville NC",
        "type": "Distribution Center",
        "archetype": "#9",
        "archetypeName": "Gate + No GS (remote check-in)",
        "confidence": "medium",
        "zone": "dockApron",
        "index": 1
      }
    },
    {
      "type": "Feature",
      "geometry": {
        "type": "Polygon",
        "coordinates": [
          [
            [
              -81.814609,
              35.061624
            ],
            [
              -81.813236,
              35.056228
            ],
            [
              -81.809116,
              35.056678
            ],
            [
              -81.810489,
              35.062074
            ],
            [
              -81.814609,
              35.061624
            ]
          ]
        ]
      },
      "properties": {
        "account": "gxo",
        "name": "GXO Logistics Distribution Center - Cowpens SC",
        "type": "Distribution Center",
        "archetype": "#3",
        "archetypeName": "No Gate / No GS",
        "confidence": "medium",
        "zone": "perimeter",
        "truckGate": false,
        "guardShack": false,
        "remoteGs": false,
        "fastLaneOpportunity": false,
        "backupSensitive": false,
        "dropYard": true,
        "multipleFacilities": false,
        "scale": false,
        "shipRcvSeparate": true,
        "urbanRural": "Rural",
        "dockDoors": "50+",
        "dropArea": "50+",
        "yardMetrics": {
          "dockDoorCount": 120,
          "trailersVisible": 70,
          "trailerParkingCapacity": 160,
          "truckGateCount": 1,
          "buildingCount": 1,
          "siteAreaAcres": 75,
          "railServed": false
        }
      }
    },
    {
      "type": "Feature",
      "geometry": {
        "type": "Polygon",
        "coordinates": [
          [
            [
              -81.814335,
              35.061399
            ],
            [
              -81.81406,
              35.060388
            ],
            [
              -81.810352,
              35.060837
            ],
            [
              -81.810627,
              35.061849
            ],
            [
              -81.814335,
              35.061399
            ]
          ]
        ]
      },
      "properties": {
        "account": "gxo",
        "name": "GXO Logistics Distribution Center - Cowpens SC",
        "type": "Distribution Center",
        "archetype": "#3",
        "archetypeName": "No Gate / No GS",
        "confidence": "medium",
        "zone": "dockApron",
        "index": 1
      }
    },
    {
      "type": "Feature",
      "geometry": {
        "type": "Polygon",
        "coordinates": [
          [
            [
              -97.308111,
              32.8203
            ],
            [
              -97.308661,
              32.816261
            ],
            [
              -97.30715,
              32.816203
            ],
            [
              -97.306601,
              32.820243
            ],
            [
              -97.308111,
              32.8203
            ]
          ]
        ]
      },
      "properties": {
        "account": "gxo",
        "name": "GXO Logistics Distribution Center - Fort Worth TX (Sylvania)",
        "type": "Distribution Center",
        "archetype": "#3",
        "archetypeName": "No Gate / No GS",
        "confidence": "high",
        "zone": "perimeter",
        "truckGate": false,
        "guardShack": false,
        "remoteGs": false,
        "fastLaneOpportunity": false,
        "backupSensitive": false,
        "dropYard": false,
        "multipleFacilities": false,
        "scale": false,
        "shipRcvSeparate": false,
        "urbanRural": "Urban",
        "dockDoors": "10-25",
        "dropArea": "NONE",
        "yardMetrics": {
          "dockDoorCount": 24,
          "trailersVisible": 0,
          "trailerParkingCapacity": 12,
          "truckGateCount": 1,
          "buildingCount": 1,
          "siteAreaAcres": 15.2,
          "railServed": false
        }
      }
    },
    {
      "type": "Feature",
      "geometry": {
        "type": "Polygon",
        "coordinates": [
          [
            [
              -97.308043,
              32.820069
            ],
            [
              -97.308111,
              32.819781
            ],
            [
              -97.306738,
              32.819723
            ],
            [
              -97.306669,
              32.820012
            ],
            [
              -97.308043,
              32.820069
            ]
          ]
        ]
      },
      "properties": {
        "account": "gxo",
        "name": "GXO Logistics Distribution Center - Fort Worth TX (Sylvania)",
        "type": "Distribution Center",
        "archetype": "#3",
        "archetypeName": "No Gate / No GS",
        "confidence": "high",
        "zone": "dockApron",
        "index": 1
      }
    },
    {
      "type": "Feature",
      "geometry": {
        "type": "Polygon",
        "coordinates": [
          [
            [
              -97.308997,
              32.630057
            ],
            [
              -97.308997,
              32.627686
            ],
            [
              -97.305152,
              32.627628
            ],
            [
              -97.305152,
              32.629999
            ],
            [
              -97.308997,
              32.630057
            ]
          ]
        ]
      },
      "properties": {
        "account": "gxo",
        "name": "GXO Logistics Distribution Center - Fort Worth TX (Everman)",
        "type": "Distribution Center",
        "archetype": "#3",
        "archetypeName": "No Gate / No GS",
        "confidence": "high",
        "zone": "perimeter",
        "truckGate": false,
        "guardShack": false,
        "remoteGs": false,
        "fastLaneOpportunity": true,
        "backupSensitive": false,
        "dropYard": true,
        "multipleFacilities": false,
        "scale": false,
        "shipRcvSeparate": true,
        "urbanRural": "Urban",
        "dockDoors": "50+",
        "dropArea": "25-50",
        "yardMetrics": {
          "dockDoorCount": 110,
          "trailersVisible": 22,
          "trailerParkingCapacity": 60,
          "truckGateCount": 2,
          "buildingCount": 1,
          "siteAreaAcres": 31.2,
          "railServed": false
        }
      }
    },
    {
      "type": "Feature",
      "geometry": {
        "type": "Polygon",
        "coordinates": [
          [
            [
              -97.30886,
              32.629941
            ],
            [
              -97.30886,
              32.62971
            ],
            [
              -97.305289,
              32.629652
            ],
            [
              -97.305289,
              32.629883
            ],
            [
              -97.30886,
              32.629941
            ]
          ]
        ]
      },
      "properties": {
        "account": "gxo",
        "name": "GXO Logistics Distribution Center - Fort Worth TX (Everman)",
        "type": "Distribution Center",
        "archetype": "#3",
        "archetypeName": "No Gate / No GS",
        "confidence": "high",
        "zone": "dockApron",
        "index": 1
      }
    },
    {
      "type": "Feature",
      "geometry": {
        "type": "Polygon",
        "coordinates": [
          [
            [
              -97.30886,
              32.627975
            ],
            [
              -97.30886,
              32.627743
            ],
            [
              -97.305289,
              32.627686
            ],
            [
              -97.305289,
              32.627917
            ],
            [
              -97.30886,
              32.627975
            ]
          ]
        ]
      },
      "properties": {
        "account": "gxo",
        "name": "GXO Logistics Distribution Center - Fort Worth TX (Everman)",
        "type": "Distribution Center",
        "archetype": "#3",
        "archetypeName": "No Gate / No GS",
        "confidence": "high",
        "zone": "dockApron",
        "index": 2
      }
    },
    {
      "type": "Feature",
      "geometry": {
        "type": "Polygon",
        "coordinates": [
          [
            [
              -95.254079,
              29.829357
            ],
            [
              -95.254217,
              29.828404
            ],
            [
              -95.250715,
              29.828047
            ],
            [
              -95.250577,
              29.829
            ],
            [
              -95.254079,
              29.829357
            ]
          ]
        ]
      },
      "properties": {
        "account": "gxo",
        "name": "GXO Logistics Distribution Center - Houston TX (Railwood)",
        "type": "Distribution Center",
        "archetype": "#10",
        "archetypeName": "Ship/Rcv Separate (Gate+GS)",
        "confidence": "medium",
        "zone": "perimeter",
        "truckGate": true,
        "guardShack": true,
        "remoteGs": false,
        "fastLaneOpportunity": true,
        "backupSensitive": false,
        "dropYard": true,
        "multipleFacilities": false,
        "scale": false,
        "shipRcvSeparate": true,
        "urbanRural": "Urban",
        "dockDoors": "50+",
        "dropArea": "50+",
        "yardMetrics": {
          "dockDoorCount": 130,
          "trailersVisible": 60,
          "trailerParkingCapacity": 120,
          "truckGateCount": 1,
          "buildingCount": 1,
          "siteAreaAcres": 42.1,
          "railServed": false
        }
      }
    },
    {
      "type": "Feature",
      "geometry": {
        "type": "Polygon",
        "coordinates": [
          [
            [
              -95.253873,
              29.827868
            ],
            [
              -95.253942,
              29.826796
            ],
            [
              -95.250371,
              29.826498
            ],
            [
              -95.250303,
              29.82757
            ],
            [
              -95.253873,
              29.827868
            ]
          ]
        ]
      },
      "properties": {
        "account": "gxo",
        "name": "GXO Logistics Distribution Center - Houston TX (Railwood)",
        "type": "Distribution Center",
        "archetype": "#10",
        "archetypeName": "Ship/Rcv Separate (Gate+GS)",
        "confidence": "medium",
        "zone": "dropYard",
        "index": 1
      }
    },
    {
      "type": "Feature",
      "geometry": {
        "type": "Polygon",
        "coordinates": [
          [
            [
              -95.254148,
              29.828702
            ],
            [
              -95.254217,
              29.828464
            ],
            [
              -95.250715,
              29.828106
            ],
            [
              -95.250646,
              29.828345
            ],
            [
              -95.254148,
              29.828702
            ]
          ]
        ]
      },
      "properties": {
        "account": "gxo",
        "name": "GXO Logistics Distribution Center - Houston TX (Railwood)",
        "type": "Distribution Center",
        "archetype": "#10",
        "archetypeName": "Ship/Rcv Separate (Gate+GS)",
        "confidence": "medium",
        "zone": "dockApron",
        "index": 1
      }
    },
    {
      "type": "Feature",
      "geometry": {
        "type": "Polygon",
        "coordinates": [
          [
            [
              -95.491736,
              29.946723
            ],
            [
              -95.490363,
              29.943272
            ],
            [
              -95.488303,
              29.94351
            ],
            [
              -95.489676,
              29.946961
            ],
            [
              -95.491736,
              29.946723
            ]
          ]
        ]
      },
      "properties": {
        "account": "gxo",
        "name": "GXO Logistics Distribution Center - Houston TX (West Greens)",
        "type": "Distribution Center",
        "archetype": "#3",
        "archetypeName": "No Gate / No GS",
        "confidence": "medium",
        "zone": "perimeter",
        "truckGate": false,
        "guardShack": false,
        "remoteGs": false,
        "fastLaneOpportunity": true,
        "backupSensitive": false,
        "dropYard": false,
        "multipleFacilities": false,
        "scale": false,
        "shipRcvSeparate": true,
        "urbanRural": "Urban",
        "dockDoors": "50+",
        "dropArea": "0-10",
        "yardMetrics": {
          "dockDoorCount": 90,
          "trailersVisible": 8,
          "trailerParkingCapacity": 25,
          "truckGateCount": 2,
          "buildingCount": 1,
          "siteAreaAcres": 50.3,
          "railServed": false
        }
      }
    },
    {
      "type": "Feature",
      "geometry": {
        "type": "Polygon",
        "coordinates": [
          [
            [
              -95.491599,
              29.946604
            ],
            [
              -95.491324,
              29.94589
            ],
            [
              -95.489539,
              29.946128
            ],
            [
              -95.489813,
              29.946842
            ],
            [
              -95.491599,
              29.946604
            ]
          ]
        ]
      },
      "properties": {
        "account": "gxo",
        "name": "GXO Logistics Distribution Center - Houston TX (West Greens)",
        "type": "Distribution Center",
        "archetype": "#3",
        "archetypeName": "No Gate / No GS",
        "confidence": "medium",
        "zone": "dockApron",
        "index": 1
      }
    },
    {
      "type": "Feature",
      "geometry": {
        "type": "Polygon",
        "coordinates": [
          [
            [
              -97.031143,
              32.930257
            ],
            [
              -97.030573,
              32.930798
            ],
            [
              -97.032651,
              32.932363
            ],
            [
              -97.033221,
              32.931822
            ],
            [
              -97.031143,
              32.930257
            ]
          ]
        ]
      },
      "properties": {
        "account": "gxo",
        "name": "GXO Logistics Distribution Center - Grapevine TX",
        "type": "Distribution Center",
        "archetype": "#3",
        "archetypeName": "No Gate / No GS",
        "confidence": "medium",
        "zone": "perimeter",
        "truckGate": false,
        "guardShack": false,
        "remoteGs": false,
        "fastLaneOpportunity": true,
        "backupSensitive": false,
        "dropYard": false,
        "multipleFacilities": false,
        "scale": false,
        "shipRcvSeparate": true,
        "urbanRural": "Urban",
        "dockDoors": "50+",
        "dropArea": "10-25",
        "yardMetrics": {
          "dockDoorCount": 70,
          "trailersVisible": 12,
          "trailerParkingCapacity": 30,
          "truckGateCount": 2,
          "buildingCount": 1,
          "siteAreaAcres": 19.9,
          "railServed": false
        }
      }
    },
    {
      "type": "Feature",
      "geometry": {
        "type": "Polygon",
        "coordinates": [
          [
            [
              -97.031318,
              32.931068
            ],
            [
              -97.031176,
              32.931203
            ],
            [
              -97.033094,
              32.932648
            ],
            [
              -97.033236,
              32.932513
            ],
            [
              -97.031318,
              32.931068
            ]
          ]
        ]
      },
      "properties": {
        "account": "gxo",
        "name": "GXO Logistics Distribution Center - Grapevine TX",
        "type": "Distribution Center",
        "archetype": "#3",
        "archetypeName": "No Gate / No GS",
        "confidence": "medium",
        "zone": "dockApron",
        "index": 1
      }
    },
    {
      "type": "Feature",
      "geometry": {
        "type": "Polygon",
        "coordinates": [
          [
            [
              -97.078277,
              32.67931
            ],
            [
              -97.078415,
              32.67827
            ],
            [
              -97.076355,
              32.678154
            ],
            [
              -97.076217,
              32.679195
            ],
            [
              -97.078277,
              32.67931
            ]
          ]
        ]
      },
      "properties": {
        "account": "gxo",
        "name": "GXO Logistics Distribution Center - Arlington TX",
        "type": "Distribution Center",
        "archetype": "#9",
        "archetypeName": "Gate + No GS (remote check-in)",
        "confidence": "high",
        "zone": "perimeter",
        "truckGate": true,
        "guardShack": false,
        "remoteGs": true,
        "fastLaneOpportunity": false,
        "backupSensitive": false,
        "dropYard": true,
        "multipleFacilities": false,
        "scale": false,
        "shipRcvSeparate": false,
        "urbanRural": "Urban",
        "dockDoors": "25-50",
        "dropArea": "25-50",
        "yardMetrics": {
          "dockDoorCount": 40,
          "trailersVisible": 22,
          "trailerParkingCapacity": 35,
          "truckGateCount": 1,
          "buildingCount": 1,
          "siteAreaAcres": 10.5,
          "railServed": false
        }
      }
    },
    {
      "type": "Feature",
      "geometry": {
        "type": "Polygon",
        "coordinates": [
          [
            [
              -97.078209,
              32.679195
            ],
            [
              -97.078277,
              32.678964
            ],
            [
              -97.076355,
              32.678848
            ],
            [
              -97.076286,
              32.679079
            ],
            [
              -97.078209,
              32.679195
            ]
          ]
        ]
      },
      "properties": {
        "account": "gxo",
        "name": "GXO Logistics Distribution Center - Arlington TX",
        "type": "Distribution Center",
        "archetype": "#9",
        "archetypeName": "Gate + No GS (remote check-in)",
        "confidence": "high",
        "zone": "dockApron",
        "index": 1
      }
    },
    {
      "type": "Feature",
      "geometry": {
        "type": "Polygon",
        "coordinates": [
          [
            [
              -111.9941,
              40.725501
            ],
            [
              -111.994649,
              40.72269
            ],
            [
              -111.992315,
              40.722586
            ],
            [
              -111.991765,
              40.725396
            ],
            [
              -111.9941,
              40.725501
            ]
          ]
        ]
      },
      "properties": {
        "account": "gxo",
        "name": "GXO Logistics Distribution Center - West Valley City UT",
        "type": "Distribution Center",
        "archetype": "#3",
        "archetypeName": "No Gate / No GS",
        "confidence": "high",
        "zone": "perimeter",
        "truckGate": false,
        "guardShack": false,
        "remoteGs": false,
        "fastLaneOpportunity": false,
        "backupSensitive": false,
        "dropYard": true,
        "multipleFacilities": false,
        "scale": false,
        "shipRcvSeparate": true,
        "urbanRural": "Urban",
        "dockDoors": "50+",
        "dropArea": "25-50",
        "yardMetrics": {
          "dockDoorCount": 110,
          "trailersVisible": 55,
          "trailerParkingCapacity": 90,
          "truckGateCount": 0,
          "buildingCount": 1,
          "siteAreaAcres": 27.5,
          "railServed": false
        }
      }
    },
    {
      "type": "Feature",
      "geometry": {
        "type": "Polygon",
        "coordinates": [
          [
            [
              -111.993963,
              40.725292
            ],
            [
              -111.9941,
              40.724772
            ],
            [
              -111.99204,
              40.724668
            ],
            [
              -111.991903,
              40.725188
            ],
            [
              -111.993963,
              40.725292
            ]
          ]
        ]
      },
      "properties": {
        "account": "gxo",
        "name": "GXO Logistics Distribution Center - West Valley City UT",
        "type": "Distribution Center",
        "archetype": "#3",
        "archetypeName": "No Gate / No GS",
        "confidence": "high",
        "zone": "dockApron",
        "index": 1
      }
    },
    {
      "type": "Feature",
      "geometry": {
        "type": "Polygon",
        "coordinates": [
          [
            [
              -122.946821,
              45.556065
            ],
            [
              -122.946821,
              45.553661
            ],
            [
              -122.945036,
              45.553661
            ],
            [
              -122.945036,
              45.556065
            ],
            [
              -122.946821,
              45.556065
            ]
          ]
        ]
      },
      "properties": {
        "account": "gxo",
        "name": "GXO Logistics Distribution Center - Hillsboro OR",
        "type": "Distribution Center",
        "archetype": "#3",
        "archetypeName": "No Gate / No GS",
        "confidence": "medium",
        "zone": "perimeter",
        "truckGate": false,
        "guardShack": false,
        "remoteGs": false,
        "fastLaneOpportunity": false,
        "backupSensitive": false,
        "dropYard": true,
        "multipleFacilities": false,
        "scale": false,
        "shipRcvSeparate": false,
        "urbanRural": "Urban",
        "dockDoors": "25-50",
        "dropArea": "10-25",
        "yardMetrics": {
          "dockDoorCount": 30,
          "trailersVisible": 12,
          "trailerParkingCapacity": 30,
          "truckGateCount": 1,
          "buildingCount": 1,
          "siteAreaAcres": 15,
          "railServed": false
        }
      }
    },
    {
      "type": "Feature",
      "geometry": {
        "type": "Polygon",
        "coordinates": [
          [
            [
              -122.945173,
              45.555969
            ],
            [
              -122.945173,
              45.553854
            ],
            [
              -122.945036,
              45.553854
            ],
            [
              -122.945036,
              45.555969
            ],
            [
              -122.945173,
              45.555969
            ]
          ]
        ]
      },
      "properties": {
        "account": "gxo",
        "name": "GXO Logistics Distribution Center - Hillsboro OR",
        "type": "Distribution Center",
        "archetype": "#3",
        "archetypeName": "No Gate / No GS",
        "confidence": "medium",
        "zone": "dockApron",
        "index": 1
      }
    },
    {
      "type": "Feature",
      "geometry": {
        "type": "Polygon",
        "coordinates": [
          [
            [
              -122.88752,
              45.495053
            ],
            [
              -122.88752,
              45.492165
            ],
            [
              -122.8834,
              45.492165
            ],
            [
              -122.8834,
              45.495053
            ],
            [
              -122.88752,
              45.495053
            ]
          ]
        ]
      },
      "properties": {
        "account": "gxo",
        "name": "GXO Logistics Distribution Center - Aloha OR",
        "type": "Distribution Center",
        "archetype": "#6",
        "archetypeName": "Gate + GS (not BU sens.) + campus",
        "confidence": "low",
        "zone": "perimeter",
        "truckGate": true,
        "guardShack": true,
        "remoteGs": false,
        "fastLaneOpportunity": false,
        "backupSensitive": false,
        "dropYard": false,
        "multipleFacilities": true,
        "scale": false,
        "shipRcvSeparate": false,
        "urbanRural": "Urban",
        "dockDoors": "NONE",
        "dropArea": "NONE",
        "yardMetrics": {
          "dockDoorCount": 0,
          "trailersVisible": 0,
          "trailerParkingCapacity": 0,
          "truckGateCount": 1,
          "buildingCount": 5,
          "siteAreaAcres": 88,
          "railServed": false
        }
      }
    },
    {
      "type": "Feature",
      "geometry": {
        "type": "Polygon",
        "coordinates": [
          [
            [
              -96.928622,
              32.990356
            ],
            [
              -96.928073,
              32.989781
            ],
            [
              -96.926974,
              32.990529
            ],
            [
              -96.927524,
              32.991105
            ],
            [
              -96.928622,
              32.990356
            ]
          ]
        ]
      },
      "properties": {
        "account": "gxo",
        "name": "GXO Logistics Distribution Center - Carrollton TX",
        "type": "Distribution Center",
        "archetype": "#3",
        "archetypeName": "No Gate / No GS",
        "confidence": "high",
        "zone": "perimeter",
        "truckGate": false,
        "guardShack": false,
        "remoteGs": false,
        "fastLaneOpportunity": false,
        "backupSensitive": false,
        "dropYard": false,
        "multipleFacilities": false,
        "scale": false,
        "shipRcvSeparate": false,
        "urbanRural": "Urban",
        "dockDoors": "10-25",
        "dropArea": "0-10",
        "yardMetrics": {
          "dockDoorCount": 20,
          "trailersVisible": 5,
          "trailerParkingCapacity": 12,
          "truckGateCount": 1,
          "buildingCount": 1,
          "siteAreaAcres": 11,
          "railServed": false
        }
      }
    },
    {
      "type": "Feature",
      "geometry": {
        "type": "Polygon",
        "coordinates": [
          [
            [
              -96.928554,
              32.990299
            ],
            [
              -96.928348,
              32.990069
            ],
            [
              -96.927386,
              32.99076
            ],
            [
              -96.927592,
              32.99099
            ],
            [
              -96.928554,
              32.990299
            ]
          ]
        ]
      },
      "properties": {
        "account": "gxo",
        "name": "GXO Logistics Distribution Center - Carrollton TX",
        "type": "Distribution Center",
        "archetype": "#3",
        "archetypeName": "No Gate / No GS",
        "confidence": "high",
        "zone": "dockApron",
        "index": 1
      }
    }
  ]
}
