{
  "type": "FeatureCollection",
  "features": [
    {
      "type": "Feature",
      "geometry": {
        "type": "Polygon",
        "coordinates": [
          [
            [
              null,
              null
            ],
            [
              null,
              null
            ],
            [
              null,
              null
            ],
            [
              null,
              null
            ],
            [
              null,
              null
            ]
          ]
        ]
      },
      "properties": {
        "account": "amazon",
        "name": "Amazon BFI4 Fulfillment Center Kent WA",
        "type": "Fulfillment Center",
        "archetype": "#7",
        "archetypeName": "Gate + GS (not BU sens.) + fast lane opp",
        "confidence": "high",
        "zone": "perimeter",
        "truckGate": true,
        "guardShack": true,
        "remoteGs": false,
        "fastLaneOpportunity": true,
        "backupSensitive": false,
        "dropYard": true,
        "multipleFacilities": false,
        "scale": false,
        "shipRcvSeparate": false,
        "urbanRural": "Urban",
        "dockDoors": "50+",
        "dropArea": "50+",
        "yardMetrics": {
          "dockDoorCount": 90,
          "trailersVisible": 75,
          "trailerParkingCapacity": 110,
          "truckGateCount": 1,
          "buildingCount": 1,
          "siteAreaAcres": 47.5,
          "railServed": false
        }
      }
    },
    {
      "type": "Feature",
      "geometry": {
        "type": "Polygon",
        "coordinates": [
          [
            [
              null,
              null
            ],
            [
              null,
              null
            ],
            [
              null,
              null
            ],
            [
              null,
              null
            ],
            [
              null,
              null
            ]
          ]
        ]
      },
      "properties": {
        "account": "amazon",
        "name": "Amazon BFI4 Fulfillment Center Kent WA",
        "type": "Fulfillment Center",
        "archetype": "#7",
        "archetypeName": "Gate + GS (not BU sens.) + fast lane opp",
        "confidence": "high",
        "zone": "truckGate"
      }
    },
    {
      "type": "Feature",
      "geometry": {
        "type": "Polygon",
        "coordinates": [
          [
            [
              null,
              null
            ],
            [
              null,
              null
            ],
            [
              null,
              null
            ],
            [
              null,
              null
            ],
            [
              null,
              null
            ]
          ]
        ]
      },
      "properties": {
        "account": "amazon",
        "name": "Amazon BFI4 Fulfillment Center Kent WA",
        "type": "Fulfillment Center",
        "archetype": "#7",
        "archetypeName": "Gate + GS (not BU sens.) + fast lane opp",
        "confidence": "high",
        "zone": "dropYard",
        "index": 1
      }
    },
    {
      "type": "Feature",
      "geometry": {
        "type": "Polygon",
        "coordinates": [
          [
            [
              null,
              null
            ],
            [
              null,
              null
            ],
            [
              null,
              null
            ],
            [
              null,
              null
            ],
            [
              null,
              null
            ]
          ]
        ]
      },
      "properties": {
        "account": "amazon",
        "name": "Amazon BFI4 Fulfillment Center Kent WA",
        "type": "Fulfillment Center",
        "archetype": "#7",
        "archetypeName": "Gate + GS (not BU sens.) + fast lane opp",
        "confidence": "high",
        "zone": "dockApron",
        "index": 1
      }
    },
    {
      "type": "Feature",
      "geometry": {
        "type": "Polygon",
        "coordinates": [
          [
            [
              null,
              null
            ],
            [
              null,
              null
            ],
            [
              null,
              null
            ],
            [
              null,
              null
            ],
            [
              null,
              null
            ]
          ]
        ]
      },
      "properties": {
        "account": "amazon",
        "name": "Amazon BFI4 Fulfillment Center Kent WA",
        "type": "Fulfillment Center",
        "archetype": "#7",
        "archetypeName": "Gate + GS (not BU sens.) + fast lane opp",
        "confidence": "high",
        "zone": "staging"
      }
    },
    {
      "type": "Feature",
      "geometry": {
        "type": "Polygon",
        "coordinates": [
          [
            [
              null,
              null
            ],
            [
              null,
              null
            ],
            [
              null,
              null
            ],
            [
              null,
              null
            ],
            [
              null,
              null
            ]
          ]
        ]
      },
      "properties": {
        "account": "amazon",
        "name": "Amazon ONT8 Fulfillment Center Moreno Valley CA",
        "type": "Fulfillment Center",
        "archetype": "#10",
        "archetypeName": "Ship/Rcv Separate (Gate+GS)",
        "confidence": "high",
        "zone": "perimeter",
        "truckGate": true,
        "guardShack": true,
        "remoteGs": false,
        "fastLaneOpportunity": true,
        "backupSensitive": false,
        "dropYard": true,
        "multipleFacilities": false,
        "scale": false,
        "shipRcvSeparate": true,
        "urbanRural": "Urban",
        "dockDoors": "50+",
        "dropArea": "50+",
        "yardMetrics": {
          "dockDoorCount": 180,
          "trailersVisible": 120,
          "trailerParkingCapacity": 350,
          "truckGateCount": 1,
          "buildingCount": 1,
          "siteAreaAcres": 36.3,
          "railServed": false
        }
      }
    },
    {
      "type": "Feature",
      "geometry": {
        "type": "Polygon",
        "coordinates": [
          [
            [
              null,
              null
            ],
            [
              null,
              null
            ],
            [
              null,
              null
            ],
            [
              null,
              null
            ],
            [
              null,
              null
            ]
          ]
        ]
      },
      "properties": {
        "account": "amazon",
        "name": "Amazon ONT8 Fulfillment Center Moreno Valley CA",
        "type": "Fulfillment Center",
        "archetype": "#10",
        "archetypeName": "Ship/Rcv Separate (Gate+GS)",
        "confidence": "high",
        "zone": "truckGate"
      }
    },
    {
      "type": "Feature",
      "geometry": {
        "type": "Polygon",
        "coordinates": [
          [
            [
              null,
              null
            ],
            [
              null,
              null
            ],
            [
              null,
              null
            ],
            [
              null,
              null
            ],
            [
              null,
              null
            ]
          ]
        ]
      },
      "properties": {
        "account": "amazon",
        "name": "Amazon ONT8 Fulfillment Center Moreno Valley CA",
        "type": "Fulfillment Center",
        "archetype": "#10",
        "archetypeName": "Ship/Rcv Separate (Gate+GS)",
        "confidence": "high",
        "zone": "dropYard",
        "index": 1
      }
    },
    {
      "type": "Feature",
      "geometry": {
        "type": "Polygon",
        "coordinates": [
          [
            [
              null,
              null
            ],
            [
              null,
              null
            ],
            [
              null,
              null
            ],
            [
              null,
              null
            ],
            [
              null,
              null
            ]
          ]
        ]
      },
      "properties": {
        "account": "amazon",
        "name": "Amazon ONT8 Fulfillment Center Moreno Valley CA",
        "type": "Fulfillment Center",
        "archetype": "#10",
        "archetypeName": "Ship/Rcv Separate (Gate+GS)",
        "confidence": "high",
        "zone": "dropYard",
        "index": 2
      }
    },
    {
      "type": "Feature",
      "geometry": {
        "type": "Polygon",
        "coordinates": [
          [
            [
              null,
              null
            ],
            [
              null,
              null
            ],
            [
              null,
              null
            ],
            [
              null,
              null
            ],
            [
              null,
              null
            ]
          ]
        ]
      },
      "properties": {
        "account": "amazon",
        "name": "Amazon ONT8 Fulfillment Center Moreno Valley CA",
        "type": "Fulfillment Center",
        "archetype": "#10",
        "archetypeName": "Ship/Rcv Separate (Gate+GS)",
        "confidence": "high",
        "zone": "dockApron",
        "index": 1
      }
    },
    {
      "type": "Feature",
      "geometry": {
        "type": "Polygon",
        "coordinates": [
          [
            [
              null,
              null
            ],
            [
              null,
              null
            ],
            [
              null,
              null
            ],
            [
              null,
              null
            ],
            [
              null,
              null
            ]
          ]
        ]
      },
      "properties": {
        "account": "amazon",
        "name": "Amazon ONT8 Fulfillment Center Moreno Valley CA",
        "type": "Fulfillment Center",
        "archetype": "#10",
        "archetypeName": "Ship/Rcv Separate (Gate+GS)",
        "confidence": "high",
        "zone": "dockApron",
        "index": 2
      }
    },
    {
      "type": "Feature",
      "geometry": {
        "type": "Polygon",
        "coordinates": [
          [
            [
              null,
              null
            ],
            [
              null,
              null
            ],
            [
              null,
              null
            ],
            [
              null,
              null
            ],
            [
              null,
              null
            ]
          ]
        ]
      },
      "properties": {
        "account": "amazon",
        "name": "Amazon ONT8 Fulfillment Center Moreno Valley CA",
        "type": "Fulfillment Center",
        "archetype": "#10",
        "archetypeName": "Ship/Rcv Separate (Gate+GS)",
        "confidence": "high",
        "zone": "staging"
      }
    },
    {
      "type": "Feature",
      "geometry": {
        "type": "Polygon",
        "coordinates": [
          [
            [
              null,
              null
            ],
            [
              null,
              null
            ],
            [
              null,
              null
            ],
            [
              null,
              null
            ],
            [
              null,
              null
            ]
          ]
        ]
      },
      "properties": {
        "account": "amazon",
        "name": "Amazon MEM1 Fulfillment Center Memphis TN",
        "type": "Fulfillment Center",
        "archetype": "#9",
        "archetypeName": "Gate + No GS (remote check-in)",
        "confidence": "high",
        "zone": "perimeter",
        "truckGate": true,
        "guardShack": false,
        "remoteGs": true,
        "fastLaneOpportunity": true,
        "backupSensitive": false,
        "dropYard": true,
        "multipleFacilities": false,
        "scale": false,
        "shipRcvSeparate": true,
        "urbanRural": "Urban",
        "dockDoors": "50+",
        "dropArea": "50+",
        "yardMetrics": {
          "dockDoorCount": 180,
          "trailersVisible": 360,
          "trailerParkingCapacity": 450,
          "truckGateCount": 1,
          "buildingCount": 1,
          "siteAreaAcres": 78,
          "railServed": false
        }
      }
    },
    {
      "type": "Feature",
      "geometry": {
        "type": "Polygon",
        "coordinates": [
          [
            [
              null,
              null
            ],
            [
              null,
              null
            ],
            [
              null,
              null
            ],
            [
              null,
              null
            ],
            [
              null,
              null
            ]
          ]
        ]
      },
      "properties": {
        "account": "amazon",
        "name": "Amazon MEM1 Fulfillment Center Memphis TN",
        "type": "Fulfillment Center",
        "archetype": "#9",
        "archetypeName": "Gate + No GS (remote check-in)",
        "confidence": "high",
        "zone": "truckGate"
      }
    },
    {
      "type": "Feature",
      "geometry": {
        "type": "Polygon",
        "coordinates": [
          [
            [
              null,
              null
            ],
            [
              null,
              null
            ],
            [
              null,
              null
            ],
            [
              null,
              null
            ],
            [
              null,
              null
            ]
          ]
        ]
      },
      "properties": {
        "account": "amazon",
        "name": "Amazon MEM1 Fulfillment Center Memphis TN",
        "type": "Fulfillment Center",
        "archetype": "#9",
        "archetypeName": "Gate + No GS (remote check-in)",
        "confidence": "high",
        "zone": "dropYard",
        "index": 1
      }
    },
    {
      "type": "Feature",
      "geometry": {
        "type": "Polygon",
        "coordinates": [
          [
            [
              null,
              null
            ],
            [
              null,
              null
            ],
            [
              null,
              null
            ],
            [
              null,
              null
            ],
            [
              null,
              null
            ]
          ]
        ]
      },
      "properties": {
        "account": "amazon",
        "name": "Amazon MEM1 Fulfillment Center Memphis TN",
        "type": "Fulfillment Center",
        "archetype": "#9",
        "archetypeName": "Gate + No GS (remote check-in)",
        "confidence": "high",
        "zone": "dropYard",
        "index": 2
      }
    },
    {
      "type": "Feature",
      "geometry": {
        "type": "Polygon",
        "coordinates": [
          [
            [
              null,
              null
            ],
            [
              null,
              null
            ],
            [
              null,
              null
            ],
            [
              null,
              null
            ],
            [
              null,
              null
            ]
          ]
        ]
      },
      "properties": {
        "account": "amazon",
        "name": "Amazon MEM1 Fulfillment Center Memphis TN",
        "type": "Fulfillment Center",
        "archetype": "#9",
        "archetypeName": "Gate + No GS (remote check-in)",
        "confidence": "high",
        "zone": "dockApron",
        "index": 1
      }
    },
    {
      "type": "Feature",
      "geometry": {
        "type": "Polygon",
        "coordinates": [
          [
            [
              null,
              null
            ],
            [
              null,
              null
            ],
            [
              null,
              null
            ],
            [
              null,
              null
            ],
            [
              null,
              null
            ]
          ]
        ]
      },
      "properties": {
        "account": "amazon",
        "name": "Amazon MEM1 Fulfillment Center Memphis TN",
        "type": "Fulfillment Center",
        "archetype": "#9",
        "archetypeName": "Gate + No GS (remote check-in)",
        "confidence": "high",
        "zone": "dockApron",
        "index": 2
      }
    },
    {
      "type": "Feature",
      "geometry": {
        "type": "Polygon",
        "coordinates": [
          [
            [
              null,
              null
            ],
            [
              null,
              null
            ],
            [
              null,
              null
            ],
            [
              null,
              null
            ],
            [
              null,
              null
            ]
          ]
        ]
      },
      "properties": {
        "account": "amazon",
        "name": "Amazon CVG1 Fulfillment Center Hebron KY",
        "type": "Fulfillment Center",
        "archetype": "#9",
        "archetypeName": "Gate + No GS (remote check-in)",
        "confidence": "high",
        "zone": "perimeter",
        "truckGate": true,
        "guardShack": false,
        "remoteGs": true,
        "fastLaneOpportunity": true,
        "backupSensitive": false,
        "dropYard": true,
        "multipleFacilities": false,
        "scale": false,
        "shipRcvSeparate": false,
        "urbanRural": "Rural",
        "dockDoors": "50+",
        "dropArea": "50+",
        "yardMetrics": {
          "dockDoorCount": 110,
          "trailersVisible": 8,
          "trailerParkingCapacity": 90,
          "truckGateCount": 1,
          "buildingCount": 1,
          "siteAreaAcres": 42.4,
          "railServed": false
        }
      }
    },
    {
      "type": "Feature",
      "geometry": {
        "type": "Polygon",
        "coordinates": [
          [
            [
              null,
              null
            ],
            [
              null,
              null
            ],
            [
              null,
              null
            ],
            [
              null,
              null
            ],
            [
              null,
              null
            ]
          ]
        ]
      },
      "properties": {
        "account": "amazon",
        "name": "Amazon CVG1 Fulfillment Center Hebron KY",
        "type": "Fulfillment Center",
        "archetype": "#9",
        "archetypeName": "Gate + No GS (remote check-in)",
        "confidence": "high",
        "zone": "truckGate"
      }
    },
    {
      "type": "Feature",
      "geometry": {
        "type": "Polygon",
        "coordinates": [
          [
            [
              null,
              null
            ],
            [
              null,
              null
            ],
            [
              null,
              null
            ],
            [
              null,
              null
            ],
            [
              null,
              null
            ]
          ]
        ]
      },
      "properties": {
        "account": "amazon",
        "name": "Amazon CVG1 Fulfillment Center Hebron KY",
        "type": "Fulfillment Center",
        "archetype": "#9",
        "archetypeName": "Gate + No GS (remote check-in)",
        "confidence": "high",
        "zone": "dropYard",
        "index": 1
      }
    },
    {
      "type": "Feature",
      "geometry": {
        "type": "Polygon",
        "coordinates": [
          [
            [
              null,
              null
            ],
            [
              null,
              null
            ],
            [
              null,
              null
            ],
            [
              null,
              null
            ],
            [
              null,
              null
            ]
          ]
        ]
      },
      "properties": {
        "account": "amazon",
        "name": "Amazon CVG1 Fulfillment Center Hebron KY",
        "type": "Fulfillment Center",
        "archetype": "#9",
        "archetypeName": "Gate + No GS (remote check-in)",
        "confidence": "high",
        "zone": "dockApron",
        "index": 1
      }
    },
    {
      "type": "Feature",
      "geometry": {
        "type": "Polygon",
        "coordinates": [
          [
            [
              null,
              null
            ],
            [
              null,
              null
            ],
            [
              null,
              null
            ],
            [
              null,
              null
            ],
            [
              null,
              null
            ]
          ]
        ]
      },
      "properties": {
        "account": "amazon",
        "name": "Amazon KCVG Air Hub Hebron KY",
        "type": "Air Hub",
        "archetype": "#6",
        "archetypeName": "Gate + GS (not BU sens.) + campus",
        "confidence": "medium",
        "zone": "perimeter",
        "truckGate": true,
        "guardShack": true,
        "remoteGs": false,
        "fastLaneOpportunity": true,
        "backupSensitive": false,
        "dropYard": true,
        "multipleFacilities": true,
        "scale": false,
        "shipRcvSeparate": true,
        "urbanRural": "Rural",
        "dockDoors": "50+",
        "dropArea": "50+",
        "yardMetrics": {
          "dockDoorCount": 60,
          "trailersVisible": 70,
          "trailerParkingCapacity": 180,
          "truckGateCount": 1,
          "buildingCount": 6,
          "siteAreaAcres": 118,
          "railServed": false
        }
      }
    },
    {
      "type": "Feature",
      "geometry": {
        "type": "Polygon",
        "coordinates": [
          [
            [
              null,
              null
            ],
            [
              null,
              null
            ],
            [
              null,
              null
            ],
            [
              null,
              null
            ],
            [
              null,
              null
            ]
          ]
        ]
      },
      "properties": {
        "account": "amazon",
        "name": "Amazon KCVG Air Hub Hebron KY",
        "type": "Air Hub",
        "archetype": "#6",
        "archetypeName": "Gate + GS (not BU sens.) + campus",
        "confidence": "medium",
        "zone": "truckGate"
      }
    },
    {
      "type": "Feature",
      "geometry": {
        "type": "Polygon",
        "coordinates": [
          [
            [
              null,
              null
            ],
            [
              null,
              null
            ],
            [
              null,
              null
            ],
            [
              null,
              null
            ],
            [
              null,
              null
            ]
          ]
        ]
      },
      "properties": {
        "account": "amazon",
        "name": "Amazon KCVG Air Hub Hebron KY",
        "type": "Air Hub",
        "archetype": "#6",
        "archetypeName": "Gate + GS (not BU sens.) + campus",
        "confidence": "medium",
        "zone": "dropYard",
        "index": 1
      }
    },
    {
      "type": "Feature",
      "geometry": {
        "type": "Polygon",
        "coordinates": [
          [
            [
              null,
              null
            ],
            [
              null,
              null
            ],
            [
              null,
              null
            ],
            [
              null,
              null
            ],
            [
              null,
              null
            ]
          ]
        ]
      },
      "properties": {
        "account": "amazon",
        "name": "Amazon KCVG Air Hub Hebron KY",
        "type": "Air Hub",
        "archetype": "#6",
        "archetypeName": "Gate + GS (not BU sens.) + campus",
        "confidence": "medium",
        "zone": "dropYard",
        "index": 2
      }
    },
    {
      "type": "Feature",
      "geometry": {
        "type": "Polygon",
        "coordinates": [
          [
            [
              null,
              null
            ],
            [
              null,
              null
            ],
            [
              null,
              null
            ],
            [
              null,
              null
            ],
            [
              null,
              null
            ]
          ]
        ]
      },
      "properties": {
        "account": "amazon",
        "name": "Amazon KCVG Air Hub Hebron KY",
        "type": "Air Hub",
        "archetype": "#6",
        "archetypeName": "Gate + GS (not BU sens.) + campus",
        "confidence": "medium",
        "zone": "dockApron",
        "index": 1
      }
    },
    {
      "type": "Feature",
      "geometry": {
        "type": "Polygon",
        "coordinates": [
          [
            [
              null,
              null
            ],
            [
              null,
              null
            ],
            [
              null,
              null
            ],
            [
              null,
              null
            ],
            [
              null,
              null
            ]
          ]
        ]
      },
      "properties": {
        "account": "amazon",
        "name": "Amazon KCVG Air Hub Hebron KY",
        "type": "Air Hub",
        "archetype": "#6",
        "archetypeName": "Gate + GS (not BU sens.) + campus",
        "confidence": "medium",
        "zone": "dockApron",
        "index": 2
      }
    },
    {
      "type": "Feature",
      "geometry": {
        "type": "Polygon",
        "coordinates": [
          [
            [
              null,
              null
            ],
            [
              null,
              null
            ],
            [
              null,
              null
            ],
            [
              null,
              null
            ],
            [
              null,
              null
            ]
          ]
        ]
      },
      "properties": {
        "account": "amazon",
        "name": "Amazon KCVG Air Hub Hebron KY",
        "type": "Air Hub",
        "archetype": "#6",
        "archetypeName": "Gate + GS (not BU sens.) + campus",
        "confidence": "medium",
        "zone": "staging"
      }
    },
    {
      "type": "Feature",
      "geometry": {
        "type": "Polygon",
        "coordinates": [
          [
            [
              null,
              null
            ],
            [
              null,
              null
            ],
            [
              null,
              null
            ],
            [
              null,
              null
            ],
            [
              null,
              null
            ]
          ]
        ]
      },
      "properties": {
        "account": "amazon",
        "name": "Amazon FTW1 Fulfillment Center, Dallas TX",
        "type": "Fulfillment Center",
        "archetype": "#10",
        "archetypeName": "Ship/Rcv Separate (Gate+GS)",
        "confidence": "high",
        "zone": "perimeter",
        "truckGate": true,
        "guardShack": true,
        "remoteGs": false,
        "fastLaneOpportunity": true,
        "backupSensitive": false,
        "dropYard": true,
        "multipleFacilities": false,
        "scale": false,
        "shipRcvSeparate": true,
        "urbanRural": "Urban",
        "dockDoors": "50+",
        "dropArea": "50+",
        "yardMetrics": {
          "dockDoorCount": 130,
          "trailersVisible": 140,
          "trailerParkingCapacity": 220,
          "truckGateCount": 1,
          "buildingCount": 1,
          "siteAreaAcres": 36.8,
          "railServed": false
        }
      }
    },
    {
      "type": "Feature",
      "geometry": {
        "type": "Polygon",
        "coordinates": [
          [
            [
              null,
              null
            ],
            [
              null,
              null
            ],
            [
              null,
              null
            ],
            [
              null,
              null
            ],
            [
              null,
              null
            ]
          ]
        ]
      },
      "properties": {
        "account": "amazon",
        "name": "Amazon FTW1 Fulfillment Center, Dallas TX",
        "type": "Fulfillment Center",
        "archetype": "#10",
        "archetypeName": "Ship/Rcv Separate (Gate+GS)",
        "confidence": "high",
        "zone": "truckGate"
      }
    },
    {
      "type": "Feature",
      "geometry": {
        "type": "Polygon",
        "coordinates": [
          [
            [
              null,
              null
            ],
            [
              null,
              null
            ],
            [
              null,
              null
            ],
            [
              null,
              null
            ],
            [
              null,
              null
            ]
          ]
        ]
      },
      "properties": {
        "account": "amazon",
        "name": "Amazon FTW1 Fulfillment Center, Dallas TX",
        "type": "Fulfillment Center",
        "archetype": "#10",
        "archetypeName": "Ship/Rcv Separate (Gate+GS)",
        "confidence": "high",
        "zone": "dropYard",
        "index": 1
      }
    },
    {
      "type": "Feature",
      "geometry": {
        "type": "Polygon",
        "coordinates": [
          [
            [
              null,
              null
            ],
            [
              null,
              null
            ],
            [
              null,
              null
            ],
            [
              null,
              null
            ],
            [
              null,
              null
            ]
          ]
        ]
      },
      "properties": {
        "account": "amazon",
        "name": "Amazon FTW1 Fulfillment Center, Dallas TX",
        "type": "Fulfillment Center",
        "archetype": "#10",
        "archetypeName": "Ship/Rcv Separate (Gate+GS)",
        "confidence": "high",
        "zone": "dropYard",
        "index": 2
      }
    },
    {
      "type": "Feature",
      "geometry": {
        "type": "Polygon",
        "coordinates": [
          [
            [
              null,
              null
            ],
            [
              null,
              null
            ],
            [
              null,
              null
            ],
            [
              null,
              null
            ],
            [
              null,
              null
            ]
          ]
        ]
      },
      "properties": {
        "account": "amazon",
        "name": "Amazon FTW1 Fulfillment Center, Dallas TX",
        "type": "Fulfillment Center",
        "archetype": "#10",
        "archetypeName": "Ship/Rcv Separate (Gate+GS)",
        "confidence": "high",
        "zone": "dockApron",
        "index": 1
      }
    },
    {
      "type": "Feature",
      "geometry": {
        "type": "Polygon",
        "coordinates": [
          [
            [
              null,
              null
            ],
            [
              null,
              null
            ],
            [
              null,
              null
            ],
            [
              null,
              null
            ],
            [
              null,
              null
            ]
          ]
        ]
      },
      "properties": {
        "account": "amazon",
        "name": "Amazon FTW1 Fulfillment Center, Dallas TX",
        "type": "Fulfillment Center",
        "archetype": "#10",
        "archetypeName": "Ship/Rcv Separate (Gate+GS)",
        "confidence": "high",
        "zone": "dockApron",
        "index": 2
      }
    },
    {
      "type": "Feature",
      "geometry": {
        "type": "Polygon",
        "coordinates": [
          [
            [
              null,
              null
            ],
            [
              null,
              null
            ],
            [
              null,
              null
            ],
            [
              null,
              null
            ],
            [
              null,
              null
            ]
          ]
        ]
      },
      "properties": {
        "account": "amazon",
        "name": "Amazon FTW1 Fulfillment Center, Dallas TX",
        "type": "Fulfillment Center",
        "archetype": "#10",
        "archetypeName": "Ship/Rcv Separate (Gate+GS)",
        "confidence": "high",
        "zone": "dockApron",
        "index": 3
      }
    },
    {
      "type": "Feature",
      "geometry": {
        "type": "Polygon",
        "coordinates": [
          [
            [
              null,
              null
            ],
            [
              null,
              null
            ],
            [
              null,
              null
            ],
            [
              null,
              null
            ],
            [
              null,
              null
            ]
          ]
        ]
      },
      "properties": {
        "account": "amazon",
        "name": "Amazon FTW1 Fulfillment Center, Dallas TX",
        "type": "Fulfillment Center",
        "archetype": "#10",
        "archetypeName": "Ship/Rcv Separate (Gate+GS)",
        "confidence": "high",
        "zone": "staging"
      }
    },
    {
      "type": "Feature",
      "geometry": {
        "type": "Polygon",
        "coordinates": [
          [
            [
              null,
              null
            ],
            [
              null,
              null
            ],
            [
              null,
              null
            ],
            [
              null,
              null
            ],
            [
              null,
              null
            ]
          ]
        ]
      },
      "properties": {
        "account": "amazon",
        "name": "Amazon DFW7 Fulfillment Center Fort Worth TX",
        "type": "Fulfillment Center",
        "archetype": "#7",
        "archetypeName": "Gate + GS (not BU sens.) + fast lane opp",
        "confidence": "high",
        "zone": "perimeter",
        "truckGate": true,
        "guardShack": true,
        "remoteGs": false,
        "fastLaneOpportunity": true,
        "backupSensitive": false,
        "dropYard": true,
        "multipleFacilities": false,
        "scale": false,
        "shipRcvSeparate": false,
        "urbanRural": "Rural",
        "dockDoors": "50+",
        "dropArea": "50+",
        "yardMetrics": {
          "dockDoorCount": 140,
          "trailersVisible": 95,
          "trailerParkingCapacity": 160,
          "truckGateCount": 1,
          "buildingCount": 1,
          "siteAreaAcres": 78.8,
          "railServed": false
        }
      }
    },
    {
      "type": "Feature",
      "geometry": {
        "type": "Polygon",
        "coordinates": [
          [
            [
              null,
              null
            ],
            [
              null,
              null
            ],
            [
              null,
              null
            ],
            [
              null,
              null
            ],
            [
              null,
              null
            ]
          ]
        ]
      },
      "properties": {
        "account": "amazon",
        "name": "Amazon DFW7 Fulfillment Center Fort Worth TX",
        "type": "Fulfillment Center",
        "archetype": "#7",
        "archetypeName": "Gate + GS (not BU sens.) + fast lane opp",
        "confidence": "high",
        "zone": "truckGate"
      }
    },
    {
      "type": "Feature",
      "geometry": {
        "type": "Polygon",
        "coordinates": [
          [
            [
              null,
              null
            ],
            [
              null,
              null
            ],
            [
              null,
              null
            ],
            [
              null,
              null
            ],
            [
              null,
              null
            ]
          ]
        ]
      },
      "properties": {
        "account": "amazon",
        "name": "Amazon DFW7 Fulfillment Center Fort Worth TX",
        "type": "Fulfillment Center",
        "archetype": "#7",
        "archetypeName": "Gate + GS (not BU sens.) + fast lane opp",
        "confidence": "high",
        "zone": "dropYard",
        "index": 1
      }
    },
    {
      "type": "Feature",
      "geometry": {
        "type": "Polygon",
        "coordinates": [
          [
            [
              null,
              null
            ],
            [
              null,
              null
            ],
            [
              null,
              null
            ],
            [
              null,
              null
            ],
            [
              null,
              null
            ]
          ]
        ]
      },
      "properties": {
        "account": "amazon",
        "name": "Amazon DFW7 Fulfillment Center Fort Worth TX",
        "type": "Fulfillment Center",
        "archetype": "#7",
        "archetypeName": "Gate + GS (not BU sens.) + fast lane opp",
        "confidence": "high",
        "zone": "dropYard",
        "index": 2
      }
    },
    {
      "type": "Feature",
      "geometry": {
        "type": "Polygon",
        "coordinates": [
          [
            [
              null,
              null
            ],
            [
              null,
              null
            ],
            [
              null,
              null
            ],
            [
              null,
              null
            ],
            [
              null,
              null
            ]
          ]
        ]
      },
      "properties": {
        "account": "amazon",
        "name": "Amazon DFW7 Fulfillment Center Fort Worth TX",
        "type": "Fulfillment Center",
        "archetype": "#7",
        "archetypeName": "Gate + GS (not BU sens.) + fast lane opp",
        "confidence": "high",
        "zone": "dockApron",
        "index": 1
      }
    },
    {
      "type": "Feature",
      "geometry": {
        "type": "Polygon",
        "coordinates": [
          [
            [
              null,
              null
            ],
            [
              null,
              null
            ],
            [
              null,
              null
            ],
            [
              null,
              null
            ],
            [
              null,
              null
            ]
          ]
        ]
      },
      "properties": {
        "account": "amazon",
        "name": "Amazon DFW7 Fulfillment Center Fort Worth TX",
        "type": "Fulfillment Center",
        "archetype": "#7",
        "archetypeName": "Gate + GS (not BU sens.) + fast lane opp",
        "confidence": "high",
        "zone": "staging"
      }
    },
    {
      "type": "Feature",
      "geometry": {
        "type": "Polygon",
        "coordinates": [
          [
            [
              null,
              null
            ],
            [
              null,
              null
            ],
            [
              null,
              null
            ],
            [
              null,
              null
            ],
            [
              null,
              null
            ]
          ]
        ]
      },
      "properties": {
        "account": "amazon",
        "name": "Amazon PHX6 Fulfillment Center, Phoenix AZ",
        "type": "Fulfillment Center",
        "archetype": "#9",
        "archetypeName": "Gate + No GS (remote check-in)",
        "confidence": "high",
        "zone": "perimeter",
        "truckGate": true,
        "guardShack": false,
        "remoteGs": true,
        "fastLaneOpportunity": true,
        "backupSensitive": false,
        "dropYard": true,
        "multipleFacilities": false,
        "scale": false,
        "shipRcvSeparate": false,
        "urbanRural": "Urban",
        "dockDoors": "50+",
        "dropArea": "50+",
        "yardMetrics": {
          "dockDoorCount": 120,
          "trailersVisible": 130,
          "trailerParkingCapacity": 200,
          "truckGateCount": 1,
          "buildingCount": 1,
          "siteAreaAcres": 93.7,
          "railServed": false
        }
      }
    },
    {
      "type": "Feature",
      "geometry": {
        "type": "Polygon",
        "coordinates": [
          [
            [
              null,
              null
            ],
            [
              null,
              null
            ],
            [
              null,
              null
            ],
            [
              null,
              null
            ],
            [
              null,
              null
            ]
          ]
        ]
      },
      "properties": {
        "account": "amazon",
        "name": "Amazon PHX6 Fulfillment Center, Phoenix AZ",
        "type": "Fulfillment Center",
        "archetype": "#9",
        "archetypeName": "Gate + No GS (remote check-in)",
        "confidence": "high",
        "zone": "truckGate"
      }
    },
    {
      "type": "Feature",
      "geometry": {
        "type": "Polygon",
        "coordinates": [
          [
            [
              null,
              null
            ],
            [
              null,
              null
            ],
            [
              null,
              null
            ],
            [
              null,
              null
            ],
            [
              null,
              null
            ]
          ]
        ]
      },
      "properties": {
        "account": "amazon",
        "name": "Amazon PHX6 Fulfillment Center, Phoenix AZ",
        "type": "Fulfillment Center",
        "archetype": "#9",
        "archetypeName": "Gate + No GS (remote check-in)",
        "confidence": "high",
        "zone": "dropYard",
        "index": 1
      }
    },
    {
      "type": "Feature",
      "geometry": {
        "type": "Polygon",
        "coordinates": [
          [
            [
              null,
              null
            ],
            [
              null,
              null
            ],
            [
              null,
              null
            ],
            [
              null,
              null
            ],
            [
              null,
              null
            ]
          ]
        ]
      },
      "properties": {
        "account": "amazon",
        "name": "Amazon PHX6 Fulfillment Center, Phoenix AZ",
        "type": "Fulfillment Center",
        "archetype": "#9",
        "archetypeName": "Gate + No GS (remote check-in)",
        "confidence": "high",
        "zone": "dockApron",
        "index": 1
      }
    },
    {
      "type": "Feature",
      "geometry": {
        "type": "Polygon",
        "coordinates": [
          [
            [
              null,
              null
            ],
            [
              null,
              null
            ],
            [
              null,
              null
            ],
            [
              null,
              null
            ],
            [
              null,
              null
            ]
          ]
        ]
      },
      "properties": {
        "account": "amazon",
        "name": "Amazon PHX6 Fulfillment Center, Phoenix AZ",
        "type": "Fulfillment Center",
        "archetype": "#9",
        "archetypeName": "Gate + No GS (remote check-in)",
        "confidence": "high",
        "zone": "staging"
      }
    },
    {
      "type": "Feature",
      "geometry": {
        "type": "Polygon",
        "coordinates": [
          [
            [
              null,
              null
            ],
            [
              null,
              null
            ],
            [
              null,
              null
            ],
            [
              null,
              null
            ],
            [
              null,
              null
            ]
          ]
        ]
      },
      "properties": {
        "account": "amazon",
        "name": "Amazon MDW2 Fulfillment Center Joliet IL",
        "type": "Fulfillment Center",
        "archetype": "#10",
        "archetypeName": "Ship/Rcv Separate (Gate+GS)",
        "confidence": "high",
        "zone": "perimeter",
        "truckGate": true,
        "guardShack": true,
        "remoteGs": false,
        "fastLaneOpportunity": true,
        "backupSensitive": false,
        "dropYard": true,
        "multipleFacilities": false,
        "scale": false,
        "shipRcvSeparate": true,
        "urbanRural": "Rural",
        "dockDoors": "50+",
        "dropArea": "50+",
        "yardMetrics": {
          "dockDoorCount": 120,
          "trailersVisible": 140,
          "trailerParkingCapacity": 260,
          "truckGateCount": 1,
          "buildingCount": 1,
          "siteAreaAcres": 31.6,
          "railServed": false
        }
      }
    },
    {
      "type": "Feature",
      "geometry": {
        "type": "Polygon",
        "coordinates": [
          [
            [
              null,
              null
            ],
            [
              null,
              null
            ],
            [
              null,
              null
            ],
            [
              null,
              null
            ],
            [
              null,
              null
            ]
          ]
        ]
      },
      "properties": {
        "account": "amazon",
        "name": "Amazon MDW2 Fulfillment Center Joliet IL",
        "type": "Fulfillment Center",
        "archetype": "#10",
        "archetypeName": "Ship/Rcv Separate (Gate+GS)",
        "confidence": "high",
        "zone": "truckGate"
      }
    },
    {
      "type": "Feature",
      "geometry": {
        "type": "Polygon",
        "coordinates": [
          [
            [
              null,
              null
            ],
            [
              null,
              null
            ],
            [
              null,
              null
            ],
            [
              null,
              null
            ],
            [
              null,
              null
            ]
          ]
        ]
      },
      "properties": {
        "account": "amazon",
        "name": "Amazon MDW2 Fulfillment Center Joliet IL",
        "type": "Fulfillment Center",
        "archetype": "#10",
        "archetypeName": "Ship/Rcv Separate (Gate+GS)",
        "confidence": "high",
        "zone": "dropYard",
        "index": 1
      }
    },
    {
      "type": "Feature",
      "geometry": {
        "type": "Polygon",
        "coordinates": [
          [
            [
              null,
              null
            ],
            [
              null,
              null
            ],
            [
              null,
              null
            ],
            [
              null,
              null
            ],
            [
              null,
              null
            ]
          ]
        ]
      },
      "properties": {
        "account": "amazon",
        "name": "Amazon MDW2 Fulfillment Center Joliet IL",
        "type": "Fulfillment Center",
        "archetype": "#10",
        "archetypeName": "Ship/Rcv Separate (Gate+GS)",
        "confidence": "high",
        "zone": "dropYard",
        "index": 2
      }
    },
    {
      "type": "Feature",
      "geometry": {
        "type": "Polygon",
        "coordinates": [
          [
            [
              null,
              null
            ],
            [
              null,
              null
            ],
            [
              null,
              null
            ],
            [
              null,
              null
            ],
            [
              null,
              null
            ]
          ]
        ]
      },
      "properties": {
        "account": "amazon",
        "name": "Amazon MDW2 Fulfillment Center Joliet IL",
        "type": "Fulfillment Center",
        "archetype": "#10",
        "archetypeName": "Ship/Rcv Separate (Gate+GS)",
        "confidence": "high",
        "zone": "dockApron",
        "index": 1
      }
    },
    {
      "type": "Feature",
      "geometry": {
        "type": "Polygon",
        "coordinates": [
          [
            [
              null,
              null
            ],
            [
              null,
              null
            ],
            [
              null,
              null
            ],
            [
              null,
              null
            ],
            [
              null,
              null
            ]
          ]
        ]
      },
      "properties": {
        "account": "amazon",
        "name": "Amazon MDW2 Fulfillment Center Joliet IL",
        "type": "Fulfillment Center",
        "archetype": "#10",
        "archetypeName": "Ship/Rcv Separate (Gate+GS)",
        "confidence": "high",
        "zone": "dockApron",
        "index": 2
      }
    },
    {
      "type": "Feature",
      "geometry": {
        "type": "Polygon",
        "coordinates": [
          [
            [
              null,
              null
            ],
            [
              null,
              null
            ],
            [
              null,
              null
            ],
            [
              null,
              null
            ],
            [
              null,
              null
            ]
          ]
        ]
      },
      "properties": {
        "account": "amazon",
        "name": "Amazon MDW2 Fulfillment Center Joliet IL",
        "type": "Fulfillment Center",
        "archetype": "#10",
        "archetypeName": "Ship/Rcv Separate (Gate+GS)",
        "confidence": "high",
        "zone": "staging"
      }
    },
    {
      "type": "Feature",
      "geometry": {
        "type": "Polygon",
        "coordinates": [
          [
            [
              null,
              null
            ],
            [
              null,
              null
            ],
            [
              null,
              null
            ],
            [
              null,
              null
            ],
            [
              null,
              null
            ]
          ]
        ]
      },
      "properties": {
        "account": "amazon",
        "name": "Amazon EWR4 Fulfillment Center Robbinsville NJ",
        "type": "Fulfillment Center",
        "archetype": "#4",
        "archetypeName": "Gate + GS (BU sens.)",
        "confidence": "high",
        "zone": "perimeter",
        "truckGate": true,
        "guardShack": true,
        "remoteGs": false,
        "fastLaneOpportunity": true,
        "backupSensitive": true,
        "dropYard": true,
        "multipleFacilities": false,
        "scale": false,
        "shipRcvSeparate": false,
        "urbanRural": "Rural",
        "dockDoors": "50+",
        "dropArea": "25-50",
        "yardMetrics": {
          "dockDoorCount": 60,
          "trailersVisible": 55,
          "trailerParkingCapacity": 45,
          "truckGateCount": 1,
          "buildingCount": 1,
          "siteAreaAcres": 67.8,
          "railServed": false
        }
      }
    },
    {
      "type": "Feature",
      "geometry": {
        "type": "Polygon",
        "coordinates": [
          [
            [
              null,
              null
            ],
            [
              null,
              null
            ],
            [
              null,
              null
            ],
            [
              null,
              null
            ],
            [
              null,
              null
            ]
          ]
        ]
      },
      "properties": {
        "account": "amazon",
        "name": "Amazon EWR4 Fulfillment Center Robbinsville NJ",
        "type": "Fulfillment Center",
        "archetype": "#4",
        "archetypeName": "Gate + GS (BU sens.)",
        "confidence": "high",
        "zone": "truckGate"
      }
    },
    {
      "type": "Feature",
      "geometry": {
        "type": "Polygon",
        "coordinates": [
          [
            [
              null,
              null
            ],
            [
              null,
              null
            ],
            [
              null,
              null
            ],
            [
              null,
              null
            ],
            [
              null,
              null
            ]
          ]
        ]
      },
      "properties": {
        "account": "amazon",
        "name": "Amazon EWR4 Fulfillment Center Robbinsville NJ",
        "type": "Fulfillment Center",
        "archetype": "#4",
        "archetypeName": "Gate + GS (BU sens.)",
        "confidence": "high",
        "zone": "dropYard",
        "index": 1
      }
    },
    {
      "type": "Feature",
      "geometry": {
        "type": "Polygon",
        "coordinates": [
          [
            [
              null,
              null
            ],
            [
              null,
              null
            ],
            [
              null,
              null
            ],
            [
              null,
              null
            ],
            [
              null,
              null
            ]
          ]
        ]
      },
      "properties": {
        "account": "amazon",
        "name": "Amazon EWR4 Fulfillment Center Robbinsville NJ",
        "type": "Fulfillment Center",
        "archetype": "#4",
        "archetypeName": "Gate + GS (BU sens.)",
        "confidence": "high",
        "zone": "dockApron",
        "index": 1
      }
    },
    {
      "type": "Feature",
      "geometry": {
        "type": "Polygon",
        "coordinates": [
          [
            [
              null,
              null
            ],
            [
              null,
              null
            ],
            [
              null,
              null
            ],
            [
              null,
              null
            ],
            [
              null,
              null
            ]
          ]
        ]
      },
      "properties": {
        "account": "amazon",
        "name": "Amazon EWR4 Fulfillment Center Robbinsville NJ",
        "type": "Fulfillment Center",
        "archetype": "#4",
        "archetypeName": "Gate + GS (BU sens.)",
        "confidence": "high",
        "zone": "staging"
      }
    },
    {
      "type": "Feature",
      "geometry": {
        "type": "Polygon",
        "coordinates": [
          [
            [
              null,
              null
            ],
            [
              null,
              null
            ],
            [
              null,
              null
            ],
            [
              null,
              null
            ],
            [
              null,
              null
            ]
          ]
        ]
      },
      "properties": {
        "account": "amazon",
        "name": "Amazon CMH1 Fulfillment Center Etna OH",
        "type": "Fulfillment Center",
        "archetype": "#3",
        "archetypeName": "No Gate / No GS",
        "confidence": "high",
        "zone": "perimeter",
        "truckGate": false,
        "guardShack": false,
        "remoteGs": false,
        "fastLaneOpportunity": true,
        "backupSensitive": false,
        "dropYard": true,
        "multipleFacilities": false,
        "scale": false,
        "shipRcvSeparate": true,
        "urbanRural": "Rural",
        "dockDoors": "50+",
        "dropArea": "50+",
        "yardMetrics": {
          "dockDoorCount": 110,
          "trailersVisible": 130,
          "trailerParkingCapacity": 220,
          "truckGateCount": 2,
          "buildingCount": 1,
          "siteAreaAcres": 92.8,
          "railServed": false
        }
      }
    },
    {
      "type": "Feature",
      "geometry": {
        "type": "Polygon",
        "coordinates": [
          [
            [
              null,
              null
            ],
            [
              null,
              null
            ],
            [
              null,
              null
            ],
            [
              null,
              null
            ],
            [
              null,
              null
            ]
          ]
        ]
      },
      "properties": {
        "account": "amazon",
        "name": "Amazon CMH1 Fulfillment Center Etna OH",
        "type": "Fulfillment Center",
        "archetype": "#3",
        "archetypeName": "No Gate / No GS",
        "confidence": "high",
        "zone": "truckGate"
      }
    },
    {
      "type": "Feature",
      "geometry": {
        "type": "Polygon",
        "coordinates": [
          [
            [
              null,
              null
            ],
            [
              null,
              null
            ],
            [
              null,
              null
            ],
            [
              null,
              null
            ],
            [
              null,
              null
            ]
          ]
        ]
      },
      "properties": {
        "account": "amazon",
        "name": "Amazon CMH1 Fulfillment Center Etna OH",
        "type": "Fulfillment Center",
        "archetype": "#3",
        "archetypeName": "No Gate / No GS",
        "confidence": "high",
        "zone": "dropYard",
        "index": 1
      }
    },
    {
      "type": "Feature",
      "geometry": {
        "type": "Polygon",
        "coordinates": [
          [
            [
              null,
              null
            ],
            [
              null,
              null
            ],
            [
              null,
              null
            ],
            [
              null,
              null
            ],
            [
              null,
              null
            ]
          ]
        ]
      },
      "properties": {
        "account": "amazon",
        "name": "Amazon CMH1 Fulfillment Center Etna OH",
        "type": "Fulfillment Center",
        "archetype": "#3",
        "archetypeName": "No Gate / No GS",
        "confidence": "high",
        "zone": "dockApron",
        "index": 1
      }
    },
    {
      "type": "Feature",
      "geometry": {
        "type": "Polygon",
        "coordinates": [
          [
            [
              null,
              null
            ],
            [
              null,
              null
            ],
            [
              null,
              null
            ],
            [
              null,
              null
            ],
            [
              null,
              null
            ]
          ]
        ]
      },
      "properties": {
        "account": "amazon",
        "name": "Amazon CMH1 Fulfillment Center Etna OH",
        "type": "Fulfillment Center",
        "archetype": "#3",
        "archetypeName": "No Gate / No GS",
        "confidence": "high",
        "zone": "dockApron",
        "index": 2
      }
    },
    {
      "type": "Feature",
      "geometry": {
        "type": "Polygon",
        "coordinates": [
          [
            [
              null,
              null
            ],
            [
              null,
              null
            ],
            [
              null,
              null
            ],
            [
              null,
              null
            ],
            [
              null,
              null
            ]
          ]
        ]
      },
      "properties": {
        "account": "amazon",
        "name": "Amazon LGB3 Fulfillment Center Eastvale CA",
        "type": "Fulfillment Center",
        "archetype": "#10",
        "archetypeName": "Ship/Rcv Separate (Gate+GS)",
        "confidence": "high",
        "zone": "perimeter",
        "truckGate": true,
        "guardShack": true,
        "remoteGs": false,
        "fastLaneOpportunity": true,
        "backupSensitive": false,
        "dropYard": true,
        "multipleFacilities": false,
        "scale": false,
        "shipRcvSeparate": true,
        "urbanRural": "Urban",
        "dockDoors": "50+",
        "dropArea": "50+",
        "yardMetrics": {
          "dockDoorCount": 120,
          "trailersVisible": 160,
          "trailerParkingCapacity": 220,
          "truckGateCount": 1,
          "buildingCount": 1,
          "siteAreaAcres": 47,
          "railServed": false
        }
      }
    },
    {
      "type": "Feature",
      "geometry": {
        "type": "Polygon",
        "coordinates": [
          [
            [
              null,
              null
            ],
            [
              null,
              null
            ],
            [
              null,
              null
            ],
            [
              null,
              null
            ],
            [
              null,
              null
            ]
          ]
        ]
      },
      "properties": {
        "account": "amazon",
        "name": "Amazon LGB3 Fulfillment Center Eastvale CA",
        "type": "Fulfillment Center",
        "archetype": "#10",
        "archetypeName": "Ship/Rcv Separate (Gate+GS)",
        "confidence": "high",
        "zone": "truckGate"
      }
    },
    {
      "type": "Feature",
      "geometry": {
        "type": "Polygon",
        "coordinates": [
          [
            [
              null,
              null
            ],
            [
              null,
              null
            ],
            [
              null,
              null
            ],
            [
              null,
              null
            ],
            [
              null,
              null
            ]
          ]
        ]
      },
      "properties": {
        "account": "amazon",
        "name": "Amazon LGB3 Fulfillment Center Eastvale CA",
        "type": "Fulfillment Center",
        "archetype": "#10",
        "archetypeName": "Ship/Rcv Separate (Gate+GS)",
        "confidence": "high",
        "zone": "dropYard",
        "index": 1
      }
    },
    {
      "type": "Feature",
      "geometry": {
        "type": "Polygon",
        "coordinates": [
          [
            [
              null,
              null
            ],
            [
              null,
              null
            ],
            [
              null,
              null
            ],
            [
              null,
              null
            ],
            [
              null,
              null
            ]
          ]
        ]
      },
      "properties": {
        "account": "amazon",
        "name": "Amazon LGB3 Fulfillment Center Eastvale CA",
        "type": "Fulfillment Center",
        "archetype": "#10",
        "archetypeName": "Ship/Rcv Separate (Gate+GS)",
        "confidence": "high",
        "zone": "dockApron",
        "index": 1
      }
    },
    {
      "type": "Feature",
      "geometry": {
        "type": "Polygon",
        "coordinates": [
          [
            [
              null,
              null
            ],
            [
              null,
              null
            ],
            [
              null,
              null
            ],
            [
              null,
              null
            ],
            [
              null,
              null
            ]
          ]
        ]
      },
      "properties": {
        "account": "amazon",
        "name": "Amazon LGB3 Fulfillment Center Eastvale CA",
        "type": "Fulfillment Center",
        "archetype": "#10",
        "archetypeName": "Ship/Rcv Separate (Gate+GS)",
        "confidence": "high",
        "zone": "dockApron",
        "index": 2
      }
    },
    {
      "type": "Feature",
      "geometry": {
        "type": "Polygon",
        "coordinates": [
          [
            [
              null,
              null
            ],
            [
              null,
              null
            ],
            [
              null,
              null
            ],
            [
              null,
              null
            ],
            [
              null,
              null
            ]
          ]
        ]
      },
      "properties": {
        "account": "amazon",
        "name": "Amazon SBD2 Fulfillment Center San Bernardino CA",
        "type": "Fulfillment Center",
        "archetype": "#6",
        "archetypeName": "Gate + GS (not BU sens.) + campus",
        "confidence": "high",
        "zone": "perimeter",
        "truckGate": true,
        "guardShack": true,
        "remoteGs": false,
        "fastLaneOpportunity": true,
        "backupSensitive": false,
        "dropYard": true,
        "multipleFacilities": true,
        "scale": false,
        "shipRcvSeparate": true,
        "urbanRural": "Urban",
        "dockDoors": "50+",
        "dropArea": "50+",
        "yardMetrics": {
          "dockDoorCount": 90,
          "trailersVisible": 180,
          "trailerParkingCapacity": 260,
          "truckGateCount": 1,
          "buildingCount": 2,
          "siteAreaAcres": 88.9,
          "railServed": false
        }
      }
    },
    {
      "type": "Feature",
      "geometry": {
        "type": "Polygon",
        "coordinates": [
          [
            [
              null,
              null
            ],
            [
              null,
              null
            ],
            [
              null,
              null
            ],
            [
              null,
              null
            ],
            [
              null,
              null
            ]
          ]
        ]
      },
      "properties": {
        "account": "amazon",
        "name": "Amazon SBD2 Fulfillment Center San Bernardino CA",
        "type": "Fulfillment Center",
        "archetype": "#6",
        "archetypeName": "Gate + GS (not BU sens.) + campus",
        "confidence": "high",
        "zone": "truckGate"
      }
    },
    {
      "type": "Feature",
      "geometry": {
        "type": "Polygon",
        "coordinates": [
          [
            [
              null,
              null
            ],
            [
              null,
              null
            ],
            [
              null,
              null
            ],
            [
              null,
              null
            ],
            [
              null,
              null
            ]
          ]
        ]
      },
      "properties": {
        "account": "amazon",
        "name": "Amazon SBD2 Fulfillment Center San Bernardino CA",
        "type": "Fulfillment Center",
        "archetype": "#6",
        "archetypeName": "Gate + GS (not BU sens.) + campus",
        "confidence": "high",
        "zone": "dropYard",
        "index": 1
      }
    },
    {
      "type": "Feature",
      "geometry": {
        "type": "Polygon",
        "coordinates": [
          [
            [
              null,
              null
            ],
            [
              null,
              null
            ],
            [
              null,
              null
            ],
            [
              null,
              null
            ],
            [
              null,
              null
            ]
          ]
        ]
      },
      "properties": {
        "account": "amazon",
        "name": "Amazon SBD2 Fulfillment Center San Bernardino CA",
        "type": "Fulfillment Center",
        "archetype": "#6",
        "archetypeName": "Gate + GS (not BU sens.) + campus",
        "confidence": "high",
        "zone": "dropYard",
        "index": 2
      }
    },
    {
      "type": "Feature",
      "geometry": {
        "type": "Polygon",
        "coordinates": [
          [
            [
              null,
              null
            ],
            [
              null,
              null
            ],
            [
              null,
              null
            ],
            [
              null,
              null
            ],
            [
              null,
              null
            ]
          ]
        ]
      },
      "properties": {
        "account": "amazon",
        "name": "Amazon SBD2 Fulfillment Center San Bernardino CA",
        "type": "Fulfillment Center",
        "archetype": "#6",
        "archetypeName": "Gate + GS (not BU sens.) + campus",
        "confidence": "high",
        "zone": "dockApron",
        "index": 1
      }
    },
    {
      "type": "Feature",
      "geometry": {
        "type": "Polygon",
        "coordinates": [
          [
            [
              null,
              null
            ],
            [
              null,
              null
            ],
            [
              null,
              null
            ],
            [
              null,
              null
            ],
            [
              null,
              null
            ]
          ]
        ]
      },
      "properties": {
        "account": "amazon",
        "name": "Amazon SBD2 Fulfillment Center San Bernardino CA",
        "type": "Fulfillment Center",
        "archetype": "#6",
        "archetypeName": "Gate + GS (not BU sens.) + campus",
        "confidence": "high",
        "zone": "dockApron",
        "index": 2
      }
    },
    {
      "type": "Feature",
      "geometry": {
        "type": "Polygon",
        "coordinates": [
          [
            [
              null,
              null
            ],
            [
              null,
              null
            ],
            [
              null,
              null
            ],
            [
              null,
              null
            ],
            [
              null,
              null
            ]
          ]
        ]
      },
      "properties": {
        "account": "amazon",
        "name": "Amazon SBD2 Fulfillment Center San Bernardino CA",
        "type": "Fulfillment Center",
        "archetype": "#6",
        "archetypeName": "Gate + GS (not BU sens.) + campus",
        "confidence": "high",
        "zone": "staging"
      }
    },
    {
      "type": "Feature",
      "geometry": {
        "type": "Polygon",
        "coordinates": [
          [
            [
              null,
              null
            ],
            [
              null,
              null
            ],
            [
              null,
              null
            ],
            [
              null,
              null
            ],
            [
              null,
              null
            ]
          ]
        ]
      },
      "properties": {
        "account": "amazon",
        "name": "Amazon TPA1 Fulfillment Center Ruskin FL",
        "type": "Fulfillment Center",
        "archetype": "#7",
        "archetypeName": "Gate + GS (not BU sens.) + fast lane opp",
        "confidence": "high",
        "zone": "perimeter",
        "truckGate": true,
        "guardShack": true,
        "remoteGs": false,
        "fastLaneOpportunity": true,
        "backupSensitive": false,
        "dropYard": true,
        "multipleFacilities": false,
        "scale": false,
        "shipRcvSeparate": false,
        "urbanRural": "Rural",
        "dockDoors": "50+",
        "dropArea": "50+",
        "yardMetrics": {
          "dockDoorCount": 120,
          "trailersVisible": 140,
          "trailerParkingCapacity": 200,
          "truckGateCount": 1,
          "buildingCount": 1,
          "siteAreaAcres": 65.4,
          "railServed": false
        }
      }
    },
    {
      "type": "Feature",
      "geometry": {
        "type": "Polygon",
        "coordinates": [
          [
            [
              null,
              null
            ],
            [
              null,
              null
            ],
            [
              null,
              null
            ],
            [
              null,
              null
            ],
            [
              null,
              null
            ]
          ]
        ]
      },
      "properties": {
        "account": "amazon",
        "name": "Amazon TPA1 Fulfillment Center Ruskin FL",
        "type": "Fulfillment Center",
        "archetype": "#7",
        "archetypeName": "Gate + GS (not BU sens.) + fast lane opp",
        "confidence": "high",
        "zone": "truckGate"
      }
    },
    {
      "type": "Feature",
      "geometry": {
        "type": "Polygon",
        "coordinates": [
          [
            [
              null,
              null
            ],
            [
              null,
              null
            ],
            [
              null,
              null
            ],
            [
              null,
              null
            ],
            [
              null,
              null
            ]
          ]
        ]
      },
      "properties": {
        "account": "amazon",
        "name": "Amazon TPA1 Fulfillment Center Ruskin FL",
        "type": "Fulfillment Center",
        "archetype": "#7",
        "archetypeName": "Gate + GS (not BU sens.) + fast lane opp",
        "confidence": "high",
        "zone": "dropYard",
        "index": 1
      }
    },
    {
      "type": "Feature",
      "geometry": {
        "type": "Polygon",
        "coordinates": [
          [
            [
              null,
              null
            ],
            [
              null,
              null
            ],
            [
              null,
              null
            ],
            [
              null,
              null
            ],
            [
              null,
              null
            ]
          ]
        ]
      },
      "properties": {
        "account": "amazon",
        "name": "Amazon TPA1 Fulfillment Center Ruskin FL",
        "type": "Fulfillment Center",
        "archetype": "#7",
        "archetypeName": "Gate + GS (not BU sens.) + fast lane opp",
        "confidence": "high",
        "zone": "dropYard",
        "index": 2
      }
    },
    {
      "type": "Feature",
      "geometry": {
        "type": "Polygon",
        "coordinates": [
          [
            [
              null,
              null
            ],
            [
              null,
              null
            ],
            [
              null,
              null
            ],
            [
              null,
              null
            ],
            [
              null,
              null
            ]
          ]
        ]
      },
      "properties": {
        "account": "amazon",
        "name": "Amazon TPA1 Fulfillment Center Ruskin FL",
        "type": "Fulfillment Center",
        "archetype": "#7",
        "archetypeName": "Gate + GS (not BU sens.) + fast lane opp",
        "confidence": "high",
        "zone": "dockApron",
        "index": 1
      }
    },
    {
      "type": "Feature",
      "geometry": {
        "type": "Polygon",
        "coordinates": [
          [
            [
              null,
              null
            ],
            [
              null,
              null
            ],
            [
              null,
              null
            ],
            [
              null,
              null
            ],
            [
              null,
              null
            ]
          ]
        ]
      },
      "properties": {
        "account": "amazon",
        "name": "Amazon TPA1 Fulfillment Center Ruskin FL",
        "type": "Fulfillment Center",
        "archetype": "#7",
        "archetypeName": "Gate + GS (not BU sens.) + fast lane opp",
        "confidence": "high",
        "zone": "staging"
      }
    },
    {
      "type": "Feature",
      "geometry": {
        "type": "Polygon",
        "coordinates": [
          [
            [
              null,
              null
            ],
            [
              null,
              null
            ],
            [
              null,
              null
            ],
            [
              null,
              null
            ],
            [
              null,
              null
            ]
          ]
        ]
      },
      "properties": {
        "account": "amazon",
        "name": "Amazon SCK4 Inbound Cross-Dock Stockton CA",
        "type": "Inbound Cross-Dock (IXD)",
        "archetype": "#10",
        "archetypeName": "Ship/Rcv Separate (Gate+GS)",
        "confidence": "high",
        "zone": "perimeter",
        "truckGate": true,
        "guardShack": true,
        "remoteGs": false,
        "fastLaneOpportunity": true,
        "backupSensitive": false,
        "dropYard": true,
        "multipleFacilities": false,
        "scale": false,
        "shipRcvSeparate": true,
        "urbanRural": "Rural",
        "dockDoors": "50+",
        "dropArea": "50+",
        "yardMetrics": {
          "dockDoorCount": 200,
          "trailersVisible": 420,
          "trailerParkingCapacity": 600,
          "truckGateCount": 1,
          "buildingCount": 1,
          "siteAreaAcres": 60,
          "railServed": false
        }
      }
    },
    {
      "type": "Feature",
      "geometry": {
        "type": "Polygon",
        "coordinates": [
          [
            [
              null,
              null
            ],
            [
              null,
              null
            ],
            [
              null,
              null
            ],
            [
              null,
              null
            ],
            [
              null,
              null
            ]
          ]
        ]
      },
      "properties": {
        "account": "amazon",
        "name": "Amazon SCK4 Inbound Cross-Dock Stockton CA",
        "type": "Inbound Cross-Dock (IXD)",
        "archetype": "#10",
        "archetypeName": "Ship/Rcv Separate (Gate+GS)",
        "confidence": "high",
        "zone": "truckGate"
      }
    },
    {
      "type": "Feature",
      "geometry": {
        "type": "Polygon",
        "coordinates": [
          [
            [
              null,
              null
            ],
            [
              null,
              null
            ],
            [
              null,
              null
            ],
            [
              null,
              null
            ],
            [
              null,
              null
            ]
          ]
        ]
      },
      "properties": {
        "account": "amazon",
        "name": "Amazon SCK4 Inbound Cross-Dock Stockton CA",
        "type": "Inbound Cross-Dock (IXD)",
        "archetype": "#10",
        "archetypeName": "Ship/Rcv Separate (Gate+GS)",
        "confidence": "high",
        "zone": "dropYard",
        "index": 1
      }
    },
    {
      "type": "Feature",
      "geometry": {
        "type": "Polygon",
        "coordinates": [
          [
            [
              null,
              null
            ],
            [
              null,
              null
            ],
            [
              null,
              null
            ],
            [
              null,
              null
            ],
            [
              null,
              null
            ]
          ]
        ]
      },
      "properties": {
        "account": "amazon",
        "name": "Amazon SCK4 Inbound Cross-Dock Stockton CA",
        "type": "Inbound Cross-Dock (IXD)",
        "archetype": "#10",
        "archetypeName": "Ship/Rcv Separate (Gate+GS)",
        "confidence": "high",
        "zone": "dropYard",
        "index": 2
      }
    },
    {
      "type": "Feature",
      "geometry": {
        "type": "Polygon",
        "coordinates": [
          [
            [
              null,
              null
            ],
            [
              null,
              null
            ],
            [
              null,
              null
            ],
            [
              null,
              null
            ],
            [
              null,
              null
            ]
          ]
        ]
      },
      "properties": {
        "account": "amazon",
        "name": "Amazon SCK4 Inbound Cross-Dock Stockton CA",
        "type": "Inbound Cross-Dock (IXD)",
        "archetype": "#10",
        "archetypeName": "Ship/Rcv Separate (Gate+GS)",
        "confidence": "high",
        "zone": "dockApron",
        "index": 1
      }
    },
    {
      "type": "Feature",
      "geometry": {
        "type": "Polygon",
        "coordinates": [
          [
            [
              null,
              null
            ],
            [
              null,
              null
            ],
            [
              null,
              null
            ],
            [
              null,
              null
            ],
            [
              null,
              null
            ]
          ]
        ]
      },
      "properties": {
        "account": "amazon",
        "name": "Amazon SCK4 Inbound Cross-Dock Stockton CA",
        "type": "Inbound Cross-Dock (IXD)",
        "archetype": "#10",
        "archetypeName": "Ship/Rcv Separate (Gate+GS)",
        "confidence": "high",
        "zone": "dockApron",
        "index": 2
      }
    },
    {
      "type": "Feature",
      "geometry": {
        "type": "Polygon",
        "coordinates": [
          [
            [
              null,
              null
            ],
            [
              null,
              null
            ],
            [
              null,
              null
            ],
            [
              null,
              null
            ],
            [
              null,
              null
            ]
          ]
        ]
      },
      "properties": {
        "account": "amazon",
        "name": "Amazon SCK4 Inbound Cross-Dock Stockton CA",
        "type": "Inbound Cross-Dock (IXD)",
        "archetype": "#10",
        "archetypeName": "Ship/Rcv Separate (Gate+GS)",
        "confidence": "high",
        "zone": "staging"
      }
    },
    {
      "type": "Feature",
      "geometry": {
        "type": "Polygon",
        "coordinates": [
          [
            [
              null,
              null
            ],
            [
              null,
              null
            ],
            [
              null,
              null
            ],
            [
              null,
              null
            ],
            [
              null,
              null
            ]
          ]
        ]
      },
      "properties": {
        "account": "amazon",
        "name": "Amazon SCK6 Sortation Center Tracy CA",
        "type": "Sortation Center",
        "archetype": "#10",
        "archetypeName": "Ship/Rcv Separate (Gate+GS)",
        "confidence": "high",
        "zone": "perimeter",
        "truckGate": true,
        "guardShack": true,
        "remoteGs": false,
        "fastLaneOpportunity": true,
        "backupSensitive": false,
        "dropYard": true,
        "multipleFacilities": false,
        "scale": false,
        "shipRcvSeparate": true,
        "urbanRural": "Rural",
        "dockDoors": "50+",
        "dropArea": "50+",
        "yardMetrics": {
          "dockDoorCount": 60,
          "trailersVisible": 230,
          "trailerParkingCapacity": 260,
          "truckGateCount": 1,
          "buildingCount": 1,
          "siteAreaAcres": 68.2,
          "railServed": false
        }
      }
    },
    {
      "type": "Feature",
      "geometry": {
        "type": "Polygon",
        "coordinates": [
          [
            [
              null,
              null
            ],
            [
              null,
              null
            ],
            [
              null,
              null
            ],
            [
              null,
              null
            ],
            [
              null,
              null
            ]
          ]
        ]
      },
      "properties": {
        "account": "amazon",
        "name": "Amazon SCK6 Sortation Center Tracy CA",
        "type": "Sortation Center",
        "archetype": "#10",
        "archetypeName": "Ship/Rcv Separate (Gate+GS)",
        "confidence": "high",
        "zone": "truckGate"
      }
    },
    {
      "type": "Feature",
      "geometry": {
        "type": "Polygon",
        "coordinates": [
          [
            [
              null,
              null
            ],
            [
              null,
              null
            ],
            [
              null,
              null
            ],
            [
              null,
              null
            ],
            [
              null,
              null
            ]
          ]
        ]
      },
      "properties": {
        "account": "amazon",
        "name": "Amazon SCK6 Sortation Center Tracy CA",
        "type": "Sortation Center",
        "archetype": "#10",
        "archetypeName": "Ship/Rcv Separate (Gate+GS)",
        "confidence": "high",
        "zone": "dropYard",
        "index": 1
      }
    },
    {
      "type": "Feature",
      "geometry": {
        "type": "Polygon",
        "coordinates": [
          [
            [
              null,
              null
            ],
            [
              null,
              null
            ],
            [
              null,
              null
            ],
            [
              null,
              null
            ],
            [
              null,
              null
            ]
          ]
        ]
      },
      "properties": {
        "account": "amazon",
        "name": "Amazon SCK6 Sortation Center Tracy CA",
        "type": "Sortation Center",
        "archetype": "#10",
        "archetypeName": "Ship/Rcv Separate (Gate+GS)",
        "confidence": "high",
        "zone": "dropYard",
        "index": 2
      }
    },
    {
      "type": "Feature",
      "geometry": {
        "type": "Polygon",
        "coordinates": [
          [
            [
              null,
              null
            ],
            [
              null,
              null
            ],
            [
              null,
              null
            ],
            [
              null,
              null
            ],
            [
              null,
              null
            ]
          ]
        ]
      },
      "properties": {
        "account": "amazon",
        "name": "Amazon SCK6 Sortation Center Tracy CA",
        "type": "Sortation Center",
        "archetype": "#10",
        "archetypeName": "Ship/Rcv Separate (Gate+GS)",
        "confidence": "high",
        "zone": "dockApron",
        "index": 1
      }
    },
    {
      "type": "Feature",
      "geometry": {
        "type": "Polygon",
        "coordinates": [
          [
            [
              null,
              null
            ],
            [
              null,
              null
            ],
            [
              null,
              null
            ],
            [
              null,
              null
            ],
            [
              null,
              null
            ]
          ]
        ]
      },
      "properties": {
        "account": "amazon",
        "name": "Amazon SCK6 Sortation Center Tracy CA",
        "type": "Sortation Center",
        "archetype": "#10",
        "archetypeName": "Ship/Rcv Separate (Gate+GS)",
        "confidence": "high",
        "zone": "dockApron",
        "index": 2
      }
    },
    {
      "type": "Feature",
      "geometry": {
        "type": "Polygon",
        "coordinates": [
          [
            [
              null,
              null
            ],
            [
              null,
              null
            ],
            [
              null,
              null
            ],
            [
              null,
              null
            ],
            [
              null,
              null
            ]
          ]
        ]
      },
      "properties": {
        "account": "amazon",
        "name": "Amazon SCK6 Sortation Center Tracy CA",
        "type": "Sortation Center",
        "archetype": "#10",
        "archetypeName": "Ship/Rcv Separate (Gate+GS)",
        "confidence": "high",
        "zone": "staging"
      }
    }
  ]
}
