{
  "type": "FeatureCollection",
  "features": [
    {
      "type": "Feature",
      "geometry": {
        "type": "Polygon",
        "coordinates": [
          [
            [
              -82.542349,
              27.397402
            ],
            [
              -82.5418,
              27.388257
            ],
            [
              -82.538916,
              27.388257
            ],
            [
              -82.53974,
              27.397402
            ],
            [
              -82.542349,
              27.397402
            ]
          ]
        ]
      },
      "properties": {
        "account": "unfi",
        "name": "UNFI - Sarasota North DC, Sarasota FL",
        "type": "Distribution Center",
        "archetype": "#9",
        "archetypeName": "Gate + No GS (remote check-in)",
        "confidence": "medium",
        "zone": "perimeter",
        "truckGate": true,
        "guardShack": false,
        "remoteGs": true,
        "fastLaneOpportunity": true,
        "backupSensitive": false,
        "dropYard": true,
        "multipleFacilities": false,
        "scale": false,
        "shipRcvSeparate": false,
        "urbanRural": "Urban",
        "dockDoors": "50+",
        "dropArea": "25-50",
        "yardMetrics": {
          "dockDoorCount": 120,
          "trailersVisible": 0,
          "trailerParkingCapacity": 300,
          "truckGateCount": 1,
          "buildingCount": 1,
          "siteAreaAcres": 95,
          "railServed": false
        }
      }
    },
    {
      "type": "Feature",
      "geometry": {
        "type": "Polygon",
        "coordinates": [
          [
            [
              -82.542349,
              27.395939
            ],
            [
              -82.542349,
              27.392037
            ],
            [
              -82.5418,
              27.392037
            ],
            [
              -82.5418,
              27.395939
            ],
            [
              -82.542349,
              27.395939
            ]
          ]
        ]
      },
      "properties": {
        "account": "unfi",
        "name": "UNFI - Sarasota North DC, Sarasota FL",
        "type": "Distribution Center",
        "archetype": "#9",
        "archetypeName": "Gate + No GS (remote check-in)",
        "confidence": "medium",
        "zone": "dockApron",
        "index": 1
      }
    },
    {
      "type": "Feature",
      "geometry": {
        "type": "Polygon",
        "coordinates": [
          [
            [
              -76.748952,
              40.075264
            ],
            [
              -76.749227,
              40.068749
            ],
            [
              -76.744832,
              40.068538
            ],
            [
              -76.743184,
              40.074423
            ],
            [
              -76.748952,
              40.075264
            ]
          ]
        ]
      },
      "properties": {
        "account": "unfi",
        "name": "UNFI - Manchester PA DC",
        "type": "Distribution Center",
        "archetype": "#10",
        "archetypeName": "Ship/Rcv Separate (Gate+GS)",
        "confidence": "medium",
        "zone": "perimeter",
        "truckGate": true,
        "guardShack": true,
        "remoteGs": false,
        "fastLaneOpportunity": true,
        "backupSensitive": false,
        "dropYard": true,
        "multipleFacilities": false,
        "scale": false,
        "shipRcvSeparate": true,
        "urbanRural": "Rural",
        "dockDoors": "50+",
        "dropArea": "50+",
        "yardMetrics": {
          "dockDoorCount": 214,
          "trailersVisible": 40,
          "trailerParkingCapacity": 492,
          "truckGateCount": 1,
          "buildingCount": 1,
          "siteAreaAcres": 129,
          "railServed": false
        }
      }
    },
    {
      "type": "Feature",
      "geometry": {
        "type": "Polygon",
        "coordinates": [
          [
            [
              -76.747579,
              40.067908
            ],
            [
              -76.747853,
              40.066647
            ],
            [
              -76.746205,
              40.066436
            ],
            [
              -76.745931,
              40.067698
            ],
            [
              -76.747579,
              40.067908
            ]
          ]
        ]
      },
      "properties": {
        "account": "unfi",
        "name": "UNFI - Manchester PA DC",
        "type": "Distribution Center",
        "archetype": "#10",
        "archetypeName": "Ship/Rcv Separate (Gate+GS)",
        "confidence": "medium",
        "zone": "truckGate"
      }
    },
    {
      "type": "Feature",
      "geometry": {
        "type": "Polygon",
        "coordinates": [
          [
            [
              -76.748128,
              40.074634
            ],
            [
              -76.748403,
              40.073793
            ],
            [
              -76.742085,
              40.073373
            ],
            [
              -76.741811,
              40.074213
            ],
            [
              -76.748128,
              40.074634
            ]
          ]
        ]
      },
      "properties": {
        "account": "unfi",
        "name": "UNFI - Manchester PA DC",
        "type": "Distribution Center",
        "archetype": "#10",
        "archetypeName": "Ship/Rcv Separate (Gate+GS)",
        "confidence": "medium",
        "zone": "dockApron",
        "index": 1
      }
    },
    {
      "type": "Feature",
      "geometry": {
        "type": "Polygon",
        "coordinates": [
          [
            [
              -77.091171,
              40.229219
            ],
            [
              -77.090759,
              40.227332
            ],
            [
              -77.084991,
              40.228066
            ],
            [
              -77.085403,
              40.229953
            ],
            [
              -77.091171,
              40.229219
            ]
          ]
        ]
      },
      "properties": {
        "account": "unfi",
        "name": "UNFI - Carlisle PA DC",
        "type": "Distribution Center",
        "archetype": "#7",
        "archetypeName": "Gate + GS (not BU sens.) + fast lane opp",
        "confidence": "medium",
        "zone": "perimeter",
        "truckGate": true,
        "guardShack": true,
        "remoteGs": false,
        "fastLaneOpportunity": true,
        "backupSensitive": false,
        "dropYard": true,
        "multipleFacilities": false,
        "scale": false,
        "shipRcvSeparate": false,
        "urbanRural": "Rural",
        "dockDoors": "50+",
        "dropArea": "50+",
        "yardMetrics": {
          "dockDoorCount": 95,
          "trailersVisible": 70,
          "trailerParkingCapacity": 110,
          "truckGateCount": 1,
          "buildingCount": 1,
          "siteAreaAcres": 52,
          "railServed": false
        }
      }
    },
    {
      "type": "Feature",
      "geometry": {
        "type": "Polygon",
        "coordinates": [
          [
            [
              -77.09028,
              40.229005
            ],
            [
              -77.090341,
              40.229272
            ],
            [
              -77.090688,
              40.229225
            ],
            [
              -77.090627,
              40.228958
            ],
            [
              -77.09028,
              40.229005
            ]
          ]
        ]
      },
      "properties": {
        "account": "unfi",
        "name": "UNFI - Carlisle PA DC",
        "type": "Distribution Center",
        "archetype": "#7",
        "archetypeName": "Gate + GS (not BU sens.) + fast lane opp",
        "confidence": "medium",
        "zone": "truckGate"
      }
    },
    {
      "type": "Feature",
      "geometry": {
        "type": "Polygon",
        "coordinates": [
          [
            [
              -77.085164,
              40.229786
            ],
            [
              -77.085205,
              40.229964
            ],
            [
              -77.090998,
              40.229178
            ],
            [
              -77.090957,
              40.229
            ],
            [
              -77.085164,
              40.229786
            ]
          ]
        ]
      },
      "properties": {
        "account": "unfi",
        "name": "UNFI - Carlisle PA DC",
        "type": "Distribution Center",
        "archetype": "#7",
        "archetypeName": "Gate + GS (not BU sens.) + fast lane opp",
        "confidence": "medium",
        "zone": "dockApron",
        "index": 1
      }
    },
    {
      "type": "Feature",
      "geometry": {
        "type": "Polygon",
        "coordinates": [
          [
            [
              -77.085896,
              40.229749
            ],
            [
              -77.085966,
              40.230052
            ],
            [
              -77.089442,
              40.229581
            ],
            [
              -77.089372,
              40.229278
            ],
            [
              -77.085896,
              40.229749
            ]
          ]
        ]
      },
      "properties": {
        "account": "unfi",
        "name": "UNFI - Carlisle PA DC",
        "type": "Distribution Center",
        "archetype": "#7",
        "archetypeName": "Gate + GS (not BU sens.) + fast lane opp",
        "confidence": "medium",
        "zone": "staging"
      }
    },
    {
      "type": "Feature",
      "geometry": {
        "type": "Polygon",
        "coordinates": [
          [
            [
              -75.598972,
              40.661843
            ],
            [
              -75.596606,
              40.661426
            ],
            [
              -75.595234,
              40.665965
            ],
            [
              -75.5976,
              40.666382
            ],
            [
              -75.598972,
              40.661843
            ]
          ]
        ]
      },
      "properties": {
        "account": "unfi",
        "name": "UNFI - Allentown PA DC",
        "type": "Distribution Center",
        "archetype": "#6",
        "archetypeName": "Gate + GS (not BU sens.) + campus",
        "confidence": "medium",
        "zone": "perimeter",
        "truckGate": true,
        "guardShack": true,
        "remoteGs": false,
        "fastLaneOpportunity": true,
        "backupSensitive": false,
        "dropYard": true,
        "multipleFacilities": true,
        "scale": false,
        "shipRcvSeparate": true,
        "urbanRural": "Rural",
        "dockDoors": "50+",
        "dropArea": "50+",
        "yardMetrics": {
          "dockDoorCount": 180,
          "trailersVisible": 90,
          "trailerParkingCapacity": 200,
          "truckGateCount": 1,
          "buildingCount": 2,
          "siteAreaAcres": 107,
          "railServed": false
        }
      }
    },
    {
      "type": "Feature",
      "geometry": {
        "type": "Polygon",
        "coordinates": [
          [
            [
              -75.596712,
              40.661963
            ],
            [
              -75.596412,
              40.66191
            ],
            [
              -75.59516,
              40.666053
            ],
            [
              -75.59546,
              40.666106
            ],
            [
              -75.596712,
              40.661963
            ]
          ]
        ]
      },
      "properties": {
        "account": "unfi",
        "name": "UNFI - Allentown PA DC",
        "type": "Distribution Center",
        "archetype": "#6",
        "archetypeName": "Gate + GS (not BU sens.) + campus",
        "confidence": "medium",
        "zone": "dockApron",
        "index": 1
      }
    },
    {
      "type": "Feature",
      "geometry": {
        "type": "Polygon",
        "coordinates": [
          [
            [
              -72.491931,
              42.891893
            ],
            [
              -72.491794,
              42.890283
            ],
            [
              -72.488498,
              42.890283
            ],
            [
              -72.488635,
              42.891893
            ],
            [
              -72.491931,
              42.891893
            ]
          ]
        ]
      },
      "properties": {
        "account": "unfi",
        "name": "UNFI - Chesterfield NH DC",
        "type": "Distribution Center",
        "archetype": "#3",
        "archetypeName": "No Gate / No GS",
        "confidence": "high",
        "zone": "perimeter",
        "truckGate": false,
        "guardShack": false,
        "remoteGs": false,
        "fastLaneOpportunity": false,
        "backupSensitive": false,
        "dropYard": false,
        "multipleFacilities": false,
        "scale": false,
        "shipRcvSeparate": false,
        "urbanRural": "Rural",
        "dockDoors": "25-50",
        "dropArea": "10-25",
        "yardMetrics": {
          "dockDoorCount": 36,
          "trailersVisible": 30,
          "trailerParkingCapacity": 40,
          "truckGateCount": 1,
          "buildingCount": 2,
          "siteAreaAcres": 22.7,
          "railServed": false
        }
      }
    },
    {
      "type": "Feature",
      "geometry": {
        "type": "Polygon",
        "coordinates": [
          [
            [
              -72.491382,
              42.892296
            ],
            [
              -72.491382,
              42.891893
            ],
            [
              -72.49097,
              42.891893
            ],
            [
              -72.49097,
              42.892296
            ],
            [
              -72.491382,
              42.892296
            ]
          ]
        ]
      },
      "properties": {
        "account": "unfi",
        "name": "UNFI - Chesterfield NH DC",
        "type": "Distribution Center",
        "archetype": "#3",
        "archetypeName": "No Gate / No GS",
        "confidence": "high",
        "zone": "truckGate"
      }
    },
    {
      "type": "Feature",
      "geometry": {
        "type": "Polygon",
        "coordinates": [
          [
            [
              -72.491863,
              42.891792
            ],
            [
              -72.491863,
              42.890484
            ],
            [
              -72.491245,
              42.890484
            ],
            [
              -72.491245,
              42.891792
            ],
            [
              -72.491863,
              42.891792
            ]
          ]
        ]
      },
      "properties": {
        "account": "unfi",
        "name": "UNFI - Chesterfield NH DC",
        "type": "Distribution Center",
        "archetype": "#3",
        "archetypeName": "No Gate / No GS",
        "confidence": "high",
        "zone": "dropYard",
        "index": 1
      }
    },
    {
      "type": "Feature",
      "geometry": {
        "type": "Polygon",
        "coordinates": [
          [
            [
              -72.491245,
              42.891692
            ],
            [
              -72.491245,
              42.890484
            ],
            [
              -72.491107,
              42.890484
            ],
            [
              -72.491107,
              42.891692
            ],
            [
              -72.491245,
              42.891692
            ]
          ]
        ]
      },
      "properties": {
        "account": "unfi",
        "name": "UNFI - Chesterfield NH DC",
        "type": "Distribution Center",
        "archetype": "#3",
        "archetypeName": "No Gate / No GS",
        "confidence": "high",
        "zone": "dockApron",
        "index": 1
      }
    },
    {
      "type": "Feature",
      "geometry": {
        "type": "Polygon",
        "coordinates": [
          [
            [
              -74.237824,
              41.494579
            ],
            [
              -74.237549,
              41.492727
            ],
            [
              -74.234116,
              41.492007
            ],
            [
              -74.233155,
              41.493344
            ],
            [
              -74.235489,
              41.49499
            ],
            [
              -74.237824,
              41.494579
            ]
          ]
        ]
      },
      "properties": {
        "account": "unfi",
        "name": "UNFI - Montgomery NY DC (Hudson Valley)",
        "type": "Distribution Center",
        "archetype": "#7",
        "archetypeName": "Gate + GS (not BU sens.) + fast lane opp",
        "confidence": "medium",
        "zone": "perimeter",
        "truckGate": true,
        "guardShack": true,
        "remoteGs": false,
        "fastLaneOpportunity": true,
        "backupSensitive": false,
        "dropYard": true,
        "multipleFacilities": false,
        "scale": false,
        "shipRcvSeparate": false,
        "urbanRural": "Rural",
        "dockDoors": "50+",
        "dropArea": "50+",
        "yardMetrics": {
          "dockDoorCount": 90,
          "trailersVisible": 75,
          "trailerParkingCapacity": 120,
          "truckGateCount": 1,
          "buildingCount": 2,
          "siteAreaAcres": 48,
          "railServed": false
        }
      }
    },
    {
      "type": "Feature",
      "geometry": {
        "type": "Polygon",
        "coordinates": [
          [
            [
              -74.238923,
              41.493447
            ],
            [
              -74.23906,
              41.49283
            ],
            [
              -74.238236,
              41.492727
            ],
            [
              -74.238099,
              41.493344
            ],
            [
              -74.238923,
              41.493447
            ]
          ]
        ]
      },
      "properties": {
        "account": "unfi",
        "name": "UNFI - Montgomery NY DC (Hudson Valley)",
        "type": "Distribution Center",
        "archetype": "#7",
        "archetypeName": "Gate + GS (not BU sens.) + fast lane opp",
        "confidence": "medium",
        "zone": "truckGate"
      }
    },
    {
      "type": "Feature",
      "geometry": {
        "type": "Polygon",
        "coordinates": [
          [
            [
              -74.238373,
              41.494579
            ],
            [
              -74.238511,
              41.492933
            ],
            [
              -74.237687,
              41.49283
            ],
            [
              -74.237549,
              41.494476
            ],
            [
              -74.238373,
              41.494579
            ]
          ]
        ]
      },
      "properties": {
        "account": "unfi",
        "name": "UNFI - Montgomery NY DC (Hudson Valley)",
        "type": "Distribution Center",
        "archetype": "#7",
        "archetypeName": "Gate + GS (not BU sens.) + fast lane opp",
        "confidence": "medium",
        "zone": "dropYard",
        "index": 1
      }
    },
    {
      "type": "Feature",
      "geometry": {
        "type": "Polygon",
        "coordinates": [
          [
            [
              -74.237549,
              41.494476
            ],
            [
              -74.237687,
              41.49283
            ],
            [
              -74.237275,
              41.49283
            ],
            [
              -74.237137,
              41.494476
            ],
            [
              -74.237549,
              41.494476
            ]
          ]
        ]
      },
      "properties": {
        "account": "unfi",
        "name": "UNFI - Montgomery NY DC (Hudson Valley)",
        "type": "Distribution Center",
        "archetype": "#7",
        "archetypeName": "Gate + GS (not BU sens.) + fast lane opp",
        "confidence": "medium",
        "zone": "dockApron",
        "index": 1
      }
    },
    {
      "type": "Feature",
      "geometry": {
        "type": "Polygon",
        "coordinates": [
          [
            [
              -74.190235,
              40.14138
            ],
            [
              -74.191059,
              40.138755
            ],
            [
              -74.187213,
              40.13802
            ],
            [
              -74.186252,
              40.140645
            ],
            [
              -74.190235,
              40.14138
            ]
          ]
        ]
      },
      "properties": {
        "account": "unfi",
        "name": "UNFI - Howell NJ DC",
        "type": "Distribution Center",
        "archetype": "#6",
        "archetypeName": "Gate + GS (not BU sens.) + campus",
        "confidence": "medium",
        "zone": "perimeter",
        "truckGate": true,
        "guardShack": true,
        "remoteGs": false,
        "fastLaneOpportunity": false,
        "backupSensitive": false,
        "dropYard": true,
        "multipleFacilities": true,
        "scale": false,
        "shipRcvSeparate": false,
        "urbanRural": "Urban",
        "dockDoors": "50+",
        "dropArea": "10-25",
        "yardMetrics": {
          "dockDoorCount": 55,
          "trailersVisible": 50,
          "trailerParkingCapacity": 70,
          "truckGateCount": 1,
          "buildingCount": 3,
          "siteAreaAcres": 42,
          "railServed": false
        }
      }
    },
    {
      "type": "Feature",
      "geometry": {
        "type": "Polygon",
        "coordinates": [
          [
            [
              -74.190784,
              40.139175
            ],
            [
              -74.190921,
              40.13865
            ],
            [
              -74.190235,
              40.138545
            ],
            [
              -74.190097,
              40.13907
            ],
            [
              -74.190784,
              40.139175
            ]
          ]
        ]
      },
      "properties": {
        "account": "unfi",
        "name": "UNFI - Howell NJ DC",
        "type": "Distribution Center",
        "archetype": "#6",
        "archetypeName": "Gate + GS (not BU sens.) + campus",
        "confidence": "medium",
        "zone": "truckGate"
      }
    },
    {
      "type": "Feature",
      "geometry": {
        "type": "Polygon",
        "coordinates": [
          [
            [
              -74.189548,
              40.138125
            ],
            [
              -74.189685,
              40.137495
            ],
            [
              -74.187763,
              40.13718
            ],
            [
              -74.187625,
              40.13781
            ],
            [
              -74.189548,
              40.138125
            ]
          ]
        ]
      },
      "properties": {
        "account": "unfi",
        "name": "UNFI - Howell NJ DC",
        "type": "Distribution Center",
        "archetype": "#6",
        "archetypeName": "Gate + GS (not BU sens.) + campus",
        "confidence": "medium",
        "zone": "dropYard",
        "index": 1
      }
    },
    {
      "type": "Feature",
      "geometry": {
        "type": "Polygon",
        "coordinates": [
          [
            [
              -74.190097,
              40.140855
            ],
            [
              -74.190235,
              40.140435
            ],
            [
              -74.186664,
              40.139805
            ],
            [
              -74.186527,
              40.140225
            ],
            [
              -74.190097,
              40.140855
            ]
          ]
        ]
      },
      "properties": {
        "account": "unfi",
        "name": "UNFI - Howell NJ DC",
        "type": "Distribution Center",
        "archetype": "#6",
        "archetypeName": "Gate + GS (not BU sens.) + campus",
        "confidence": "medium",
        "zone": "dockApron",
        "index": 1
      }
    },
    {
      "type": "Feature",
      "geometry": {
        "type": "Polygon",
        "coordinates": [
          [
            [
              -71.909809,
              41.864736
            ],
            [
              -71.909809,
              41.861873
            ],
            [
              -71.905552,
              41.861873
            ],
            [
              -71.905552,
              41.864736
            ],
            [
              -71.909809,
              41.864736
            ]
          ]
        ]
      },
      "properties": {
        "account": "unfi",
        "name": "UNFI - Dayville CT DC",
        "type": "Distribution Center",
        "archetype": "#3",
        "archetypeName": "No Gate / No GS",
        "confidence": "high",
        "zone": "perimeter",
        "truckGate": false,
        "guardShack": false,
        "remoteGs": false,
        "fastLaneOpportunity": false,
        "backupSensitive": false,
        "dropYard": true,
        "multipleFacilities": true,
        "scale": false,
        "shipRcvSeparate": false,
        "urbanRural": "Rural",
        "dockDoors": "50+",
        "dropArea": "50+",
        "yardMetrics": {
          "dockDoorCount": 60,
          "trailersVisible": 95,
          "trailerParkingCapacity": 120,
          "truckGateCount": 1,
          "buildingCount": 2,
          "siteAreaAcres": 30.5,
          "railServed": false
        }
      }
    },
    {
      "type": "Feature",
      "geometry": {
        "type": "Polygon",
        "coordinates": [
          [
            [
              -71.909535,
              41.864532
            ],
            [
              -71.909535,
              41.862589
            ],
            [
              -71.908161,
              41.862589
            ],
            [
              -71.908161,
              41.864532
            ],
            [
              -71.909535,
              41.864532
            ]
          ]
        ]
      },
      "properties": {
        "account": "unfi",
        "name": "UNFI - Dayville CT DC",
        "type": "Distribution Center",
        "archetype": "#3",
        "archetypeName": "No Gate / No GS",
        "confidence": "high",
        "zone": "dropYard",
        "index": 1
      }
    },
    {
      "type": "Feature",
      "geometry": {
        "type": "Polygon",
        "coordinates": [
          [
            [
              -71.908161,
              41.864532
            ],
            [
              -71.908161,
              41.862589
            ],
            [
              -71.907887,
              41.862589
            ],
            [
              -71.907887,
              41.864532
            ],
            [
              -71.908161,
              41.864532
            ]
          ]
        ]
      },
      "properties": {
        "account": "unfi",
        "name": "UNFI - Dayville CT DC",
        "type": "Distribution Center",
        "archetype": "#3",
        "archetypeName": "No Gate / No GS",
        "confidence": "high",
        "zone": "dockApron",
        "index": 1
      }
    },
    {
      "type": "Feature",
      "geometry": {
        "type": "Polygon",
        "coordinates": [
          [
            [
              -79.614373,
              40.213339
            ],
            [
              -79.614511,
              40.210298
            ],
            [
              -79.610665,
              40.210193
            ],
            [
              -79.610528,
              40.213234
            ],
            [
              -79.614373,
              40.213339
            ]
          ]
        ]
      },
      "properties": {
        "account": "unfi",
        "name": "UNFI - New Stanton PA DC (Hunker)",
        "type": "Distribution Center",
        "archetype": "#9",
        "archetypeName": "Gate + No GS (remote check-in)",
        "confidence": "medium",
        "zone": "perimeter",
        "truckGate": true,
        "guardShack": false,
        "remoteGs": true,
        "fastLaneOpportunity": true,
        "backupSensitive": false,
        "dropYard": true,
        "multipleFacilities": false,
        "scale": false,
        "shipRcvSeparate": true,
        "urbanRural": "Rural",
        "dockDoors": "50+",
        "dropArea": "50+",
        "yardMetrics": {
          "dockDoorCount": 95,
          "trailersVisible": 70,
          "trailerParkingCapacity": 130,
          "truckGateCount": 1,
          "buildingCount": 2,
          "siteAreaAcres": 52,
          "railServed": true
        }
      }
    },
    {
      "type": "Feature",
      "geometry": {
        "type": "Polygon",
        "coordinates": [
          [
            [
              -79.615197,
              40.213339
            ],
            [
              -79.615335,
              40.21271
            ],
            [
              -79.614511,
              40.212605
            ],
            [
              -79.614373,
              40.213234
            ],
            [
              -79.615197,
              40.213339
            ]
          ]
        ]
      },
      "properties": {
        "account": "unfi",
        "name": "UNFI - New Stanton PA DC (Hunker)",
        "type": "Distribution Center",
        "archetype": "#9",
        "archetypeName": "Gate + No GS (remote check-in)",
        "confidence": "medium",
        "zone": "truckGate"
      }
    },
    {
      "type": "Feature",
      "geometry": {
        "type": "Polygon",
        "coordinates": [
          [
            [
              -79.615197,
              40.213654
            ],
            [
              -79.615197,
              40.213339
            ],
            [
              -79.612313,
              40.213234
            ],
            [
              -79.612313,
              40.213549
            ],
            [
              -79.615197,
              40.213654
            ]
          ]
        ]
      },
      "properties": {
        "account": "unfi",
        "name": "UNFI - New Stanton PA DC (Hunker)",
        "type": "Distribution Center",
        "archetype": "#9",
        "archetypeName": "Gate + No GS (remote check-in)",
        "confidence": "medium",
        "zone": "dropYard",
        "index": 1
      }
    },
    {
      "type": "Feature",
      "geometry": {
        "type": "Polygon",
        "coordinates": [
          [
            [
              -79.614373,
              40.213129
            ],
            [
              -79.614442,
              40.21271
            ],
            [
              -79.610871,
              40.212605
            ],
            [
              -79.610803,
              40.213024
            ],
            [
              -79.614373,
              40.213129
            ]
          ]
        ]
      },
      "properties": {
        "account": "unfi",
        "name": "UNFI - New Stanton PA DC (Hunker)",
        "type": "Distribution Center",
        "archetype": "#9",
        "archetypeName": "Gate + No GS (remote check-in)",
        "confidence": "medium",
        "zone": "dockApron",
        "index": 1
      }
    },
    {
      "type": "Feature",
      "geometry": {
        "type": "Polygon",
        "coordinates": [
          [
            [
              -79.614373,
              40.210822
            ],
            [
              -79.614373,
              40.210507
            ],
            [
              -79.610665,
              40.210403
            ],
            [
              -79.610665,
              40.210717
            ],
            [
              -79.614373,
              40.210822
            ]
          ]
        ]
      },
      "properties": {
        "account": "unfi",
        "name": "UNFI - New Stanton PA DC (Hunker)",
        "type": "Distribution Center",
        "archetype": "#9",
        "archetypeName": "Gate + No GS (remote check-in)",
        "confidence": "medium",
        "zone": "staging"
      }
    },
    {
      "type": "Feature",
      "geometry": {
        "type": "Polygon",
        "coordinates": [
          [
            [
              -76.775799,
              40.071753
            ],
            [
              -76.7747,
              40.066918
            ],
            [
              -76.771679,
              40.067339
            ],
            [
              -76.773052,
              40.071963
            ],
            [
              -76.775799,
              40.071753
            ]
          ]
        ]
      },
      "properties": {
        "account": "unfi",
        "name": "UNFI - York PA DC (Harrisburg area)",
        "type": "Distribution Center",
        "archetype": "#3",
        "archetypeName": "No Gate / No GS",
        "confidence": "high",
        "zone": "perimeter",
        "truckGate": false,
        "guardShack": false,
        "remoteGs": false,
        "fastLaneOpportunity": true,
        "backupSensitive": false,
        "dropYard": true,
        "multipleFacilities": false,
        "scale": false,
        "shipRcvSeparate": false,
        "urbanRural": "Rural",
        "dockDoors": "50+",
        "dropArea": "50+",
        "yardMetrics": {
          "dockDoorCount": 110,
          "trailersVisible": 130,
          "trailerParkingCapacity": 160,
          "truckGateCount": 1,
          "buildingCount": 1,
          "siteAreaAcres": 41,
          "railServed": false
        }
      }
    },
    {
      "type": "Feature",
      "geometry": {
        "type": "Polygon",
        "coordinates": [
          [
            [
              -76.775249,
              40.067339
            ],
            [
              -76.775249,
              40.066708
            ],
            [
              -76.774425,
              40.066708
            ],
            [
              -76.774425,
              40.067339
            ],
            [
              -76.775249,
              40.067339
            ]
          ]
        ]
      },
      "properties": {
        "account": "unfi",
        "name": "UNFI - York PA DC (Harrisburg area)",
        "type": "Distribution Center",
        "archetype": "#3",
        "archetypeName": "No Gate / No GS",
        "confidence": "high",
        "zone": "truckGate"
      }
    },
    {
      "type": "Feature",
      "geometry": {
        "type": "Polygon",
        "coordinates": [
          [
            [
              -76.774975,
              40.072173
            ],
            [
              -76.774837,
              40.071543
            ],
            [
              -76.772777,
              40.071753
            ],
            [
              -76.772915,
              40.072383
            ],
            [
              -76.774975,
              40.072173
            ]
          ]
        ]
      },
      "properties": {
        "account": "unfi",
        "name": "UNFI - York PA DC (Harrisburg area)",
        "type": "Distribution Center",
        "archetype": "#3",
        "archetypeName": "No Gate / No GS",
        "confidence": "high",
        "zone": "dropYard",
        "index": 1
      }
    },
    {
      "type": "Feature",
      "geometry": {
        "type": "Polygon",
        "coordinates": [
          [
            [
              -76.775524,
              40.071332
            ],
            [
              -76.775455,
              40.070912
            ],
            [
              -76.773533,
              40.071122
            ],
            [
              -76.773601,
              40.071543
            ],
            [
              -76.775524,
              40.071332
            ]
          ]
        ]
      },
      "properties": {
        "account": "unfi",
        "name": "UNFI - York PA DC (Harrisburg area)",
        "type": "Distribution Center",
        "archetype": "#3",
        "archetypeName": "No Gate / No GS",
        "confidence": "high",
        "zone": "dockApron",
        "index": 1
      }
    },
    {
      "type": "Feature",
      "geometry": {
        "type": "Polygon",
        "coordinates": [
          [
            [
              -91.488017,
              41.636029
            ],
            [
              -91.488154,
              41.634695
            ],
            [
              -91.485613,
              41.634592
            ],
            [
              -91.485476,
              41.635926
            ],
            [
              -91.488017,
              41.636029
            ]
          ]
        ]
      },
      "properties": {
        "account": "unfi",
        "name": "UNFI - Iowa City IA DC",
        "type": "Distribution Center",
        "archetype": "#3",
        "archetypeName": "No Gate / No GS",
        "confidence": "high",
        "zone": "perimeter",
        "truckGate": false,
        "guardShack": false,
        "remoteGs": false,
        "fastLaneOpportunity": false,
        "backupSensitive": false,
        "dropYard": true,
        "multipleFacilities": false,
        "scale": false,
        "shipRcvSeparate": false,
        "urbanRural": "Rural",
        "dockDoors": "25-50",
        "dropArea": "10-25",
        "yardMetrics": {
          "dockDoorCount": 32,
          "trailersVisible": 26,
          "trailerParkingCapacity": 40,
          "truckGateCount": 1,
          "buildingCount": 1,
          "siteAreaAcres": 33,
          "railServed": false
        }
      }
    },
    {
      "type": "Feature",
      "geometry": {
        "type": "Polygon",
        "coordinates": [
          [
            [
              -91.48836,
              41.635105
            ],
            [
              -91.488429,
              41.634797
            ],
            [
              -91.488017,
              41.634746
            ],
            [
              -91.487948,
              41.635054
            ],
            [
              -91.48836,
              41.635105
            ]
          ]
        ]
      },
      "properties": {
        "account": "unfi",
        "name": "UNFI - Iowa City IA DC",
        "type": "Distribution Center",
        "archetype": "#3",
        "archetypeName": "No Gate / No GS",
        "confidence": "high",
        "zone": "truckGate"
      }
    },
    {
      "type": "Feature",
      "geometry": {
        "type": "Polygon",
        "coordinates": [
          [
            [
              -91.487261,
              41.634643
            ],
            [
              -91.48733,
              41.634335
            ],
            [
              -91.485819,
              41.634233
            ],
            [
              -91.485751,
              41.634541
            ],
            [
              -91.487261,
              41.634643
            ]
          ]
        ]
      },
      "properties": {
        "account": "unfi",
        "name": "UNFI - Iowa City IA DC",
        "type": "Distribution Center",
        "archetype": "#3",
        "archetypeName": "No Gate / No GS",
        "confidence": "high",
        "zone": "dropYard",
        "index": 1
      }
    },
    {
      "type": "Feature",
      "geometry": {
        "type": "Polygon",
        "coordinates": [
          [
            [
              -91.487948,
              41.6349
            ],
            [
              -91.487982,
              41.634746
            ],
            [
              -91.486334,
              41.634643
            ],
            [
              -91.4863,
              41.634797
            ],
            [
              -91.487948,
              41.6349
            ]
          ]
        ]
      },
      "properties": {
        "account": "unfi",
        "name": "UNFI - Iowa City IA DC",
        "type": "Distribution Center",
        "archetype": "#3",
        "archetypeName": "No Gate / No GS",
        "confidence": "high",
        "zone": "dockApron",
        "index": 1
      }
    },
    {
      "type": "Feature",
      "geometry": {
        "type": "Polygon",
        "coordinates": [
          [
            [
              -93.408247,
              44.920167
            ],
            [
              -93.408796,
              44.916277
            ],
            [
              -93.402753,
              44.915888
            ],
            [
              -93.402204,
              44.919778
            ],
            [
              -93.408247,
              44.920167
            ]
          ]
        ]
      },
      "properties": {
        "account": "unfi",
        "name": "UNFI - Hopkins MN DC",
        "type": "Distribution Center",
        "archetype": "#6",
        "archetypeName": "Gate + GS (not BU sens.) + campus",
        "confidence": "high",
        "zone": "perimeter",
        "truckGate": true,
        "guardShack": true,
        "remoteGs": false,
        "fastLaneOpportunity": true,
        "backupSensitive": false,
        "dropYard": true,
        "multipleFacilities": true,
        "scale": false,
        "shipRcvSeparate": true,
        "urbanRural": "Urban",
        "dockDoors": "50+",
        "dropArea": "50+",
        "yardMetrics": {
          "dockDoorCount": 130,
          "trailersVisible": 150,
          "trailerParkingCapacity": 200,
          "truckGateCount": 1,
          "buildingCount": 3,
          "siteAreaAcres": 150,
          "railServed": false
        }
      }
    },
    {
      "type": "Feature",
      "geometry": {
        "type": "Polygon",
        "coordinates": [
          [
            [
              -93.407972,
              44.919583
            ],
            [
              -93.408109,
              44.919
            ],
            [
              -93.40344,
              44.918611
            ],
            [
              -93.403303,
              44.919194
            ],
            [
              -93.407972,
              44.919583
            ]
          ]
        ]
      },
      "properties": {
        "account": "unfi",
        "name": "UNFI - Hopkins MN DC",
        "type": "Distribution Center",
        "archetype": "#6",
        "archetypeName": "Gate + GS (not BU sens.) + campus",
        "confidence": "high",
        "zone": "dockApron",
        "index": 1
      }
    },
    {
      "type": "Feature",
      "geometry": {
        "type": "Polygon",
        "coordinates": [
          [
            [
              -88.233283,
              40.152059
            ],
            [
              -88.233421,
              40.149854
            ],
            [
              -88.230811,
              40.149749
            ],
            [
              -88.230674,
              40.151954
            ],
            [
              -88.233283,
              40.152059
            ]
          ]
        ]
      },
      "properties": {
        "account": "unfi",
        "name": "UNFI - Champaign IL DC (Newell)",
        "type": "Distribution Center",
        "archetype": "#3",
        "archetypeName": "No Gate / No GS",
        "confidence": "high",
        "zone": "perimeter",
        "truckGate": false,
        "guardShack": false,
        "remoteGs": false,
        "fastLaneOpportunity": false,
        "backupSensitive": false,
        "dropYard": true,
        "multipleFacilities": false,
        "scale": false,
        "shipRcvSeparate": true,
        "urbanRural": "Rural",
        "dockDoors": "50+",
        "dropArea": "50+",
        "yardMetrics": {
          "dockDoorCount": 90,
          "trailersVisible": 70,
          "trailerParkingCapacity": 130,
          "truckGateCount": 0,
          "buildingCount": 2,
          "siteAreaAcres": 36,
          "railServed": false
        }
      }
    },
    {
      "type": "Feature",
      "geometry": {
        "type": "Polygon",
        "coordinates": [
          [
            [
              -88.233283,
              40.150274
            ],
            [
              -88.233283,
              40.149644
            ],
            [
              -88.232459,
              40.149644
            ],
            [
              -88.232459,
              40.150274
            ],
            [
              -88.233283,
              40.150274
            ]
          ]
        ]
      },
      "properties": {
        "account": "unfi",
        "name": "UNFI - Champaign IL DC (Newell)",
        "type": "Distribution Center",
        "archetype": "#3",
        "archetypeName": "No Gate / No GS",
        "confidence": "high",
        "zone": "truckGate"
      }
    },
    {
      "type": "Feature",
      "geometry": {
        "type": "Polygon",
        "coordinates": [
          [
            [
              -88.230262,
              40.152059
            ],
            [
              -88.230399,
              40.150274
            ],
            [
              -88.228339,
              40.150169
            ],
            [
              -88.228202,
              40.151954
            ],
            [
              -88.230262,
              40.152059
            ]
          ]
        ]
      },
      "properties": {
        "account": "unfi",
        "name": "UNFI - Champaign IL DC (Newell)",
        "type": "Distribution Center",
        "archetype": "#3",
        "archetypeName": "No Gate / No GS",
        "confidence": "high",
        "zone": "dropYard",
        "index": 1
      }
    },
    {
      "type": "Feature",
      "geometry": {
        "type": "Polygon",
        "coordinates": [
          [
            [
              -88.233146,
              40.151744
            ],
            [
              -88.233215,
              40.151429
            ],
            [
              -88.231017,
              40.151324
            ],
            [
              -88.230949,
              40.151639
            ],
            [
              -88.233146,
              40.151744
            ]
          ]
        ]
      },
      "properties": {
        "account": "unfi",
        "name": "UNFI - Champaign IL DC (Newell)",
        "type": "Distribution Center",
        "archetype": "#3",
        "archetypeName": "No Gate / No GS",
        "confidence": "high",
        "zone": "dockApron",
        "index": 1
      }
    },
    {
      "type": "Feature",
      "geometry": {
        "type": "Polygon",
        "coordinates": [
          [
            [
              -104.779649,
              39.775086
            ],
            [
              -104.7791,
              39.771814
            ],
            [
              -104.773332,
              39.772342
            ],
            [
              -104.773881,
              39.775614
            ],
            [
              -104.779649,
              39.775086
            ]
          ]
        ]
      },
      "properties": {
        "account": "unfi",
        "name": "UNFI - Aurora CO DC (Denver)",
        "type": "Distribution Center",
        "archetype": "#3",
        "archetypeName": "No Gate / No GS",
        "confidence": "high",
        "zone": "perimeter",
        "truckGate": false,
        "guardShack": false,
        "remoteGs": false,
        "fastLaneOpportunity": false,
        "backupSensitive": false,
        "dropYard": true,
        "multipleFacilities": false,
        "scale": false,
        "shipRcvSeparate": false,
        "urbanRural": "Urban",
        "dockDoors": "50+",
        "dropArea": "50+",
        "yardMetrics": {
          "dockDoorCount": 110,
          "trailersVisible": 130,
          "trailerParkingCapacity": 200,
          "truckGateCount": 0,
          "buildingCount": 1,
          "siteAreaAcres": 32,
          "railServed": false
        }
      }
    },
    {
      "type": "Feature",
      "geometry": {
        "type": "Polygon",
        "coordinates": [
          [
            [
              -104.780061,
              39.774031
            ],
            [
              -104.779924,
              39.773398
            ],
            [
              -104.7791,
              39.773503
            ],
            [
              -104.779237,
              39.774137
            ],
            [
              -104.780061,
              39.774031
            ]
          ]
        ]
      },
      "properties": {
        "account": "unfi",
        "name": "UNFI - Aurora CO DC (Denver)",
        "type": "Distribution Center",
        "archetype": "#3",
        "archetypeName": "No Gate / No GS",
        "confidence": "high",
        "zone": "truckGate"
      }
    },
    {
      "type": "Feature",
      "geometry": {
        "type": "Polygon",
        "coordinates": [
          [
            [
              -104.777177,
              39.772342
            ],
            [
              -104.776765,
              39.770759
            ],
            [
              -104.774019,
              39.771076
            ],
            [
              -104.774431,
              39.772659
            ],
            [
              -104.777177,
              39.772342
            ]
          ]
        ]
      },
      "properties": {
        "account": "unfi",
        "name": "UNFI - Aurora CO DC (Denver)",
        "type": "Distribution Center",
        "archetype": "#3",
        "archetypeName": "No Gate / No GS",
        "confidence": "high",
        "zone": "dropYard",
        "index": 1
      }
    },
    {
      "type": "Feature",
      "geometry": {
        "type": "Polygon",
        "coordinates": [
          [
            [
              -104.779375,
              39.774453
            ],
            [
              -104.779306,
              39.774031
            ],
            [
              -104.774087,
              39.774559
            ],
            [
              -104.774156,
              39.774981
            ],
            [
              -104.779375,
              39.774453
            ]
          ]
        ]
      },
      "properties": {
        "account": "unfi",
        "name": "UNFI - Aurora CO DC (Denver)",
        "type": "Distribution Center",
        "archetype": "#3",
        "archetypeName": "No Gate / No GS",
        "confidence": "high",
        "zone": "dockApron",
        "index": 1
      }
    },
    {
      "type": "Feature",
      "geometry": {
        "type": "Polygon",
        "coordinates": [
          [
            [
              -92.787697,
              44.7643
            ],
            [
              -92.787697,
              44.761472
            ],
            [
              -92.783851,
              44.761472
            ],
            [
              -92.783851,
              44.7643
            ],
            [
              -92.787697,
              44.7643
            ]
          ]
        ]
      },
      "properties": {
        "account": "unfi",
        "name": "UNFI - Prescott WI DC (Twin Cities)",
        "type": "Distribution Center",
        "archetype": "#3",
        "archetypeName": "No Gate / No GS",
        "confidence": "high",
        "zone": "perimeter",
        "truckGate": false,
        "guardShack": false,
        "remoteGs": false,
        "fastLaneOpportunity": false,
        "backupSensitive": false,
        "dropYard": true,
        "multipleFacilities": false,
        "scale": false,
        "shipRcvSeparate": false,
        "urbanRural": "Rural",
        "dockDoors": "25-50",
        "dropArea": "25-50",
        "yardMetrics": {
          "dockDoorCount": 44,
          "trailersVisible": 38,
          "trailerParkingCapacity": 70,
          "truckGateCount": 1,
          "buildingCount": 2,
          "siteAreaAcres": 36,
          "railServed": false
        }
      }
    },
    {
      "type": "Feature",
      "geometry": {
        "type": "Polygon",
        "coordinates": [
          [
            [
              -92.787697,
              44.762155
            ],
            [
              -92.787697,
              44.761472
            ],
            [
              -92.78701,
              44.761472
            ],
            [
              -92.78701,
              44.762155
            ],
            [
              -92.787697,
              44.762155
            ]
          ]
        ]
      },
      "properties": {
        "account": "unfi",
        "name": "UNFI - Prescott WI DC (Twin Cities)",
        "type": "Distribution Center",
        "archetype": "#3",
        "archetypeName": "No Gate / No GS",
        "confidence": "high",
        "zone": "truckGate"
      }
    },
    {
      "type": "Feature",
      "geometry": {
        "type": "Polygon",
        "coordinates": [
          [
            [
              -92.787559,
              44.761862
            ],
            [
              -92.787628,
              44.761472
            ],
            [
              -92.784195,
              44.761472
            ],
            [
              -92.784126,
              44.761862
            ],
            [
              -92.787559,
              44.761862
            ]
          ]
        ]
      },
      "properties": {
        "account": "unfi",
        "name": "UNFI - Prescott WI DC (Twin Cities)",
        "type": "Distribution Center",
        "archetype": "#3",
        "archetypeName": "No Gate / No GS",
        "confidence": "high",
        "zone": "dockApron",
        "index": 1
      }
    },
    {
      "type": "Feature",
      "geometry": {
        "type": "Polygon",
        "coordinates": [
          [
            [
              -87.919249,
              42.697528
            ],
            [
              -87.920073,
              42.691876
            ],
            [
              -87.916503,
              42.691472
            ],
            [
              -87.915404,
              42.697124
            ],
            [
              -87.919249,
              42.697528
            ]
          ]
        ]
      },
      "properties": {
        "account": "unfi",
        "name": "UNFI - Racine WI DC (Sturtevant)",
        "type": "Distribution Center",
        "archetype": "#3",
        "archetypeName": "No Gate / No GS",
        "confidence": "high",
        "zone": "perimeter",
        "truckGate": false,
        "guardShack": false,
        "remoteGs": false,
        "fastLaneOpportunity": false,
        "backupSensitive": false,
        "dropYard": true,
        "multipleFacilities": false,
        "scale": false,
        "shipRcvSeparate": false,
        "urbanRural": "Rural",
        "dockDoors": "50+",
        "dropArea": "50+",
        "yardMetrics": {
          "dockDoorCount": 54,
          "trailersVisible": 60,
          "trailerParkingCapacity": 110,
          "truckGateCount": 1,
          "buildingCount": 2,
          "siteAreaAcres": 55,
          "railServed": false
        }
      }
    },
    {
      "type": "Feature",
      "geometry": {
        "type": "Polygon",
        "coordinates": [
          [
            [
              -87.917327,
              42.692885
            ],
            [
              -87.917601,
              42.691674
            ],
            [
              -87.915953,
              42.691472
            ],
            [
              -87.915679,
              42.692683
            ],
            [
              -87.917327,
              42.692885
            ]
          ]
        ]
      },
      "properties": {
        "account": "unfi",
        "name": "UNFI - Racine WI DC (Sturtevant)",
        "type": "Distribution Center",
        "archetype": "#3",
        "archetypeName": "No Gate / No GS",
        "confidence": "high",
        "zone": "truckGate"
      }
    },
    {
      "type": "Feature",
      "geometry": {
        "type": "Polygon",
        "coordinates": [
          [
            [
              -87.918975,
              42.696922
            ],
            [
              -87.919112,
              42.696115
            ],
            [
              -87.915816,
              42.695711
            ],
            [
              -87.915679,
              42.696519
            ],
            [
              -87.918975,
              42.696922
            ]
          ]
        ]
      },
      "properties": {
        "account": "unfi",
        "name": "UNFI - Racine WI DC (Sturtevant)",
        "type": "Distribution Center",
        "archetype": "#3",
        "archetypeName": "No Gate / No GS",
        "confidence": "high",
        "zone": "dockApron",
        "index": 1
      }
    },
    {
      "type": "Feature",
      "geometry": {
        "type": "Polygon",
        "coordinates": [
          [
            [
              -86.058849,
              39.611314
            ],
            [
              -86.058849,
              39.608986
            ],
            [
              -86.056651,
              39.608986
            ],
            [
              -86.056651,
              39.611314
            ],
            [
              -86.058849,
              39.611314
            ]
          ]
        ]
      },
      "properties": {
        "account": "unfi",
        "name": "UNFI - Greenwood IN DC (Indianapolis)",
        "type": "Distribution Center",
        "archetype": "#3",
        "archetypeName": "No Gate / No GS",
        "confidence": "high",
        "zone": "perimeter",
        "truckGate": false,
        "guardShack": false,
        "remoteGs": false,
        "fastLaneOpportunity": false,
        "backupSensitive": false,
        "dropYard": true,
        "multipleFacilities": false,
        "scale": false,
        "shipRcvSeparate": false,
        "urbanRural": "Urban",
        "dockDoors": "50+",
        "dropArea": "50+",
        "yardMetrics": {
          "dockDoorCount": 95,
          "trailersVisible": 110,
          "trailerParkingCapacity": 130,
          "truckGateCount": 1,
          "buildingCount": 1,
          "siteAreaAcres": 23.5,
          "railServed": false
        }
      }
    },
    {
      "type": "Feature",
      "geometry": {
        "type": "Polygon",
        "coordinates": [
          [
            [
              -86.059123,
              39.610362
            ],
            [
              -86.059123,
              39.609938
            ],
            [
              -86.058711,
              39.609938
            ],
            [
              -86.058711,
              39.610362
            ],
            [
              -86.059123,
              39.610362
            ]
          ]
        ]
      },
      "properties": {
        "account": "unfi",
        "name": "UNFI - Greenwood IN DC (Indianapolis)",
        "type": "Distribution Center",
        "archetype": "#3",
        "archetypeName": "No Gate / No GS",
        "confidence": "high",
        "zone": "truckGate"
      }
    },
    {
      "type": "Feature",
      "geometry": {
        "type": "Polygon",
        "coordinates": [
          [
            [
              -86.057407,
              39.611208
            ],
            [
              -86.057407,
              39.609092
            ],
            [
              -86.056651,
              39.609092
            ],
            [
              -86.056651,
              39.611208
            ],
            [
              -86.057407,
              39.611208
            ]
          ]
        ]
      },
      "properties": {
        "account": "unfi",
        "name": "UNFI - Greenwood IN DC (Indianapolis)",
        "type": "Distribution Center",
        "archetype": "#3",
        "archetypeName": "No Gate / No GS",
        "confidence": "high",
        "zone": "dropYard",
        "index": 1
      }
    },
    {
      "type": "Feature",
      "geometry": {
        "type": "Polygon",
        "coordinates": [
          [
            [
              -86.058711,
              39.611208
            ],
            [
              -86.058711,
              39.609092
            ],
            [
              -86.058574,
              39.609092
            ],
            [
              -86.058574,
              39.611208
            ],
            [
              -86.058711,
              39.611208
            ]
          ]
        ]
      },
      "properties": {
        "account": "unfi",
        "name": "UNFI - Greenwood IN DC (Indianapolis)",
        "type": "Distribution Center",
        "archetype": "#3",
        "archetypeName": "No Gate / No GS",
        "confidence": "high",
        "zone": "dockApron",
        "index": 1
      }
    },
    {
      "type": "Feature",
      "geometry": {
        "type": "Polygon",
        "coordinates": [
          [
            [
              -121.547472,
              36.996927
            ],
            [
              -121.547472,
              36.994734
            ],
            [
              -121.543627,
              36.994734
            ],
            [
              -121.543627,
              36.996927
            ],
            [
              -121.547472,
              36.996927
            ]
          ]
        ]
      },
      "properties": {
        "account": "unfi",
        "name": "UNFI - Gilroy CA DC",
        "type": "Distribution Center",
        "archetype": "#3",
        "archetypeName": "No Gate / No GS",
        "confidence": "high",
        "zone": "perimeter",
        "truckGate": false,
        "guardShack": false,
        "remoteGs": false,
        "fastLaneOpportunity": false,
        "backupSensitive": false,
        "dropYard": true,
        "multipleFacilities": false,
        "scale": false,
        "shipRcvSeparate": false,
        "urbanRural": "Rural",
        "dockDoors": "25-50",
        "dropArea": "25-50",
        "yardMetrics": {
          "dockDoorCount": 40,
          "trailersVisible": 32,
          "trailerParkingCapacity": 60,
          "truckGateCount": 1,
          "buildingCount": 1,
          "siteAreaAcres": 33,
          "railServed": false
        }
      }
    },
    {
      "type": "Feature",
      "geometry": {
        "type": "Polygon",
        "coordinates": [
          [
            [
              -121.547472,
              36.995502
            ],
            [
              -121.547472,
              36.994734
            ],
            [
              -121.546785,
              36.994734
            ],
            [
              -121.546785,
              36.995502
            ],
            [
              -121.547472,
              36.995502
            ]
          ]
        ]
      },
      "properties": {
        "account": "unfi",
        "name": "UNFI - Gilroy CA DC",
        "type": "Distribution Center",
        "archetype": "#3",
        "archetypeName": "No Gate / No GS",
        "confidence": "high",
        "zone": "truckGate"
      }
    },
    {
      "type": "Feature",
      "geometry": {
        "type": "Polygon",
        "coordinates": [
          [
            [
              -121.547335,
              36.996708
            ],
            [
              -121.547335,
              36.996379
            ],
            [
              -121.545,
              36.996379
            ],
            [
              -121.545,
              36.996708
            ],
            [
              -121.547335,
              36.996708
            ]
          ]
        ]
      },
      "properties": {
        "account": "unfi",
        "name": "UNFI - Gilroy CA DC",
        "type": "Distribution Center",
        "archetype": "#3",
        "archetypeName": "No Gate / No GS",
        "confidence": "high",
        "zone": "dockApron",
        "index": 1
      }
    },
    {
      "type": "Feature",
      "geometry": {
        "type": "Polygon",
        "coordinates": [
          [
            [
              -121.284848,
              38.814984
            ],
            [
              -121.284848,
              38.811988
            ],
            [
              -121.281552,
              38.811988
            ],
            [
              -121.281552,
              38.814984
            ],
            [
              -121.284848,
              38.814984
            ]
          ]
        ]
      },
      "properties": {
        "account": "unfi",
        "name": "UNFI - Rocklin CA DC (Western Region)",
        "type": "Distribution Center",
        "archetype": "#3",
        "archetypeName": "No Gate / No GS",
        "confidence": "high",
        "zone": "perimeter",
        "truckGate": false,
        "guardShack": false,
        "remoteGs": false,
        "fastLaneOpportunity": false,
        "backupSensitive": false,
        "dropYard": true,
        "multipleFacilities": false,
        "scale": false,
        "shipRcvSeparate": true,
        "urbanRural": "Urban",
        "dockDoors": "50+",
        "dropArea": "50+",
        "yardMetrics": {
          "dockDoorCount": 70,
          "trailersVisible": 65,
          "trailerParkingCapacity": 100,
          "truckGateCount": 2,
          "buildingCount": 2,
          "siteAreaAcres": 38,
          "railServed": false
        }
      }
    },
    {
      "type": "Feature",
      "geometry": {
        "type": "Polygon",
        "coordinates": [
          [
            [
              -121.284848,
              38.812844
            ],
            [
              -121.284848,
              38.811988
            ],
            [
              -121.284161,
              38.811988
            ],
            [
              -121.284161,
              38.812844
            ],
            [
              -121.284848,
              38.812844
            ]
          ]
        ]
      },
      "properties": {
        "account": "unfi",
        "name": "UNFI - Rocklin CA DC (Western Region)",
        "type": "Distribution Center",
        "archetype": "#3",
        "archetypeName": "No Gate / No GS",
        "confidence": "high",
        "zone": "truckGate"
      }
    },
    {
      "type": "Feature",
      "geometry": {
        "type": "Polygon",
        "coordinates": [
          [
            [
              -121.284711,
              38.81477
            ],
            [
              -121.284161,
              38.812416
            ],
            [
              -121.283887,
              38.812416
            ],
            [
              -121.283887,
              38.81477
            ],
            [
              -121.284711,
              38.81477
            ]
          ]
        ]
      },
      "properties": {
        "account": "unfi",
        "name": "UNFI - Rocklin CA DC (Western Region)",
        "type": "Distribution Center",
        "archetype": "#3",
        "archetypeName": "No Gate / No GS",
        "confidence": "high",
        "zone": "dockApron",
        "index": 1
      }
    },
    {
      "type": "Feature",
      "geometry": {
        "type": "Polygon",
        "coordinates": [
          [
            [
              -117.278672,
              33.913084
            ],
            [
              -117.278672,
              33.911032
            ],
            [
              -117.274003,
              33.911032
            ],
            [
              -117.274003,
              33.913084
            ],
            [
              -117.278672,
              33.913084
            ]
          ]
        ]
      },
      "properties": {
        "account": "unfi",
        "name": "UNFI - Moreno Valley CA DC",
        "type": "Distribution Center",
        "archetype": "#7",
        "archetypeName": "Gate + GS (not BU sens.) + fast lane opp",
        "confidence": "high",
        "zone": "perimeter",
        "truckGate": true,
        "guardShack": true,
        "remoteGs": false,
        "fastLaneOpportunity": true,
        "backupSensitive": false,
        "dropYard": true,
        "multipleFacilities": false,
        "scale": false,
        "shipRcvSeparate": false,
        "urbanRural": "Urban",
        "dockDoors": "50+",
        "dropArea": "25-50",
        "yardMetrics": {
          "dockDoorCount": 95,
          "trailersVisible": 60,
          "trailerParkingCapacity": 90,
          "truckGateCount": 1,
          "buildingCount": 1,
          "siteAreaAcres": 30.2,
          "railServed": false
        }
      }
    },
    {
      "type": "Feature",
      "geometry": {
        "type": "Polygon",
        "coordinates": [
          [
            [
              -117.278672,
              33.911716
            ],
            [
              -117.278672,
              33.911032
            ],
            [
              -117.277985,
              33.911032
            ],
            [
              -117.277985,
              33.911716
            ],
            [
              -117.278672,
              33.911716
            ]
          ]
        ]
      },
      "properties": {
        "account": "unfi",
        "name": "UNFI - Moreno Valley CA DC",
        "type": "Distribution Center",
        "archetype": "#7",
        "archetypeName": "Gate + GS (not BU sens.) + fast lane opp",
        "confidence": "high",
        "zone": "truckGate"
      }
    },
    {
      "type": "Feature",
      "geometry": {
        "type": "Polygon",
        "coordinates": [
          [
            [
              -117.278535,
              33.912856
            ],
            [
              -117.278535,
              33.912514
            ],
            [
              -117.274277,
              33.912514
            ],
            [
              -117.274277,
              33.912856
            ],
            [
              -117.278535,
              33.912856
            ]
          ]
        ]
      },
      "properties": {
        "account": "unfi",
        "name": "UNFI - Moreno Valley CA DC",
        "type": "Distribution Center",
        "archetype": "#7",
        "archetypeName": "Gate + GS (not BU sens.) + fast lane opp",
        "confidence": "high",
        "zone": "dockApron",
        "index": 1
      }
    },
    {
      "type": "Feature",
      "geometry": {
        "type": "Polygon",
        "coordinates": [
          [
            [
              -123.012272,
              46.735247
            ],
            [
              -123.011997,
              46.728847
            ],
            [
              -123.007053,
              46.728847
            ],
            [
              -123.007328,
              46.735247
            ],
            [
              -123.012272,
              46.735247
            ]
          ]
        ]
      },
      "properties": {
        "account": "unfi",
        "name": "UNFI - Centralia WA DC (Pacific Northwest)",
        "type": "Distribution Center",
        "archetype": "#9",
        "archetypeName": "Gate + No GS (remote check-in)",
        "confidence": "medium",
        "zone": "perimeter",
        "truckGate": true,
        "guardShack": false,
        "remoteGs": true,
        "fastLaneOpportunity": true,
        "backupSensitive": false,
        "dropYard": true,
        "multipleFacilities": true,
        "scale": false,
        "shipRcvSeparate": false,
        "urbanRural": "Rural",
        "dockDoors": "50+",
        "dropArea": "50+",
        "yardMetrics": {
          "dockDoorCount": 130,
          "trailersVisible": 220,
          "trailerParkingCapacity": 320,
          "truckGateCount": 1,
          "buildingCount": 2,
          "siteAreaAcres": 79,
          "railServed": false
        }
      }
    },
    {
      "type": "Feature",
      "geometry": {
        "type": "Polygon",
        "coordinates": [
          [
            [
              -123.012272,
              46.735435
            ],
            [
              -123.012272,
              46.734965
            ],
            [
              -123.011173,
              46.734965
            ],
            [
              -123.011173,
              46.735435
            ],
            [
              -123.012272,
              46.735435
            ]
          ]
        ]
      },
      "properties": {
        "account": "unfi",
        "name": "UNFI - Centralia WA DC (Pacific Northwest)",
        "type": "Distribution Center",
        "archetype": "#9",
        "archetypeName": "Gate + No GS (remote check-in)",
        "confidence": "medium",
        "zone": "truckGate"
      }
    },
    {
      "type": "Feature",
      "geometry": {
        "type": "Polygon",
        "coordinates": [
          [
            [
              -123.012272,
              46.734682
            ],
            [
              -123.012135,
              46.729223
            ],
            [
              -123.010761,
              46.729223
            ],
            [
              -123.010899,
              46.734682
            ],
            [
              -123.012272,
              46.734682
            ]
          ]
        ]
      },
      "properties": {
        "account": "unfi",
        "name": "UNFI - Centralia WA DC (Pacific Northwest)",
        "type": "Distribution Center",
        "archetype": "#9",
        "archetypeName": "Gate + No GS (remote check-in)",
        "confidence": "medium",
        "zone": "dropYard",
        "index": 1
      }
    },
    {
      "type": "Feature",
      "geometry": {
        "type": "Polygon",
        "coordinates": [
          [
            [
              -123.010899,
              46.734682
            ],
            [
              -123.010761,
              46.729223
            ],
            [
              -123.010349,
              46.729223
            ],
            [
              -123.010487,
              46.734682
            ],
            [
              -123.010899,
              46.734682
            ]
          ]
        ]
      },
      "properties": {
        "account": "unfi",
        "name": "UNFI - Centralia WA DC (Pacific Northwest)",
        "type": "Distribution Center",
        "archetype": "#9",
        "archetypeName": "Gate + No GS (remote check-in)",
        "confidence": "medium",
        "zone": "dockApron",
        "index": 1
      }
    },
    {
      "type": "Feature",
      "geometry": {
        "type": "Polygon",
        "coordinates": [
          [
            [
              -122.668871,
              45.80794
            ],
            [
              -122.668871,
              45.804877
            ],
            [
              -122.664202,
              45.804877
            ],
            [
              -122.664202,
              45.80794
            ],
            [
              -122.668871,
              45.80794
            ]
          ]
        ]
      },
      "properties": {
        "account": "unfi",
        "name": "UNFI - Ridgefield WA DC",
        "type": "Distribution Center",
        "archetype": "#9",
        "archetypeName": "Gate + No GS (remote check-in)",
        "confidence": "medium",
        "zone": "perimeter",
        "truckGate": true,
        "guardShack": false,
        "remoteGs": true,
        "fastLaneOpportunity": true,
        "backupSensitive": false,
        "dropYard": true,
        "multipleFacilities": false,
        "scale": false,
        "shipRcvSeparate": true,
        "urbanRural": "Rural",
        "dockDoors": "50+",
        "dropArea": "50+",
        "yardMetrics": {
          "dockDoorCount": 150,
          "trailersVisible": 130,
          "trailerParkingCapacity": 180,
          "truckGateCount": 1,
          "buildingCount": 1,
          "siteAreaAcres": 50,
          "railServed": false
        }
      }
    },
    {
      "type": "Feature",
      "geometry": {
        "type": "Polygon",
        "coordinates": [
          [
            [
              -122.668871,
              45.807557
            ],
            [
              -122.668871,
              45.806983
            ],
            [
              -122.668185,
              45.806983
            ],
            [
              -122.668185,
              45.807557
            ],
            [
              -122.668871,
              45.807557
            ]
          ]
        ]
      },
      "properties": {
        "account": "unfi",
        "name": "UNFI - Ridgefield WA DC",
        "type": "Distribution Center",
        "archetype": "#9",
        "archetypeName": "Gate + No GS (remote check-in)",
        "confidence": "medium",
        "zone": "truckGate"
      }
    },
    {
      "type": "Feature",
      "geometry": {
        "type": "Polygon",
        "coordinates": [
          [
            [
              -122.668597,
              45.807749
            ],
            [
              -122.668597,
              45.807462
            ],
            [
              -122.664477,
              45.807462
            ],
            [
              -122.664477,
              45.807749
            ],
            [
              -122.668597,
              45.807749
            ]
          ]
        ]
      },
      "properties": {
        "account": "unfi",
        "name": "UNFI - Ridgefield WA DC",
        "type": "Distribution Center",
        "archetype": "#9",
        "archetypeName": "Gate + No GS (remote check-in)",
        "confidence": "medium",
        "zone": "dockApron",
        "index": 1
      }
    },
    {
      "type": "Feature",
      "geometry": {
        "type": "Polygon",
        "coordinates": [
          [
            [
              -118.866604,
              34.842433
            ],
            [
              -118.867154,
              34.840799
            ],
            [
              -118.865918,
              34.840404
            ],
            [
              -118.865368,
              34.842038
            ],
            [
              -118.866604,
              34.842433
            ]
          ]
        ]
      },
      "properties": {
        "account": "unfi",
        "name": "UNFI - Lebec CA DC",
        "type": "Distribution Center",
        "archetype": "#3",
        "archetypeName": "No Gate / No GS",
        "confidence": "low",
        "zone": "perimeter",
        "truckGate": false,
        "guardShack": false,
        "remoteGs": false,
        "fastLaneOpportunity": false,
        "backupSensitive": false,
        "dropYard": false,
        "multipleFacilities": false,
        "scale": false,
        "shipRcvSeparate": false,
        "urbanRural": "Rural",
        "dockDoors": "NONE",
        "dropArea": "NONE",
        "yardMetrics": {
          "dockDoorCount": 0,
          "trailersVisible": 0,
          "trailerParkingCapacity": 0,
          "truckGateCount": 0,
          "buildingCount": 0,
          "siteAreaAcres": 0,
          "railServed": false
        }
      }
    },
    {
      "type": "Feature",
      "geometry": {
        "type": "Polygon",
        "coordinates": [
          [
            [
              -114.471425,
              42.55685
            ],
            [
              -114.4717,
              42.555029
            ],
            [
              -114.469228,
              42.554826
            ],
            [
              -114.468953,
              42.556647
            ],
            [
              -114.471425,
              42.55685
            ]
          ]
        ]
      },
      "properties": {
        "account": "unfi",
        "name": "UNFI - Twin Falls ID DC",
        "type": "Distribution Center",
        "archetype": "#3",
        "archetypeName": "No Gate / No GS",
        "confidence": "low",
        "zone": "perimeter",
        "truckGate": false,
        "guardShack": false,
        "remoteGs": false,
        "fastLaneOpportunity": false,
        "backupSensitive": false,
        "dropYard": false,
        "multipleFacilities": false,
        "scale": false,
        "shipRcvSeparate": false,
        "urbanRural": "Rural",
        "dockDoors": "NONE",
        "dropArea": "NONE",
        "yardMetrics": {
          "dockDoorCount": 0,
          "trailersVisible": 0,
          "trailerParkingCapacity": 0,
          "truckGateCount": 0,
          "buildingCount": 0,
          "siteAreaAcres": 0,
          "railServed": false
        }
      }
    },
    {
      "type": "Feature",
      "geometry": {
        "type": "Polygon",
        "coordinates": [
          [
            [
              -118.222387,
              33.999969
            ],
            [
              -118.222387,
              33.999229
            ],
            [
              -118.221357,
              33.999229
            ],
            [
              -118.221357,
              33.999969
            ],
            [
              -118.222387,
              33.999969
            ]
          ]
        ]
      },
      "properties": {
        "account": "unfi",
        "name": "UNFI - Vernon CA DC (Los Angeles / Albert's Organics West)",
        "type": "Distribution Center",
        "archetype": "#3",
        "archetypeName": "No Gate / No GS",
        "confidence": "medium",
        "zone": "perimeter",
        "truckGate": false,
        "guardShack": false,
        "remoteGs": false,
        "fastLaneOpportunity": false,
        "backupSensitive": true,
        "dropYard": false,
        "multipleFacilities": false,
        "scale": false,
        "shipRcvSeparate": false,
        "urbanRural": "Urban",
        "dockDoors": "10-25",
        "dropArea": "0-10",
        "yardMetrics": {
          "dockDoorCount": 22,
          "trailersVisible": 6,
          "trailerParkingCapacity": 12,
          "truckGateCount": 1,
          "buildingCount": 1,
          "siteAreaAcres": 4,
          "railServed": true
        }
      }
    },
    {
      "type": "Feature",
      "geometry": {
        "type": "Polygon",
        "coordinates": [
          [
            [
              -118.222352,
              33.999912
            ],
            [
              -118.222352,
              33.999827
            ],
            [
              -118.2217,
              33.999827
            ],
            [
              -118.2217,
              33.999912
            ],
            [
              -118.222352,
              33.999912
            ]
          ]
        ]
      },
      "properties": {
        "account": "unfi",
        "name": "UNFI - Vernon CA DC (Los Angeles / Albert's Organics West)",
        "type": "Distribution Center",
        "archetype": "#3",
        "archetypeName": "No Gate / No GS",
        "confidence": "medium",
        "zone": "dockApron",
        "index": 1
      }
    },
    {
      "type": "Feature",
      "geometry": {
        "type": "Polygon",
        "coordinates": [
          [
            [
              -122.249737,
              47.327481
            ],
            [
              -122.249737,
              47.326457
            ],
            [
              -122.247951,
              47.326457
            ],
            [
              -122.247951,
              47.327481
            ],
            [
              -122.249737,
              47.327481
            ]
          ]
        ]
      },
      "properties": {
        "account": "unfi",
        "name": "UNFI - Auburn WA DC (Seattle)",
        "type": "Distribution Center",
        "archetype": "#9",
        "archetypeName": "Gate + No GS (remote check-in)",
        "confidence": "medium",
        "zone": "perimeter",
        "truckGate": true,
        "guardShack": false,
        "remoteGs": true,
        "fastLaneOpportunity": true,
        "backupSensitive": false,
        "dropYard": true,
        "multipleFacilities": true,
        "scale": false,
        "shipRcvSeparate": false,
        "urbanRural": "Urban",
        "dockDoors": "25-50",
        "dropArea": "50+",
        "yardMetrics": {
          "dockDoorCount": 45,
          "trailersVisible": 90,
          "trailerParkingCapacity": 130,
          "truckGateCount": 2,
          "buildingCount": 4,
          "siteAreaAcres": 18,
          "railServed": false
        }
      }
    },
    {
      "type": "Feature",
      "geometry": {
        "type": "Polygon",
        "coordinates": [
          [
            [
              -122.249668,
              47.326922
            ],
            [
              -122.249668,
              47.32655
            ],
            [
              -122.248089,
              47.32655
            ],
            [
              -122.248089,
              47.326922
            ],
            [
              -122.249668,
              47.326922
            ]
          ]
        ]
      },
      "properties": {
        "account": "unfi",
        "name": "UNFI - Auburn WA DC (Seattle)",
        "type": "Distribution Center",
        "archetype": "#9",
        "archetypeName": "Gate + No GS (remote check-in)",
        "confidence": "medium",
        "zone": "dockApron",
        "index": 1
      }
    },
    {
      "type": "Feature",
      "geometry": {
        "type": "Polygon",
        "coordinates": [
          [
            [
              -82.515458,
              40.759576
            ],
            [
              -82.515458,
              40.757704
            ],
            [
              -82.512986,
              40.757704
            ],
            [
              -82.512986,
              40.759576
            ],
            [
              -82.515458,
              40.759576
            ]
          ]
        ]
      },
      "properties": {
        "account": "unfi",
        "name": "UNFI - Mansfield OH DC",
        "type": "Distribution Center",
        "archetype": "#3",
        "archetypeName": "No Gate / No GS",
        "confidence": "low",
        "zone": "perimeter",
        "truckGate": false,
        "guardShack": false,
        "remoteGs": false,
        "fastLaneOpportunity": false,
        "backupSensitive": false,
        "dropYard": false,
        "multipleFacilities": false,
        "scale": false,
        "shipRcvSeparate": false,
        "urbanRural": "Rural",
        "dockDoors": "NONE",
        "dropArea": "NONE",
        "yardMetrics": {
          "dockDoorCount": 0,
          "trailersVisible": 0,
          "trailerParkingCapacity": 0,
          "truckGateCount": 0,
          "buildingCount": 0,
          "siteAreaAcres": 0,
          "railServed": false
        }
      }
    },
    {
      "type": "Feature",
      "geometry": {
        "type": "Polygon",
        "coordinates": [
          [
            [
              -88.020897,
              41.510622
            ],
            [
              -88.021721,
              41.505274
            ],
            [
              -88.018425,
              41.504966
            ],
            [
              -88.017601,
              41.510314
            ],
            [
              -88.020897,
              41.510622
            ]
          ]
        ]
      },
      "properties": {
        "account": "unfi",
        "name": "UNFI - Joliet IL DC (Chicago)",
        "type": "Distribution Center",
        "archetype": "#7",
        "archetypeName": "Gate + GS (not BU sens.) + fast lane opp",
        "confidence": "high",
        "zone": "perimeter",
        "truckGate": true,
        "guardShack": true,
        "remoteGs": false,
        "fastLaneOpportunity": true,
        "backupSensitive": false,
        "dropYard": true,
        "multipleFacilities": false,
        "scale": false,
        "shipRcvSeparate": false,
        "urbanRural": "Rural",
        "dockDoors": "50+",
        "dropArea": "50+",
        "yardMetrics": {
          "dockDoorCount": 70,
          "trailersVisible": 45,
          "trailerParkingCapacity": 90,
          "truckGateCount": 1,
          "buildingCount": 1,
          "siteAreaAcres": 38,
          "railServed": false
        }
      }
    },
    {
      "type": "Feature",
      "geometry": {
        "type": "Polygon",
        "coordinates": [
          [
            [
              -88.021172,
              41.505583
            ],
            [
              -88.021309,
              41.504966
            ],
            [
              -88.020485,
              41.504863
            ],
            [
              -88.020348,
              41.50548
            ],
            [
              -88.021172,
              41.505583
            ]
          ]
        ]
      },
      "properties": {
        "account": "unfi",
        "name": "UNFI - Joliet IL DC (Chicago)",
        "type": "Distribution Center",
        "archetype": "#7",
        "archetypeName": "Gate + GS (not BU sens.) + fast lane opp",
        "confidence": "high",
        "zone": "truckGate"
      }
    },
    {
      "type": "Feature",
      "geometry": {
        "type": "Polygon",
        "coordinates": [
          [
            [
              -88.021447,
              41.509285
            ],
            [
              -88.021859,
              41.505891
            ],
            [
              -88.020211,
              41.505686
            ],
            [
              -88.019799,
              41.50908
            ],
            [
              -88.021447,
              41.509285
            ]
          ]
        ]
      },
      "properties": {
        "account": "unfi",
        "name": "UNFI - Joliet IL DC (Chicago)",
        "type": "Distribution Center",
        "archetype": "#7",
        "archetypeName": "Gate + GS (not BU sens.) + fast lane opp",
        "confidence": "high",
        "zone": "dropYard",
        "index": 1
      }
    },
    {
      "type": "Feature",
      "geometry": {
        "type": "Polygon",
        "coordinates": [
          [
            [
              -88.019799,
              41.50908
            ],
            [
              -88.019867,
              41.508771
            ],
            [
              -88.017945,
              41.508565
            ],
            [
              -88.017876,
              41.508874
            ],
            [
              -88.019799,
              41.50908
            ]
          ]
        ]
      },
      "properties": {
        "account": "unfi",
        "name": "UNFI - Joliet IL DC (Chicago)",
        "type": "Distribution Center",
        "archetype": "#7",
        "archetypeName": "Gate + GS (not BU sens.) + fast lane opp",
        "confidence": "high",
        "zone": "dockApron",
        "index": 1
      }
    },
    {
      "type": "Feature",
      "geometry": {
        "type": "Polygon",
        "coordinates": [
          [
            [
              -88.020897,
              41.504966
            ],
            [
              -88.021035,
              41.504349
            ],
            [
              -88.018837,
              41.504143
            ],
            [
              -88.0187,
              41.50476
            ],
            [
              -88.020897,
              41.504966
            ]
          ]
        ]
      },
      "properties": {
        "account": "unfi",
        "name": "UNFI - Joliet IL DC (Chicago)",
        "type": "Distribution Center",
        "archetype": "#7",
        "archetypeName": "Gate + GS (not BU sens.) + fast lane opp",
        "confidence": "high",
        "zone": "staging"
      }
    },
    {
      "type": "Feature",
      "geometry": {
        "type": "Polygon",
        "coordinates": [
          [
            [
              -81.005573,
              34.710929
            ],
            [
              -81.005848,
              34.70901
            ],
            [
              -81.002964,
              34.708784
            ],
            [
              -81.002689,
              34.710703
            ],
            [
              -81.005573,
              34.710929
            ]
          ]
        ]
      },
      "properties": {
        "account": "unfi",
        "name": "UNFI - Richburg SC DC (Charlotte area)",
        "type": "Distribution Center",
        "archetype": "#3",
        "archetypeName": "No Gate / No GS",
        "confidence": "medium",
        "zone": "perimeter",
        "truckGate": false,
        "guardShack": false,
        "remoteGs": false,
        "fastLaneOpportunity": false,
        "backupSensitive": false,
        "dropYard": true,
        "multipleFacilities": false,
        "scale": false,
        "shipRcvSeparate": false,
        "urbanRural": "Rural",
        "dockDoors": "10-25",
        "dropArea": "10-25",
        "yardMetrics": {
          "dockDoorCount": 20,
          "trailersVisible": 14,
          "trailerParkingCapacity": 30,
          "truckGateCount": 1,
          "buildingCount": 1,
          "siteAreaAcres": 9,
          "railServed": false
        }
      }
    },
    {
      "type": "Feature",
      "geometry": {
        "type": "Polygon",
        "coordinates": [
          [
            [
              -81.004475,
              34.711606
            ],
            [
              -81.004543,
              34.711155
            ],
            [
              -81.003857,
              34.711042
            ],
            [
              -81.003788,
              34.711493
            ],
            [
              -81.004475,
              34.711606
            ]
          ]
        ]
      },
      "properties": {
        "account": "unfi",
        "name": "UNFI - Richburg SC DC (Charlotte area)",
        "type": "Distribution Center",
        "archetype": "#3",
        "archetypeName": "No Gate / No GS",
        "confidence": "medium",
        "zone": "truckGate"
      }
    },
    {
      "type": "Feature",
      "geometry": {
        "type": "Polygon",
        "coordinates": [
          [
            [
              -81.005573,
              34.710252
            ],
            [
              -81.005642,
              34.709179
            ],
            [
              -81.004955,
              34.709123
            ],
            [
              -81.004887,
              34.710195
            ],
            [
              -81.005573,
              34.710252
            ]
          ]
        ]
      },
      "properties": {
        "account": "unfi",
        "name": "UNFI - Richburg SC DC (Charlotte area)",
        "type": "Distribution Center",
        "archetype": "#3",
        "archetypeName": "No Gate / No GS",
        "confidence": "medium",
        "zone": "dropYard",
        "index": 1
      }
    },
    {
      "type": "Feature",
      "geometry": {
        "type": "Polygon",
        "coordinates": [
          [
            [
              -81.004887,
              34.710139
            ],
            [
              -81.004921,
              34.709969
            ],
            [
              -81.003685,
              34.709856
            ],
            [
              -81.003651,
              34.710026
            ],
            [
              -81.004887,
              34.710139
            ]
          ]
        ]
      },
      "properties": {
        "account": "unfi",
        "name": "UNFI - Richburg SC DC (Charlotte area)",
        "type": "Distribution Center",
        "archetype": "#3",
        "archetypeName": "No Gate / No GS",
        "confidence": "medium",
        "zone": "dockApron",
        "index": 1
      }
    },
    {
      "type": "Feature",
      "geometry": {
        "type": "Polygon",
        "coordinates": [
          [
            [
              -77.406685,
              37.63581
            ],
            [
              -77.407235,
              37.63059
            ],
            [
              -77.401192,
              37.630155
            ],
            [
              -77.400643,
              37.635375
            ],
            [
              -77.406685,
              37.63581
            ]
          ]
        ]
      },
      "properties": {
        "account": "unfi",
        "name": "UNFI - Mechanicsville VA DC (Richmond)",
        "type": "Distribution Center",
        "archetype": "#6",
        "archetypeName": "Gate + GS (not BU sens.) + campus",
        "confidence": "high",
        "zone": "perimeter",
        "truckGate": true,
        "guardShack": true,
        "remoteGs": false,
        "fastLaneOpportunity": true,
        "backupSensitive": false,
        "dropYard": true,
        "multipleFacilities": true,
        "scale": false,
        "shipRcvSeparate": true,
        "urbanRural": "Rural",
        "dockDoors": "50+",
        "dropArea": "50+",
        "yardMetrics": {
          "dockDoorCount": 110,
          "trailersVisible": 130,
          "trailerParkingCapacity": 240,
          "truckGateCount": 1,
          "buildingCount": 4,
          "siteAreaAcres": 70,
          "railServed": false
        }
      }
    },
    {
      "type": "Feature",
      "geometry": {
        "type": "Polygon",
        "coordinates": [
          [
            [
              -77.405587,
              37.630155
            ],
            [
              -77.405861,
              37.629067
            ],
            [
              -77.403664,
              37.62885
            ],
            [
              -77.403389,
              37.629937
            ],
            [
              -77.405587,
              37.630155
            ]
          ]
        ]
      },
      "properties": {
        "account": "unfi",
        "name": "UNFI - Mechanicsville VA DC (Richmond)",
        "type": "Distribution Center",
        "archetype": "#6",
        "archetypeName": "Gate + GS (not BU sens.) + campus",
        "confidence": "high",
        "zone": "truckGate"
      }
    },
    {
      "type": "Feature",
      "geometry": {
        "type": "Polygon",
        "coordinates": [
          [
            [
              -77.406411,
              37.635375
            ],
            [
              -77.406685,
              37.631242
            ],
            [
              -77.404488,
              37.631025
            ],
            [
              -77.404213,
              37.635158
            ],
            [
              -77.406411,
              37.635375
            ]
          ]
        ]
      },
      "properties": {
        "account": "unfi",
        "name": "UNFI - Mechanicsville VA DC (Richmond)",
        "type": "Distribution Center",
        "archetype": "#6",
        "archetypeName": "Gate + GS (not BU sens.) + campus",
        "confidence": "high",
        "zone": "dropYard",
        "index": 1
      }
    },
    {
      "type": "Feature",
      "geometry": {
        "type": "Polygon",
        "coordinates": [
          [
            [
              -77.404213,
              37.635158
            ],
            [
              -77.404351,
              37.634505
            ],
            [
              -77.401604,
              37.634288
            ],
            [
              -77.401467,
              37.63494
            ],
            [
              -77.404213,
              37.635158
            ]
          ]
        ]
      },
      "properties": {
        "account": "unfi",
        "name": "UNFI - Mechanicsville VA DC (Richmond)",
        "type": "Distribution Center",
        "archetype": "#6",
        "archetypeName": "Gate + GS (not BU sens.) + campus",
        "confidence": "high",
        "zone": "dockApron",
        "index": 1
      }
    }
  ]
}
